{"type":"FeatureCollection","features":[{"type":"Feature","geometry":{"type":"LineString","coordinates":[[20.628,50.866],[20.63688,50.86573]]},"properties":{"id":"kielce-001","route":"11","mode":"tram","stop_from":"Przystanek A","stop_to":"Przystanek B","plan_kmh":14.5,"kmh_p15":[null,11.0,null,null,10.9,10.7,10.3,9.7,9.4,9.7,10.3,10.7,10.9,10.7,10.4,9.8,9.3,9.3,9.8,10.4,10.8,10.9,11.0,11.0],"kmh_p50":[null,13.7,null,null,13.7,13.4,12.9,12.2,11.8,12.2,12.9,13.4,13.6,13.4,13.0,12.2,11.6,11.6,12.2,13.0,13.4,13.7,13.7,13.7],"kmh_p85":[null,16.2,null,null,16.1,15.8,15.2,14.3,13.9,14.3,15.2,15.8,16.0,15.9,15.3,14.4,13.7,13.7,14.4,15.3,15.9,16.1,16.2,16.2],"n":null}},{"type":"Feature","geometry":{"type":"LineString","coordinates":[[20.63688,50.86573],[20.64578,50.86571]]},"properties":{"id":"kielce-002","route":"11","mode":"tram","stop_from":"Przystanek B","stop_to":"Przystanek C","plan_kmh":null,"kmh_p15":[null,null,null,null,null,null,null,null,null,null,null,null,null,null,null,null,null,null,null,null,null,null,null,null],"kmh_p50":[null,null,null,null,null,null,null,null,null,null,null,null,null,null,null,null,null,null,null,null,null,null,null,null],"kmh_p85":[null,null,null,null,null,null,null,null,null,null,null,null,null,null,null,null,null,null,null,null,null,null,null,null],"n":null}},{"type":"Feature","geometry":{"type":"LineString","coordinates":[[20.64578,50.86571],[20.65469,50.86591]]},"properties":{"id":"kielce-003","route":"11","mode":"tram","stop_from":"Przystanek C","stop_to":"Przystanek D","plan_kmh":null,"kmh_p15":[null,null,null,null,null,null,null,null,null,null,null,null,null,null,null,null,null,null,null,null,null,null,null,null],"kmh_p50":[null,null,null,null,null,null,null,null,null,null,null,null,null,null,null,null,null,null,null,null,null,null,null,null],"kmh_p85":[null,null,null,null,null,null,null,null,null,null,null,null,null,null,null,null,null,null,null,null,null,null,null,null],"n":null}},{"type":"Feature","geometry":{"type":"LineString","coordinates":[[20.65469,50.86591],[20.66358,50.86628]]},"properties":{"id":"kielce-004","route":"11","mode":"tram","stop_from":"Przystanek D","stop_to":"Przystanek E","plan_kmh":16.9,"kmh_p15":[null,null,null,null,12.7,12.5,12.0,11.3,11.0,11.3,12.0,12.5,12.6,12.5,12.1,11.4,10.8,10.8,11.4,12.1,12.5,12.7,null,null],"kmh_p50":[null,null,null,null,15.9,15.6,15.0,14.1,13.7,14.1,15.0,15.6,15.8,15.6,15.1,14.2,13.5,13.5,14.2,15.1,15.6,15.9,null,null],"kmh_p85":[null,null,null,null,18.7,18.4,17.7,16.7,16.2,16.7,17.7,18.4,18.6,18.4,17.8,16.8,15.9,15.9,16.8,17.8,18.5,18.7,null,null],"n":null}},{"type":"Feature","geometry":{"type":"LineString","coordinates":[[20.66358,50.86628],[20.67247,50.86572]]},"properties":{"id":"kielce-005","route":"11","mode":"tram","stop_from":"Przystanek E","stop_to":"Przystanek F","plan_kmh":22.8,"kmh_p15":[null,null,null,null,17.1,16.8,16.1,15.2,14.8,15.2,16.1,16.8,17.0,16.8,16.2,15.3,14.6,14.6,15.3,16.2,16.8,17.1,17.2,null],"kmh_p50":[null,null,null,null,21.4,21.0,20.1,19.0,18.5,19.0,20.1,21.0,21.3,21.0,20.3,19.1,18.2,18.2,19.1,20.3,21.0,21.4,21.5,null],"kmh_p85":[null,null,null,null,25.2,24.8,23.8,22.5,21.8,22.5,23.8,24.7,25.1,24.8,23.9,22.6,21.5,21.5,22.6,23.9,24.8,25.2,25.3,null],"n":null}},{"type":"Feature","geometry":{"type":"LineString","coordinates":[[20.67247,50.86572],[20.68127,50.8645]]},"properties":{"id":"kielce-006","route":"11","mode":"tram","stop_from":"Przystanek F","stop_to":"Przystanek G","plan_kmh":28.5,"kmh_p15":[null,null,null,null,21.4,21.0,20.2,19.1,18.5,19.1,20.2,21.0,21.3,21.1,20.3,19.2,18.2,18.2,19.2,20.3,21.1,21.4,21.5,21.5],"kmh_p50":[null,null,null,null,26.8,26.3,25.2,23.8,23.1,23.8,25.2,26.3,26.6,26.3,25.4,24.0,22.8,22.8,24.0,25.4,26.4,26.8,26.9,26.9],"kmh_p85":[null,null,null,null,31.6,31.0,29.8,28.1,27.3,28.1,29.8,31.0,31.4,31.1,30.0,28.3,26.9,26.9,28.3,30.0,31.1,31.6,31.7,31.8],"n":null}},{"type":"Feature","geometry":{"type":"LineString","coordinates":[[20.68127,50.8645],[20.69017,50.86438]]},"properties":{"id":"kielce-007","route":"11","mode":"tram","stop_from":"Przystanek G","stop_to":"Przystanek H","plan_kmh":35.6,"kmh_p15":[null,null,null,null,26.8,26.3,25.2,23.8,23.1,23.8,25.2,26.3,26.6,26.3,25.4,23.9,22.8,22.8,23.9,25.4,26.3,26.8,26.9,null],"kmh_p50":[null,null,null,null,33.4,32.9,31.5,29.8,28.9,29.8,31.5,32.8,33.3,32.9,31.7,29.9,28.5,28.5,29.9,31.7,32.9,33.5,33.6,null],"kmh_p85":[null,null,null,null,39.5,38.8,37.2,35.1,34.1,35.1,37.2,38.7,39.2,38.8,37.4,35.3,33.6,33.6,35.3,37.4,38.9,39.5,39.6,null],"n":null}},{"type":"Feature","geometry":{"type":"LineString","coordinates":[[20.69017,50.86438],[20.69917,50.86582]]},"properties":{"id":"kielce-008","route":"11","mode":"tram","stop_from":"Przystanek H","stop_to":"Przystanek I","plan_kmh":36.0,"kmh_p15":[null,null,27.2,null,27.1,26.6,25.5,24.1,23.4,24.1,25.5,26.6,26.9,26.6,25.7,24.2,23.0,23.0,24.2,25.7,26.6,27.1,null,27.2],"kmh_p50":[null,null,34.0,null,33.8,33.2,31.9,30.1,29.3,30.1,31.9,33.2,33.6,33.3,32.1,30.3,28.8,28.8,30.3,32.1,33.3,33.8,null,34.0],"kmh_p85":[null,null,40.1,null,39.9,39.2,37.6,35.5,34.5,35.5,37.6,39.2,39.7,39.3,37.9,35.7,34.0,34.0,35.7,37.9,39.3,39.9,null,40.1],"n":null}},{"type":"Feature","geometry":{"type":"LineString","coordinates":[[20.628,50.866],[20.63506,50.86847]]},"properties":{"id":"kielce-009","route":null,"mode":"bus","stop_from":"Przystanek J","stop_to":"Przystanek K","plan_kmh":8.8,"kmh_p15":[null,null,null,null,6.6,6.5,6.2,5.9,5.7,5.9,6.2,6.4,6.5,6.5,6.2,5.9,5.6,5.6,5.9,6.2,6.5,6.6,6.6,6.6],"kmh_p50":[null,null,null,null,8.2,8.1,7.7,7.3,7.1,7.3,7.7,8.1,8.2,8.1,7.8,7.4,7.0,7.0,7.4,7.8,8.1,8.2,8.3,8.3],"kmh_p85":[null,null,null,null,9.7,9.5,9.1,8.6,8.4,8.6,9.1,9.5,9.6,9.5,9.2,8.7,8.3,8.3,8.7,9.2,9.5,9.7,9.7,9.7],"n":null}},{"type":"Feature","geometry":{"type":"LineString","coordinates":[[20.63506,50.86847],[20.64276,50.87055]]},"properties":{"id":"kielce-010","route":null,"mode":"bus","stop_from":"Przystanek K","stop_to":"Przystanek L","plan_kmh":15.5,"kmh_p15":[null,null,null,null,11.6,11.4,11.0,10.4,10.1,10.4,11.0,11.4,11.6,11.5,11.1,10.4,9.9,9.9,10.4,11.1,11.5,11.7,11.7,11.7],"kmh_p50":[null,null,null,null,14.6,14.3,13.7,13.0,12.6,13.0,13.7,14.3,14.5,14.3,13.8,13.0,12.4,12.4,13.0,13.8,14.3,14.6,14.6,14.6],"kmh_p85":[null,null,null,null,17.2,16.9,16.2,15.3,14.9,15.3,16.2,16.9,17.1,16.9,16.3,15.4,14.6,14.6,15.4,16.3,16.9,17.2,17.3,17.3],"n":null}},{"type":"Feature","geometry":{"type":"LineString","coordinates":[[20.64276,50.87055],[20.64987,50.873]]},"properties":{"id":"kielce-011","route":null,"mode":"bus","stop_from":"Przystanek L","stop_to":"Przystanek M","plan_kmh":16.9,"kmh_p15":[null,null,12.7,null,12.7,12.4,11.9,11.3,11.0,11.3,11.9,12.4,12.6,12.5,12.0,11.3,10.8,10.8,11.3,12.0,12.5,12.7,12.7,12.7],"kmh_p50":[null,null,15.9,null,15.8,15.6,14.9,14.1,13.7,14.1,14.9,15.5,15.7,15.6,15.0,14.2,13.5,13.5,14.2,15.0,15.6,15.8,15.9,15.9],"kmh_p85":[null,null,18.8,null,18.7,18.4,17.6,16.6,16.2,16.6,17.6,18.3,18.6,18.4,17.7,16.7,15.9,15.9,16.7,17.7,18.4,18.7,18.8,18.8],"n":null}},{"type":"Feature","geometry":{"type":"LineString","coordinates":[[20.64987,50.873],[20.65583,50.87615]]},"properties":{"id":"kielce-012","route":null,"mode":"bus","stop_from":"Przystanek M","stop_to":"Przystanek N","plan_kmh":21.1,"kmh_p15":[null,null,15.9,null,15.8,15.6,14.9,14.1,13.7,14.1,14.9,15.5,15.7,15.6,15.0,14.2,13.5,13.5,14.2,15.0,15.6,null,15.9,15.9],"kmh_p50":[null,null,19.9,null,19.8,19.4,18.7,17.6,17.1,17.6,18.6,19.4,19.7,19.5,18.8,17.7,16.8,16.8,17.7,18.8,19.5,null,19.9,19.9],"kmh_p85":[null,null,23.5,null,23.4,22.9,22.0,20.8,20.2,20.8,22.0,22.9,23.2,23.0,22.2,20.9,19.9,19.9,20.9,22.2,23.0,null,23.5,23.5],"n":null}},{"type":"Feature","geometry":{"type":"LineString","coordinates":[[20.65583,50.87615],[20.66404,50.87793]]},"properties":{"id":"kielce-013","route":null,"mode":"bus","stop_from":"Przystanek N","stop_to":"Przystanek O","plan_kmh":21.2,"kmh_p15":[null,null,16.0,null,15.9,15.6,15.0,14.1,13.7,14.1,15.0,15.6,15.8,15.6,15.1,14.2,13.5,13.5,14.2,15.1,15.6,15.9,null,16.0],"kmh_p50":[null,null,20.0,null,19.8,19.5,18.7,17.7,17.2,17.7,18.7,19.5,19.7,19.5,18.8,17.8,16.9,16.9,17.8,18.8,19.5,19.8,null,20.0],"kmh_p85":[null,null,23.5,null,23.4,23.0,22.1,20.9,20.3,20.9,22.1,23.0,23.3,23.0,22.2,21.0,19.9,19.9,21.0,22.2,23.1,23.4,null,23.5],"n":null}},{"type":"Feature","geometry":{"type":"LineString","coordinates":[[20.66404,50.87793],[20.67232,50.87961]]},"properties":{"id":"kielce-014","route":null,"mode":"bus","stop_from":"Przystanek O","stop_to":"Przystanek P","plan_kmh":28.5,"kmh_p15":[null,null,null,null,21.4,21.0,20.2,19.0,18.5,19.0,20.2,21.0,21.3,21.0,20.3,19.1,18.2,18.2,19.1,20.3,21.1,21.4,21.5,21.5],"kmh_p50":[null,null,null,null,26.7,26.3,25.2,23.8,23.1,23.8,25.2,26.2,26.6,26.3,25.4,23.9,22.8,22.8,23.9,25.4,26.3,26.7,26.9,26.9],"kmh_p85":[null,null,null,null,31.5,31.0,29.7,28.1,27.3,28.1,29.7,31.0,31.4,31.0,29.9,28.2,26.9,26.9,28.2,29.9,31.1,31.6,31.7,31.7],"n":null}},{"type":"Feature","geometry":{"type":"LineString","coordinates":[[20.67232,50.87961],[20.67727,50.88342]]},"properties":{"id":"kielce-015","route":null,"mode":"bus","stop_from":"Przystanek P","stop_to":"Przystanek Q","plan_kmh":31.2,"kmh_p15":[23.5,null,null,null,23.4,22.9,22.0,20.8,20.2,20.8,22.0,22.9,23.2,23.0,22.2,20.9,19.9,19.9,20.9,22.2,23.0,23.4,null,null],"kmh_p50":[29.4,null,null,null,29.2,28.7,27.5,26.0,25.2,26.0,27.5,28.6,29.0,28.7,27.7,26.1,24.9,24.9,26.1,27.7,28.7,29.2,null,null],"kmh_p85":[34.6,null,null,null,34.4,33.8,32.5,30.7,29.8,30.7,32.5,33.8,34.3,33.9,32.7,30.8,29.3,29.3,30.8,32.7,33.9,34.5,null,null],"n":null}},{"type":"Feature","geometry":{"type":"LineString","coordinates":[[20.67727,50.88342],[20.68338,50.88645]]},"properties":{"id":"kielce-016","route":null,"mode":"bus","stop_from":"Przystanek Q","stop_to":"Przystanek R","plan_kmh":34.9,"kmh_p15":[null,null,null,null,26.2,25.7,24.7,23.3,null,23.3,24.7,25.7,26.0,25.8,24.9,23.4,22.3,22.3,23.4,24.9,25.8,26.2,26.3,26.3],"kmh_p50":[null,null,null,null,32.7,32.2,30.9,29.2,null,29.2,30.9,32.1,32.6,32.2,31.1,29.3,27.9,27.9,29.3,31.1,32.2,32.7,32.9,32.9],"kmh_p85":[null,null,null,null,38.6,38.0,36.4,34.4,null,34.4,36.4,37.9,38.4,38.0,36.7,34.6,32.9,32.9,34.6,36.7,38.0,38.6,38.8,38.9],"n":null}},{"type":"Feature","geometry":{"type":"LineString","coordinates":[[20.628,50.866],[20.62905,50.86959]]},"properties":{"id":"kielce-017","route":null,"mode":"tram","stop_from":"Przystanek S","stop_to":"Przystanek T","plan_kmh":11.1,"kmh_p15":[null,8.4,null,null,8.3,8.2,7.8,7.4,7.2,7.4,7.8,8.2,8.3,8.2,7.9,7.5,7.1,7.1,7.5,7.9,8.2,null,null,8.4],"kmh_p50":[null,10.5,null,null,10.4,10.2,9.8,9.3,9.0,9.3,9.8,10.2,10.3,10.2,9.9,9.3,8.9,8.9,9.3,9.9,10.2,null,null,10.5],"kmh_p85":[null,12.3,null,null,12.3,12.1,11.6,10.9,10.6,10.9,11.6,12.1,12.2,12.1,11.7,11.0,10.5,10.5,11.0,11.7,12.1,null,null,12.3],"n":null}},{"type":"Feature","geometry":{"type":"LineString","coordinates":[[20.62905,50.86959],[20.62953,50.8732]]},"properties":{"id":"kielce-018","route":null,"mode":"tram","stop_from":"Przystanek T","stop_to":"Przystanek U","plan_kmh":12.2,"kmh_p15":[null,9.2,9.2,null,9.2,9.0,8.6,8.2,7.9,8.2,8.6,9.0,9.1,9.0,8.7,8.2,7.8,7.8,null,8.7,9.0,9.2,null,9.2],"kmh_p50":[null,11.5,11.5,null,11.5,11.3,10.8,10.2,9.9,10.2,10.8,11.2,11.4,11.3,10.9,10.3,9.8,9.8,null,10.9,11.3,11.5,null,11.5],"kmh_p85":[null,13.6,13.6,null,13.5,13.3,12.7,12.0,11.7,12.0,12.7,13.3,13.4,13.3,12.8,12.1,11.5,11.5,null,12.8,13.3,13.5,null,13.6],"n":null}},{"type":"Feature","geometry":{"type":"LineString","coordinates":[[20.62953,50.8732],[20.63084,50.87677]]},"properties":{"id":"kielce-019","route":null,"mode":"tram","stop_from":"Przystanek U","stop_to":"Przystanek V","plan_kmh":20.5,"kmh_p15":[null,null,null,null,15.3,15.1,14.5,13.7,13.3,13.7,14.5,15.1,15.3,15.1,14.6,13.7,13.1,13.1,13.7,14.6,15.1,15.3,15.4,15.4],"kmh_p50":[null,null,null,null,19.2,18.8,18.1,17.1,16.6,17.1,18.1,18.8,19.1,18.9,18.2,17.2,16.3,16.3,17.2,18.2,18.9,19.2,19.3,19.3],"kmh_p85":[null,null,null,null,22.6,22.2,21.3,20.1,19.6,20.1,21.3,22.2,22.5,22.3,21.5,20.2,19.3,19.3,20.2,21.5,22.3,22.6,22.7,22.7],"n":null}},{"type":"Feature","geometry":{"type":"LineString","coordinates":[[20.63084,50.87677],[20.62952,50.88045]]},"properties":{"id":"kielce-020","route":null,"mode":"tram","stop_from":"Przystanek V","stop_to":"Przystanek W","plan_kmh":21.0,"kmh_p15":[15.9,null,null,null,15.8,15.5,14.9,14.0,13.6,14.0,14.9,15.5,15.7,15.5,15.0,14.1,13.4,13.4,14.1,15.0,15.5,15.8,15.9,15.9],"kmh_p50":[19.8,null,null,null,19.7,19.4,18.6,17.6,17.1,17.6,18.6,19.4,19.6,19.4,18.7,17.7,16.8,16.8,17.7,18.7,19.4,19.7,19.8,19.8],"kmh_p85":[23.4,null,null,null,23.3,22.9,21.9,20.7,20.1,20.7,21.9,22.8,23.1,22.9,22.1,20.8,19.8,19.8,20.8,22.1,22.9,23.3,23.4,23.4],"n":null}},{"type":"Feature","geometry":{"type":"LineString","coordinates":[[20.62952,50.88045],[20.63254,50.88397]]},"properties":{"id":"kielce-021","route":null,"mode":"tram","stop_from":"Przystanek W","stop_to":"Przystanek X","plan_kmh":23.0,"kmh_p15":[null,null,null,null,17.4,17.1,16.4,15.5,15.0,15.5,16.4,17.0,17.3,17.1,16.5,15.5,14.8,14.8,15.5,16.5,17.1,17.4,null,null],"kmh_p50":[null,null,null,null,21.7,21.3,20.5,19.3,18.8,19.3,20.5,21.3,21.6,21.4,20.6,19.4,18.5,18.5,19.4,20.6,21.4,21.7,null,null],"kmh_p85":[null,null,null,null,25.6,25.2,24.1,22.8,22.2,22.8,24.1,25.1,25.5,25.2,24.3,22.9,21.8,21.8,22.9,24.3,25.2,25.6,null,null],"n":null}},{"type":"Feature","geometry":{"type":"LineString","coordinates":[[20.63254,50.88397],[20.63314,50.88758]]},"properties":{"id":"kielce-022","route":null,"mode":"tram","stop_from":"Przystanek X","stop_to":"Przystanek Y","plan_kmh":27.6,"kmh_p15":[null,null,null,20.8,20.7,20.3,19.5,18.4,17.9,18.4,19.5,20.3,20.6,20.3,19.6,18.5,17.6,17.6,18.5,19.6,null,20.7,null,20.8],"kmh_p50":[null,null,null,26.0,25.8,25.4,24.3,23.0,22.3,23.0,24.3,25.4,25.7,25.4,24.5,23.1,22.0,22.0,23.1,24.5,null,25.8,null,26.0],"kmh_p85":[null,null,null,30.6,30.5,29.9,28.7,27.1,26.4,27.1,28.7,29.9,30.3,30.0,28.9,27.3,26.0,26.0,27.3,28.9,null,30.5,null,30.7],"n":null}},{"type":"Feature","geometry":{"type":"LineString","coordinates":[[20.63314,50.88758],[20.63223,50.89125]]},"properties":{"id":"kielce-023","route":null,"mode":"tram","stop_from":"Przystanek Y","stop_to":"Przystanek Z","plan_kmh":32.2,"kmh_p15":[null,null,null,null,24.3,23.9,22.9,21.6,21.0,21.6,22.9,23.8,24.2,23.9,23.1,21.7,20.7,20.7,21.7,23.1,23.9,24.3,null,null],"kmh_p50":[null,null,null,null,30.4,29.8,28.6,27.0,26.3,27.0,28.6,29.8,30.2,29.9,28.8,27.2,25.9,25.9,27.2,28.8,29.9,30.4,null,null],"kmh_p85":[null,null,null,null,35.8,35.2,33.8,31.9,31.0,31.9,33.8,35.2,35.6,35.3,34.0,32.1,30.5,30.5,32.1,34.0,35.3,35.8,null,null],"n":null}},{"type":"Feature","geometry":{"type":"LineString","coordinates":[[20.63223,50.89125],[20.63379,50.89482]]},"properties":{"id":"kielce-024","route":null,"mode":"tram","stop_from":"Przystanek Z","stop_to":"Przystanek A2","plan_kmh":26.6,"kmh_p15":[null,null,null,null,20.0,19.6,18.8,17.8,17.3,17.8,18.8,19.6,19.9,19.6,18.9,17.9,17.0,17.0,17.9,18.9,19.7,20.0,20.1,20.1],"kmh_p50":[null,null,null,null,25.0,24.5,23.5,22.2,21.6,22.2,23.5,24.5,24.8,24.6,23.7,22.3,21.3,21.3,22.3,23.7,24.6,25.0,25.1,25.1],"kmh_p85":[null,null,null,null,29.5,28.9,27.8,26.2,25.5,26.2,27.8,28.9,29.3,29.0,27.9,26.4,25.1,25.1,26.4,28.0,29.0,29.5,29.6,29.6],"n":null}},{"type":"Feature","geometry":{"type":"LineString","coordinates":[[20.63379,50.89482],[20.63761,50.89826]]},"properties":{"id":"kielce-025","route":null,"mode":"tram","stop_from":"Przystanek A2","stop_to":"Przystanek B2","plan_kmh":29.6,"kmh_p15":[null,22.4,22.4,null,22.2,21.8,20.9,19.8,19.2,19.8,20.9,21.8,22.1,21.9,21.1,19.9,18.9,18.9,19.9,21.1,21.9,22.2,null,22.4],"kmh_p50":[null,27.9,27.9,null,27.8,27.3,26.2,24.7,24.0,24.7,26.2,27.3,27.6,27.3,26.4,24.9,23.7,23.7,24.9,26.4,27.4,27.8,null,27.9],"kmh_p85":[null,33.0,33.0,null,32.8,32.2,30.9,29.2,28.4,29.2,30.9,32.2,32.6,32.3,31.1,29.3,27.9,27.9,29.3,31.1,32.3,32.8,null,33.0],"n":null}},{"type":"Feature","geometry":{"type":"LineString","coordinates":[[20.628,50.866],[20.62304,50.86882]]},"properties":{"id":"kielce-026","route":null,"mode":"bus","stop_from":"Przystanek C2","stop_to":"Przystanek D2","plan_kmh":14.4,"kmh_p15":[null,null,null,null,10.8,10.6,10.2,9.6,9.4,9.6,10.2,10.6,10.8,10.6,10.3,9.7,9.2,9.2,9.7,10.3,10.7,10.8,10.9,10.9],"kmh_p50":[null,null,null,null,13.5,13.3,12.7,12.0,11.7,12.0,12.7,13.3,13.5,13.3,12.8,12.1,11.5,11.5,12.1,12.8,13.3,13.5,13.6,13.6],"kmh_p85":[null,null,null,null,16.0,15.7,15.0,14.2,13.8,14.2,15.0,15.7,15.9,15.7,15.1,14.3,13.6,13.6,14.3,15.1,15.7,16.0,16.0,16.0],"n":null}},{"type":"Feature","geometry":{"type":"LineString","coordinates":[[20.62304,50.86882],[20.61851,50.87179]]},"properties":{"id":"kielce-027","route":null,"mode":"bus","stop_from":"Przystanek D2","stop_to":"Przystanek E2","plan_kmh":14.4,"kmh_p15":[null,null,null,null,10.8,10.6,null,9.6,9.4,9.6,10.2,10.6,10.8,10.6,10.3,9.7,9.2,9.2,9.7,10.3,10.7,10.8,null,10.9],"kmh_p50":[null,null,null,null,13.5,13.3,null,12.0,11.7,12.0,12.7,13.3,13.4,13.3,12.8,12.1,11.5,11.5,12.1,12.8,13.3,13.5,null,13.6],"kmh_p85":[null,null,null,null,16.0,15.7,null,14.2,13.8,14.2,15.0,15.7,15.9,15.7,15.1,14.3,13.6,13.6,14.3,15.1,15.7,16.0,null,16.0],"n":null}},{"type":"Feature","geometry":{"type":"LineString","coordinates":[[20.61851,50.87179],[20.6133,50.87452]]},"properties":{"id":"kielce-028","route":null,"mode":"bus","stop_from":"Przystanek E2","stop_to":"Przystanek F2","plan_kmh":17.9,"kmh_p15":[null,null,null,13.5,13.5,13.2,12.7,12.0,11.7,12.0,12.7,13.2,13.4,13.3,12.8,12.1,11.5,11.5,12.1,12.8,13.3,13.5,13.5,null],"kmh_p50":[null,null,null,16.9,16.8,16.5,15.9,15.0,14.6,15.0,15.9,16.5,16.8,16.6,16.0,15.1,14.3,14.3,15.1,16.0,16.6,16.8,16.9,null],"kmh_p85":[null,null,null,20.0,19.9,19.5,18.7,17.7,17.2,17.7,18.7,19.5,19.8,19.6,18.9,17.8,16.9,16.9,17.8,18.9,19.6,19.9,20.0,null],"n":null}},{"type":"Feature","geometry":{"type":"LineString","coordinates":[[20.6133,50.87452],[20.60795,50.87719]]},"properties":{"id":"kielce-029","route":null,"mode":"bus","stop_from":"Przystanek F2","stop_to":"Przystanek G2","plan_kmh":17.1,"kmh_p15":[null,null,null,null,12.8,12.6,12.1,null,11.1,11.4,12.1,12.6,12.7,12.6,12.2,11.5,10.9,10.9,11.5,12.2,null,12.8,12.9,null],"kmh_p50":[null,null,null,null,16.0,15.7,15.1,null,13.9,14.3,15.1,15.7,15.9,15.8,15.2,14.3,13.6,13.6,14.3,15.2,null,16.0,16.1,null],"kmh_p85":[null,null,null,null,18.9,18.6,17.8,null,16.4,16.8,17.8,18.6,18.8,18.6,17.9,16.9,16.1,16.1,16.9,17.9,null,18.9,19.0,null],"n":null}},{"type":"Feature","geometry":{"type":"LineString","coordinates":[[20.60795,50.87719],[20.60342,50.88017]]},"properties":{"id":"kielce-030","route":null,"mode":"bus","stop_from":"Przystanek G2","stop_to":"Przystanek H2","plan_kmh":22.5,"kmh_p15":[null,null,null,null,16.8,16.5,15.9,15.0,14.6,15.0,15.9,16.5,16.7,16.6,16.0,15.1,14.3,14.3,15.1,16.0,16.6,16.8,16.9,16.9],"kmh_p50":[null,null,null,null,21.0,20.7,19.8,18.7,18.2,18.7,19.8,20.7,20.9,20.7,20.0,18.8,17.9,17.9,18.8,20.0,20.7,21.1,21.1,21.2],"kmh_p85":[null,null,null,null,24.8,24.4,23.4,22.1,21.5,22.1,23.4,24.4,24.7,24.4,23.6,22.2,21.1,21.1,22.2,23.6,24.5,24.8,25.0,25.0],"n":null}},{"type":"Feature","geometry":{"type":"LineString","coordinates":[[20.60342,50.88017],[20.59767,50.88269]]},"properties":{"id":"kielce-031","route":null,"mode":"bus","stop_from":"Przystanek H2","stop_to":"Przystanek I2","plan_kmh":28.0,"kmh_p15":[null,null,null,21.1,21.0,20.7,19.8,18.7,18.2,18.7,19.8,20.6,20.9,null,20.0,18.8,17.9,17.9,18.8,20.0,20.7,21.0,21.1,21.2],"kmh_p50":[null,null,null,26.4,26.3,25.8,24.8,23.4,22.7,23.4,24.8,25.8,26.2,null,25.0,23.5,22.4,22.4,23.5,25.0,25.9,26.3,26.4,26.4],"kmh_p85":[null,null,null,31.2,31.0,30.5,29.2,27.6,26.8,27.6,29.2,30.5,30.9,null,29.4,27.8,26.4,26.4,27.8,29.5,30.6,31.0,31.2,31.2],"n":null}},{"type":"Feature","geometry":{"type":"LineString","coordinates":[[20.59767,50.88269],[20.59539,50.88646]]},"properties":{"id":"kielce-032","route":null,"mode":"bus","stop_from":"Przystanek I2","stop_to":"Przystanek J2","plan_kmh":25.3,"kmh_p15":[null,null,null,19.1,19.0,18.7,17.9,16.9,16.4,16.9,17.9,18.6,18.9,18.7,18.0,17.0,16.2,16.2,17.0,18.0,18.7,19.0,19.1,19.1],"kmh_p50":[null,null,null,23.9,23.8,23.3,22.4,21.2,20.5,21.2,22.4,23.3,23.6,23.4,22.5,21.3,20.2,20.2,21.3,22.5,23.4,23.8,23.9,23.9],"kmh_p85":[null,null,null,28.2,28.0,27.5,26.4,25.0,24.2,25.0,26.4,27.5,27.9,27.6,26.6,25.1,23.9,23.9,25.1,26.6,27.6,28.0,28.2,28.2],"n":null}},{"type":"Feature","geometry":{"type":"LineString","coordinates":[[20.59539,50.88646],[20.58791,50.88839]]},"properties":{"id":"kielce-033","route":null,"mode":"bus","stop_from":"Przystanek J2","stop_to":"Przystanek K2","plan_kmh":32.0,"kmh_p15":[null,null,null,null,24.1,23.6,22.7,21.4,20.8,21.4,22.7,23.6,23.9,null,null,21.5,20.5,20.5,21.5,22.8,23.7,24.1,24.2,24.2],"kmh_p50":[null,null,null,null,30.1,29.6,28.3,26.8,26.0,26.8,28.3,29.5,29.9,null,null,26.9,25.6,25.6,26.9,28.5,29.6,30.1,30.2,30.2],"kmh_p85":[null,null,null,null,35.5,34.9,33.5,31.6,30.7,31.6,33.4,34.8,35.3,null,null,31.8,30.2,30.2,31.8,33.7,35.0,35.5,35.7,35.7],"n":null}},{"type":"Feature","geometry":{"type":"LineString","coordinates":[[20.58791,50.88839],[20.58227,50.89095]]},"properties":{"id":"kielce-034","route":null,"mode":"bus","stop_from":"Przystanek K2","stop_to":"Przystanek L2","plan_kmh":null,"kmh_p15":[null,null,null,null,null,null,null,null,null,null,null,null,null,null,null,null,null,null,null,null,null,null,null,null],"kmh_p50":[null,null,null,null,null,null,null,null,null,null,null,null,null,null,null,null,null,null,null,null,null,null,null,null],"kmh_p85":[null,null,null,null,null,null,null,null,null,null,null,null,null,null,null,null,null,null,null,null,null,null,null,null],"n":null}},{"type":"Feature","geometry":{"type":"LineString","coordinates":[[20.628,50.866],[20.6201,50.86591]]},"properties":{"id":"kielce-035","route":null,"mode":"tram","stop_from":"Przystanek M2","stop_to":"Przystanek N2","plan_kmh":16.7,"kmh_p15":[null,null,12.7,null,12.6,12.4,11.9,11.2,10.9,11.2,11.9,12.4,12.5,12.4,12.0,11.3,10.7,10.7,11.3,12.0,12.4,12.6,12.7,12.7],"kmh_p50":[null,null,15.8,null,15.7,15.5,14.8,14.0,13.6,14.0,14.8,15.5,15.7,15.5,14.9,14.1,13.4,13.4,14.1,14.9,15.5,15.8,15.8,15.8],"kmh_p85":[null,null,18.7,null,18.6,18.3,17.5,16.5,16.1,16.5,17.5,18.2,18.5,18.3,17.6,16.6,15.8,15.8,16.6,17.6,18.3,18.6,18.7,18.7],"n":null}},{"type":"Feature","geometry":{"type":"LineString","coordinates":[[20.6201,50.86591],[20.61219,50.86609]]},"properties":{"id":"kielce-036","route":null,"mode":"tram","stop_from":"Przystanek N2","stop_to":"Przystanek O2","plan_kmh":10.6,"kmh_p15":[null,null,null,null,8.0,7.8,7.5,7.1,6.9,7.1,7.5,7.8,7.9,7.9,7.6,7.1,6.8,6.8,7.1,7.6,7.9,8.0,8.0,8.0],"kmh_p50":[null,null,null,null,10.0,9.8,9.4,8.9,8.6,8.9,9.4,9.8,9.9,9.8,9.5,8.9,8.5,8.5,8.9,9.5,9.8,10.0,10.0,10.0],"kmh_p85":[null,null,null,null,11.8,11.6,11.1,10.5,10.2,10.5,11.1,11.6,11.7,11.6,11.2,10.5,10.0,10.0,10.5,11.2,11.6,11.8,11.8,11.8],"n":null}},{"type":"Feature","geometry":{"type":"LineString","coordinates":[[20.61219,50.86609],[20.60432,50.86538]]},"properties":{"id":"kielce-037","route":null,"mode":"tram","stop_from":"Przystanek O2","stop_to":"Przystanek P2","plan_kmh":22.2,"kmh_p15":[null,16.7,null,16.7,16.6,16.3,15.6,14.8,14.4,14.8,15.6,16.3,16.5,16.3,15.8,14.9,14.1,14.1,14.9,15.8,16.3,16.6,null,null],"kmh_p50":[null,20.9,null,20.8,20.8,20.4,19.6,18.5,17.9,18.5,19.6,20.4,20.6,20.4,19.7,18.6,17.7,17.7,18.6,19.7,20.4,20.8,null,null],"kmh_p85":[null,24.6,null,24.6,24.5,24.1,23.1,21.8,21.2,21.8,23.1,24.0,24.4,24.1,23.2,21.9,20.8,20.8,21.9,23.2,24.1,24.5,null,null],"n":null}},{"type":"Feature","geometry":{"type":"LineString","coordinates":[[20.60432,50.86538],[20.59637,50.86596]]},"properties":{"id":"kielce-038","route":null,"mode":"tram","stop_from":"Przystanek P2","stop_to":"Przystanek Q2","plan_kmh":25.1,"kmh_p15":[null,null,null,null,18.9,18.5,17.8,null,16.3,16.8,17.8,18.5,18.8,18.6,17.9,16.9,16.1,16.1,16.9,17.9,18.6,18.9,19.0,19.0],"kmh_p50":[null,null,null,null,23.6,23.2,22.2,null,20.4,21.0,22.2,23.2,23.5,23.2,22.4,21.1,20.1,20.1,21.1,22.4,23.2,23.6,23.7,23.7],"kmh_p85":[null,null,null,null,27.8,27.4,26.2,null,24.1,24.8,26.2,27.3,27.7,27.4,26.4,24.9,23.7,23.7,24.9,26.4,27.4,27.8,28.0,28.0],"n":null}},{"type":"Feature","geometry":{"type":"LineString","coordinates":[[20.59637,50.86596],[20.58849,50.86534]]},"properties":{"id":"kielce-039","route":null,"mode":"tram","stop_from":"Przystanek Q2","stop_to":"Przystanek R2","plan_kmh":21.1,"kmh_p15":[null,null,null,null,15.8,15.5,14.9,14.1,13.7,14.1,14.9,15.5,15.7,15.5,15.0,14.1,13.4,13.4,null,15.0,15.6,15.8,null,15.9],"kmh_p50":[null,null,null,null,19.7,19.4,18.6,17.6,17.1,17.6,18.6,19.4,19.6,19.4,18.7,17.7,16.8,16.8,null,18.7,19.4,19.7,null,19.9],"kmh_p85":[null,null,null,null,23.3,22.9,22.0,20.7,20.1,20.7,22.0,22.9,23.2,22.9,22.1,20.9,19.8,19.8,null,22.1,22.9,23.3,null,23.4],"n":null}},{"type":"Feature","geometry":{"type":"LineString","coordinates":[[20.58849,50.86534],[20.58057,50.86539]]},"properties":{"id":"kielce-040","route":null,"mode":"tram","stop_from":"Przystanek R2","stop_to":"Przystanek S2","plan_kmh":28.7,"kmh_p15":[null,null,21.7,null,21.5,21.2,20.3,19.2,18.6,19.2,20.3,21.1,21.4,21.2,20.4,19.3,18.3,18.3,19.3,20.4,21.2,21.5,21.6,null],"kmh_p50":[null,null,27.1,null,26.9,26.4,25.4,24.0,23.3,24.0,25.4,26.4,26.8,26.5,25.5,24.1,22.9,22.9,24.1,25.5,26.5,26.9,27.0,null],"kmh_p85":[null,null,31.9,null,31.8,31.2,29.9,28.3,27.5,28.3,29.9,31.2,31.6,31.2,30.1,28.4,27.0,27.0,28.4,30.1,31.3,31.8,31.9,null],"n":null}},{"type":"Feature","geometry":{"type":"LineString","coordinates":[[20.58057,50.86539],[20.57269,50.86508]]},"properties":{"id":"kielce-041","route":null,"mode":"tram","stop_from":"Przystanek S2","stop_to":"Przystanek T2","plan_kmh":29.5,"kmh_p15":[null,null,null,null,22.1,21.7,20.9,19.7,19.1,19.7,20.9,21.7,22.0,21.8,21.0,19.8,18.8,18.8,19.8,21.0,21.8,22.1,null,22.3],"kmh_p50":[null,null,null,null,27.7,27.2,26.1,24.6,23.9,24.6,26.1,27.1,27.5,27.2,26.2,24.8,23.5,23.5,24.8,26.2,27.2,27.7,null,27.8],"kmh_p85":[null,null,null,null,32.6,32.1,30.8,29.1,28.2,29.1,30.8,32.0,32.5,32.1,31.0,29.2,27.8,27.8,29.2,31.0,32.1,32.6,null,32.8],"n":null}},{"type":"Feature","geometry":{"type":"LineString","coordinates":[[20.57269,50.86508],[20.56475,50.8665]]},"properties":{"id":"kielce-042","route":null,"mode":"tram","stop_from":"Przystanek T2","stop_to":"Przystanek U2","plan_kmh":30.3,"kmh_p15":[null,null,22.9,22.9,22.8,22.4,21.5,20.3,19.7,20.3,21.5,22.3,22.6,22.4,21.6,20.4,19.4,19.4,20.4,21.6,22.4,22.8,22.9,null],"kmh_p50":[null,null,28.6,28.6,28.5,28.0,26.8,25.3,24.6,25.3,26.8,27.9,28.3,28.0,27.0,25.5,24.2,24.2,25.5,27.0,28.0,28.5,28.6,null],"kmh_p85":[null,null,33.8,33.7,33.6,33.0,31.7,29.9,29.1,29.9,31.7,33.0,33.4,33.0,31.9,30.1,28.6,28.6,30.1,31.9,33.1,33.6,33.7,null],"n":null}},{"type":"Feature","geometry":{"type":"LineString","coordinates":[[20.56475,50.8665],[20.55683,50.86597]]},"properties":{"id":"kielce-043","route":null,"mode":"tram","stop_from":"Przystanek U2","stop_to":"Przystanek V2","plan_kmh":null,"kmh_p15":[null,null,null,null,null,null,null,null,null,null,null,null,null,null,null,null,null,null,null,null,null,null,null,null],"kmh_p50":[null,null,null,null,null,null,null,null,null,null,null,null,null,null,null,null,null,null,null,null,null,null,null,null],"kmh_p85":[null,null,null,null,null,null,null,null,null,null,null,null,null,null,null,null,null,null,null,null,null,null,null,null],"n":null}},{"type":"Feature","geometry":{"type":"LineString","coordinates":[[20.628,50.866],[20.62222,50.86291]]},"properties":{"id":"kielce-044","route":null,"mode":"bus","stop_from":"Przystanek W2","stop_to":"Przystanek X2","plan_kmh":null,"kmh_p15":[null,null,null,null,null,null,null,null,null,null,null,null,null,null,null,null,null,null,null,null,null,null,null,null],"kmh_p50":[null,null,null,null,null,null,null,null,null,null,null,null,null,null,null,null,null,null,null,null,null,null,null,null],"kmh_p85":[null,null,null,null,null,null,null,null,null,null,null,null,null,null,null,null,null,null,null,null,null,null,null,null],"n":null}},{"type":"Feature","geometry":{"type":"LineString","coordinates":[[20.62222,50.86291],[20.61601,50.85999]]},"properties":{"id":"kielce-045","route":null,"mode":"bus","stop_from":"Przystanek X2","stop_to":"Przystanek Y2","plan_kmh":13.5,"kmh_p15":[10.2,null,null,null,10.1,9.9,9.5,9.0,8.7,9.0,9.5,9.9,10.0,9.9,9.6,9.0,8.6,8.6,9.0,9.6,9.9,10.1,null,10.2],"kmh_p50":[12.7,null,null,null,12.6,12.4,11.9,11.2,10.9,11.2,11.9,12.4,12.6,12.4,12.0,11.3,10.7,10.7,11.3,12.0,12.4,12.6,null,12.7],"kmh_p85":[15.0,null,null,null,14.9,14.6,14.0,13.3,12.9,13.3,14.0,14.6,14.8,14.7,14.1,13.3,12.7,12.7,13.3,14.1,14.7,14.9,null,15.0],"n":null}},{"type":"Feature","geometry":{"type":"LineString","coordinates":[[20.61601,50.85999],[20.60984,50.85705]]},"properties":{"id":"kielce-046","route":null,"mode":"bus","stop_from":"Przystanek Y2","stop_to":"Przystanek Z2","plan_kmh":18.7,"kmh_p15":[null,null,null,null,null,13.7,13.2,12.4,null,12.4,13.2,13.7,13.9,13.8,13.3,12.5,11.9,11.9,12.5,13.3,13.8,14.0,null,14.1],"kmh_p50":[null,null,null,null,null,17.2,16.5,15.6,null,15.6,16.5,17.1,17.4,17.2,16.6,15.6,14.9,14.9,15.6,16.6,17.2,17.5,null,17.6],"kmh_p85":[null,null,null,null,null,20.3,19.4,18.4,null,18.4,19.4,20.2,20.5,20.3,19.6,18.5,17.6,17.6,18.5,19.6,20.3,20.6,null,20.7],"n":null}},{"type":"Feature","geometry":{"type":"LineString","coordinates":[[20.60984,50.85705],[20.60444,50.8538]]},"properties":{"id":"kielce-047","route":null,"mode":"bus","stop_from":"Przystanek Z2","stop_to":"Przystanek A3","plan_kmh":24.3,"kmh_p15":[null,null,18.3,null,18.2,17.9,17.2,16.2,15.7,16.2,17.2,17.9,18.1,17.9,17.3,16.3,15.5,15.5,16.3,17.3,17.9,18.2,null,null],"kmh_p50":[null,null,22.9,null,22.8,22.4,21.4,20.3,19.7,20.3,21.4,22.3,22.6,22.4,21.6,20.4,19.4,19.4,20.4,21.6,22.4,22.8,null,null],"kmh_p85":[null,null,27.0,null,26.8,26.4,25.3,23.9,23.2,23.9,25.3,26.3,26.7,26.4,25.5,24.0,22.9,22.9,24.0,25.5,26.4,26.9,null,null],"n":null}},{"type":"Feature","geometry":{"type":"LineString","coordinates":[[20.60444,50.8538],[20.59831,50.85085]]},"properties":{"id":"kielce-048","route":null,"mode":"bus","stop_from":"Przystanek A3","stop_to":"Przystanek B3","plan_kmh":28.5,"kmh_p15":[21.5,null,null,null,21.4,21.0,20.2,19.0,18.5,19.0,20.2,21.0,21.3,21.0,20.3,19.1,18.2,18.2,19.1,20.3,21.1,21.4,21.5,21.5],"kmh_p50":[26.9,null,null,null,26.7,26.3,25.2,23.8,23.1,23.8,25.2,26.2,26.6,26.3,25.4,23.9,22.8,22.8,23.9,25.4,26.3,26.7,26.9,26.9],"kmh_p85":[31.7,null,null,null,31.5,31.0,29.7,28.1,27.3,28.1,29.7,31.0,31.4,31.0,29.9,28.2,26.9,26.9,28.2,29.9,31.1,31.6,31.7,31.7],"n":null}},{"type":"Feature","geometry":{"type":"LineString","coordinates":[[20.59831,50.85085],[20.5932,50.84748]]},"properties":{"id":"kielce-049","route":null,"mode":"bus","stop_from":"Przystanek B3","stop_to":"Przystanek C3","plan_kmh":28.6,"kmh_p15":[null,null,null,null,21.5,21.1,20.2,19.1,18.6,19.1,20.2,21.1,21.4,21.1,20.4,19.2,18.3,18.3,19.2,20.4,21.1,21.5,null,21.6],"kmh_p50":[null,null,null,null,26.8,26.4,25.3,23.9,23.2,23.9,25.3,26.3,26.7,26.4,25.5,24.0,22.9,22.9,24.0,25.5,26.4,26.8,null,27.0],"kmh_p85":[null,null,null,null,31.7,31.1,29.8,28.2,27.4,28.2,29.8,31.1,31.5,31.2,30.1,28.3,27.0,27.0,28.3,30.1,31.2,31.7,null,31.8],"n":null}},{"type":"Feature","geometry":{"type":"LineString","coordinates":[[20.5932,50.84748],[20.58587,50.84502]]},"properties":{"id":"kielce-050","route":null,"mode":"bus","stop_from":"Przystanek C3","stop_to":"Przystanek D3","plan_kmh":34.5,"kmh_p15":[null,null,null,null,25.9,25.4,24.4,23.0,22.4,23.0,24.4,25.4,25.7,25.4,24.5,23.1,22.0,22.0,23.1,24.5,25.5,25.9,26.0,26.0],"kmh_p50":[null,null,null,null,32.3,31.8,30.5,28.8,28.0,28.8,30.5,31.7,32.1,31.8,30.7,28.9,27.5,27.5,28.9,30.7,31.8,32.3,32.5,32.5],"kmh_p85":[null,null,null,null,38.1,37.5,35.9,34.0,33.0,34.0,35.9,37.4,37.9,37.5,36.2,34.1,32.5,32.5,34.1,36.2,37.6,38.1,38.3,38.4],"n":null}},{"type":"Feature","geometry":{"type":"LineString","coordinates":[[20.58587,50.84502],[20.5837,50.84052]]},"properties":{"id":"kielce-051","route":null,"mode":"bus","stop_from":"Przystanek D3","stop_to":"Przystanek E3","plan_kmh":29.8,"kmh_p15":[null,null,null,null,22.3,22.0,21.1,19.9,19.3,19.9,21.1,21.9,22.2,22.0,21.2,20.0,19.0,19.0,20.0,21.2,22.0,22.4,22.5,22.5],"kmh_p50":[null,null,null,null,27.9,27.4,26.3,24.9,24.2,24.9,26.3,27.4,27.8,27.5,26.5,25.0,23.8,23.8,25.0,26.5,27.5,27.9,28.1,28.1],"kmh_p85":[null,null,null,null,33.0,32.4,31.1,29.4,28.5,29.4,31.1,32.4,32.8,32.4,31.3,29.5,28.1,28.1,29.5,31.3,32.5,33.0,33.1,33.1],"n":null}},{"type":"Feature","geometry":{"type":"LineString","coordinates":[[20.628,50.866],[20.6271,50.86137]]},"properties":{"id":"kielce-052","route":null,"mode":"tram","stop_from":"Przystanek F3","stop_to":"Przystanek G3","plan_kmh":12.3,"kmh_p15":[null,null,9.3,null,9.2,9.1,8.7,8.2,8.0,8.2,8.7,9.1,9.2,9.1,8.8,8.3,7.9,7.9,8.3,8.8,9.1,9.2,9.3,null],"kmh_p50":[null,null,11.6,null,11.5,11.3,10.9,10.3,10.0,10.3,10.9,11.3,11.5,11.4,11.0,10.3,9.8,9.8,10.3,11.0,11.4,11.5,11.6,null],"kmh_p85":[null,null,13.7,null,13.6,13.4,12.8,12.1,11.8,12.1,12.8,13.4,13.5,13.4,12.9,12.2,11.6,11.6,12.2,12.9,13.4,13.6,13.7,null],"n":null}},{"type":"Feature","geometry":{"type":"LineString","coordinates":[[20.6271,50.86137],[20.62607,50.85674]]},"properties":{"id":"kielce-053","route":null,"mode":"tram","stop_from":"Przystanek G3","stop_to":"Przystanek H3","plan_kmh":14.4,"kmh_p15":[null,null,null,null,10.8,10.6,10.2,9.6,null,9.6,10.2,10.6,10.8,10.7,10.3,9.7,9.2,9.2,9.7,10.3,10.7,10.8,null,10.9],"kmh_p50":[null,null,null,null,13.5,13.3,12.8,12.1,null,12.1,12.8,13.3,13.5,13.3,12.9,12.1,11.5,11.5,12.1,12.9,13.3,13.5,null,13.6],"kmh_p85":[null,null,null,null,16.0,15.7,15.1,14.2,null,14.2,15.1,15.7,15.9,15.7,15.2,14.3,13.6,13.6,14.3,15.2,15.7,16.0,null,16.1],"n":null}},{"type":"Feature","geometry":{"type":"LineString","coordinates":[[20.62607,50.85674],[20.62379,50.85218]]},"properties":{"id":"kielce-054","route":null,"mode":"tram","stop_from":"Przystanek H3","stop_to":"Przystanek I3","plan_kmh":16.9,"kmh_p15":[12.7,null,null,null,12.7,12.4,11.9,11.3,10.9,11.3,11.9,12.4,12.6,12.5,12.0,11.3,10.8,10.8,11.3,12.0,12.5,12.7,null,12.7],"kmh_p50":[15.9,null,null,null,15.8,15.5,14.9,14.1,13.7,14.1,14.9,15.5,15.7,15.6,15.0,14.2,13.5,13.5,14.2,15.0,15.6,15.8,null,15.9],"kmh_p85":[18.8,null,null,null,18.7,18.3,17.6,16.6,16.1,16.6,17.6,18.3,18.6,18.4,17.7,16.7,15.9,15.9,16.7,17.7,18.4,18.7,null,18.8],"n":null}},{"type":"Feature","geometry":{"type":"LineString","coordinates":[[20.62379,50.85218],[20.62196,50.8476]]},"properties":{"id":"kielce-055","route":null,"mode":"tram","stop_from":"Przystanek I3","stop_to":"Przystanek J3","plan_kmh":21.9,"kmh_p15":[null,null,null,null,16.5,16.2,15.5,14.7,14.2,14.7,15.5,16.2,16.4,16.2,15.6,14.7,14.0,14.0,14.7,15.6,16.2,16.5,16.5,16.6],"kmh_p50":[null,null,null,null,20.6,20.2,19.4,18.3,17.8,18.3,19.4,20.2,20.5,20.3,19.5,18.4,17.5,17.5,18.4,19.5,20.3,20.6,20.7,20.7],"kmh_p85":[null,null,null,null,24.3,23.9,22.9,21.6,21.0,21.6,22.9,23.8,24.2,23.9,23.0,21.7,20.7,20.7,21.7,23.0,23.9,24.3,24.4,24.4],"n":null}},{"type":"Feature","geometry":{"type":"LineString","coordinates":[[20.62196,50.8476],[20.624,50.84282]]},"properties":{"id":"kielce-056","route":null,"mode":"tram","stop_from":"Przystanek J3","stop_to":"Przystanek K3","plan_kmh":29.8,"kmh_p15":[null,null,null,null,22.3,21.9,21.1,19.9,19.3,19.9,21.1,21.9,22.2,22.0,21.2,20.0,19.0,19.0,20.0,21.2,22.0,22.3,22.4,22.5],"kmh_p50":[null,null,null,null,27.9,27.4,26.3,24.9,24.2,24.9,26.3,27.4,27.8,27.5,26.5,25.0,23.8,23.8,25.0,26.5,27.5,27.9,28.1,28.1],"kmh_p85":[null,null,null,null,33.0,32.4,31.1,29.3,28.5,29.3,31.1,32.3,32.8,32.4,31.3,29.5,28.1,28.1,29.5,31.3,32.5,33.0,33.1,33.1],"n":null}},{"type":"Feature","geometry":{"type":"LineString","coordinates":[[20.624,50.84282],[20.62328,50.83818]]},"properties":{"id":"kielce-057","route":null,"mode":"tram","stop_from":"Przystanek K3","stop_to":"Przystanek L3","plan_kmh":34.3,"kmh_p15":[null,null,null,null,25.9,25.5,24.4,23.1,22.4,23.1,24.4,25.4,25.8,25.5,24.6,23.2,22.1,22.1,23.2,24.6,25.5,null,null,null],"kmh_p50":[null,null,null,null,32.4,31.8,30.5,28.9,28.0,28.9,30.5,31.8,32.2,31.9,30.8,29.0,27.6,27.6,29.0,30.8,31.9,null,null,null],"kmh_p85":[null,null,null,null,38.2,37.6,36.0,34.1,33.1,34.1,36.0,37.5,38.0,37.6,36.3,34.2,32.6,32.6,34.2,36.3,37.7,null,null,null],"n":null}},{"type":"Feature","geometry":{"type":"LineString","coordinates":[[20.62328,50.83818],[20.61695,50.83384]]},"properties":{"id":"kielce-058","route":null,"mode":"tram","stop_from":"Przystanek L3","stop_to":"Przystanek M3","plan_kmh":36.8,"kmh_p15":[null,null,null,null,27.7,27.2,26.1,24.7,24.0,24.7,26.1,27.2,27.6,null,26.3,24.8,23.6,23.6,24.8,26.3,27.3,27.7,null,null],"kmh_p50":[null,null,null,null,34.7,34.0,32.7,30.9,30.0,30.9,32.7,34.0,34.5,null,32.9,31.0,29.5,29.5,31.0,32.9,34.1,34.7,null,null],"kmh_p85":[null,null,null,null,40.9,40.2,38.5,36.4,35.4,36.4,38.5,40.1,40.7,null,38.8,36.6,34.8,34.8,36.6,38.8,40.3,40.9,null,null],"n":null}},{"type":"Feature","geometry":{"type":"LineString","coordinates":[[20.628,50.866],[20.63358,50.86283]]},"properties":{"id":"kielce-059","route":null,"mode":"bus","stop_from":"Przystanek N3","stop_to":"Przystanek O3","plan_kmh":14.4,"kmh_p15":[null,null,null,10.9,10.9,10.7,10.2,9.7,9.4,9.7,10.2,10.7,10.8,10.7,10.3,9.7,9.2,9.2,9.7,10.3,10.7,10.9,10.9,10.9],"kmh_p50":[null,null,null,13.6,13.6,13.3,12.8,12.1,11.7,12.1,12.8,13.3,13.5,13.3,12.9,12.1,11.5,11.5,12.1,12.9,13.4,13.6,13.6,13.6],"kmh_p85":[null,null,null,16.1,16.0,15.7,15.1,14.3,13.8,14.3,15.1,15.7,15.9,15.7,15.2,14.3,13.6,13.6,14.3,15.2,15.8,16.0,16.1,16.1],"n":null}},{"type":"Feature","geometry":{"type":"LineString","coordinates":[[20.63358,50.86283],[20.63908,50.85963]]},"properties":{"id":"kielce-060","route":null,"mode":"bus","stop_from":"Przystanek O3","stop_to":"Przystanek P3","plan_kmh":12.4,"kmh_p15":[null,null,null,null,9.3,9.2,8.8,8.3,8.1,8.3,8.8,9.2,9.3,9.2,8.9,8.4,8.0,8.0,8.4,8.9,9.2,9.3,9.4,null],"kmh_p50":[null,null,null,null,11.7,11.5,11.0,10.4,10.1,10.4,11.0,11.5,11.6,11.5,11.1,10.5,9.9,9.9,10.5,11.1,11.5,11.7,11.7,null],"kmh_p85":[null,null,null,null,13.8,13.5,13.0,12.3,11.9,12.3,13.0,13.5,13.7,13.6,13.1,12.3,11.7,11.7,12.3,13.1,13.6,13.8,13.8,null],"n":null}},{"type":"Feature","geometry":{"type":"LineString","coordinates":[[20.63908,50.85963],[20.64566,50.85685]]},"properties":{"id":"kielce-061","route":null,"mode":"bus","stop_from":"Przystanek P3","stop_to":"Przystanek Q3","plan_kmh":22.5,"kmh_p15":[null,null,null,null,16.9,16.6,15.9,15.0,14.6,15.0,15.9,16.6,16.8,16.6,16.0,15.1,14.4,14.4,15.1,16.0,16.6,16.9,17.0,17.0],"kmh_p50":[null,null,null,null,21.1,20.7,19.9,18.8,18.3,18.8,19.9,20.7,21.0,20.8,20.0,18.9,18.0,18.0,18.9,20.0,20.8,21.1,21.2,21.2],"kmh_p85":[null,null,null,null,24.9,24.5,23.5,22.2,21.5,22.2,23.5,24.4,24.8,24.5,23.6,22.3,21.2,21.2,22.3,23.6,24.5,24.9,25.0,25.0],"n":null}},{"type":"Feature","geometry":{"type":"LineString","coordinates":[[20.64566,50.85685],[20.65079,50.8535]]},"properties":{"id":"kielce-062","route":null,"mode":"bus","stop_from":"Przystanek Q3","stop_to":"Przystanek R3","plan_kmh":null,"kmh_p15":[null,null,null,null,null,null,null,null,null,null,null,null,null,null,null,null,null,null,null,null,null,null,null,null],"kmh_p50":[null,null,null,null,null,null,null,null,null,null,null,null,null,null,null,null,null,null,null,null,null,null,null,null],"kmh_p85":[null,null,null,null,null,null,null,null,null,null,null,null,null,null,null,null,null,null,null,null,null,null,null,null],"n":null}},{"type":"Feature","geometry":{"type":"LineString","coordinates":[[20.65079,50.8535],[20.65534,50.84995]]},"properties":{"id":"kielce-063","route":null,"mode":"bus","stop_from":"Przystanek R3","stop_to":"Przystanek S3","plan_kmh":22.2,"kmh_p15":[null,null,null,null,16.7,16.4,15.7,14.8,14.4,14.8,15.7,16.4,16.6,16.4,15.8,14.9,14.2,14.2,14.9,15.8,16.4,16.7,16.7,16.8],"kmh_p50":[null,null,null,null,20.8,20.5,19.6,18.5,18.0,18.5,19.6,20.4,20.7,20.5,19.8,18.6,17.7,17.7,18.6,19.8,20.5,20.8,20.9,20.9],"kmh_p85":[null,null,null,null,24.6,24.1,23.2,21.9,21.3,21.9,23.2,24.1,24.4,24.2,23.3,22.0,20.9,20.9,22.0,23.3,24.2,24.6,24.7,24.7],"n":null}},{"type":"Feature","geometry":{"type":"LineString","coordinates":[[20.65534,50.84995],[20.66344,50.84774]]},"properties":{"id":"kielce-064","route":null,"mode":"bus","stop_from":"Przystanek S3","stop_to":"Przystanek T3","plan_kmh":26.4,"kmh_p15":[null,null,null,null,19.9,19.6,18.8,17.7,17.2,17.7,18.8,19.5,19.8,19.6,18.9,17.8,16.9,16.9,17.8,18.9,19.6,19.9,null,null],"kmh_p50":[null,null,null,null,24.9,24.4,23.4,22.1,21.5,22.1,23.4,24.4,24.7,24.5,23.6,22.3,21.2,21.2,22.3,23.6,24.5,24.9,null,null],"kmh_p85":[null,null,null,null,29.4,28.8,27.7,26.1,25.4,26.1,27.7,28.8,29.2,28.9,27.9,26.3,25.0,25.0,26.3,27.9,28.9,29.4,null,null],"n":null}},{"type":"Feature","geometry":{"type":"LineString","coordinates":[[20.66344,50.84774],[20.66582,50.84337]]},"properties":{"id":"kielce-065","route":null,"mode":"bus","stop_from":"Przystanek T3","stop_to":"Przystanek U3","plan_kmh":34.5,"kmh_p15":[null,null,null,null,25.8,25.4,24.4,23.0,22.4,23.0,24.4,25.4,25.7,25.4,24.5,23.1,22.0,22.0,23.1,24.5,25.4,25.8,26.0,26.0],"kmh_p50":[null,null,null,null,32.3,31.7,30.4,28.8,27.9,28.8,30.4,31.7,32.1,31.8,30.6,28.9,27.5,27.5,28.9,30.7,31.8,32.3,32.5,32.5],"kmh_p85":[null,null,null,null,38.1,37.4,35.9,33.9,33.0,33.9,35.9,37.4,37.9,37.5,36.2,34.1,32.5,32.5,34.1,36.2,37.5,38.1,38.3,38.3],"n":null}},{"type":"Feature","geometry":{"type":"LineString","coordinates":[[20.66582,50.84337],[20.67341,50.84093]]},"properties":{"id":"kielce-066","route":null,"mode":"bus","stop_from":"Przystanek U3","stop_to":"Przystanek V3","plan_kmh":32.1,"kmh_p15":[null,null,null,null,24.2,23.8,22.8,21.6,20.9,21.6,22.8,23.8,24.1,23.8,23.0,21.7,20.6,20.6,21.7,null,23.8,24.2,null,null],"kmh_p50":[null,null,null,null,30.3,29.7,28.5,26.9,26.2,26.9,28.5,29.7,30.1,29.8,28.7,27.1,25.8,25.8,27.1,null,29.8,30.3,null,null],"kmh_p85":[null,null,null,null,35.7,35.1,33.7,31.8,30.9,31.8,33.6,35.0,35.5,35.1,33.9,32.0,30.4,30.4,32.0,null,35.2,35.7,null,null],"n":null}},{"type":"Feature","geometry":{"type":"LineString","coordinates":[[20.65291,50.866],[20.65169,50.86952]]},"properties":{"id":"kielce-067","route":null,"mode":"bus","stop_from":"Przystanek W3","stop_to":"Przystanek X3","plan_kmh":13.1,"kmh_p15":[null,null,null,9.9,9.9,9.7,9.3,8.8,8.5,8.8,9.3,9.7,9.8,9.7,9.4,8.8,8.4,8.4,8.8,9.4,9.7,9.9,null,9.9],"kmh_p50":[null,null,null,12.4,12.3,12.1,11.6,11.0,10.7,11.0,11.6,12.1,12.3,12.1,11.7,11.1,10.5,10.5,11.1,11.7,12.2,12.3,null,12.4],"kmh_p85":[null,null,null,14.6,14.6,14.3,13.7,13.0,12.6,13.0,13.7,14.3,14.5,14.3,13.8,13.0,12.4,12.4,13.0,13.8,14.3,14.6,null,14.7],"n":null}},{"type":"Feature","geometry":{"type":"LineString","coordinates":[[20.65169,50.86952],[20.64815,50.8727]]},"properties":{"id":"kielce-068","route":null,"mode":"bus","stop_from":"Przystanek X3","stop_to":"Przystanek Y3","plan_kmh":22.7,"kmh_p15":[null,null,null,null,17.1,16.8,16.1,15.2,14.8,15.2,16.1,16.7,17.0,16.8,16.2,15.3,14.5,14.5,15.3,16.2,16.8,17.1,17.1,17.2],"kmh_p50":[null,null,null,null,21.3,20.9,20.1,19.0,18.4,19.0,20.1,20.9,21.2,21.0,20.2,19.1,18.2,18.2,19.1,20.2,21.0,21.3,21.4,21.4],"kmh_p85":[null,null,null,null,25.2,24.7,23.7,22.4,21.8,22.4,23.7,24.7,25.0,24.8,23.9,22.5,21.4,21.4,22.5,23.9,24.8,25.2,25.3,25.3],"n":null}},{"type":"Feature","geometry":{"type":"LineString","coordinates":[[20.64815,50.8727],[20.64264,50.87522]]},"properties":{"id":"kielce-069","route":null,"mode":"bus","stop_from":"Przystanek Y3","stop_to":"Przystanek Z3","plan_kmh":12.9,"kmh_p15":[null,null,null,null,9.7,9.5,9.1,8.6,8.4,8.6,9.1,9.5,9.6,9.5,9.2,8.7,8.2,8.2,8.7,9.2,9.5,9.7,9.7,9.7],"kmh_p50":[null,null,null,null,12.1,11.9,11.4,10.8,10.5,10.8,11.4,11.9,12.0,11.9,11.5,10.8,10.3,10.3,10.8,11.5,11.9,12.1,12.1,12.2],"kmh_p85":[null,null,null,null,14.3,14.0,13.4,12.7,12.3,12.7,13.4,14.0,14.2,14.0,13.5,12.8,12.1,12.1,12.8,13.5,14.1,14.3,14.3,14.3],"n":null}},{"type":"Feature","geometry":{"type":"LineString","coordinates":[[20.64264,50.87522],[20.6357,50.87684]]},"properties":{"id":"kielce-070","route":null,"mode":"bus","stop_from":"Przystanek Z3","stop_to":"Przystanek A4","plan_kmh":16.3,"kmh_p15":[12.3,null,null,null,12.3,12.1,11.6,10.9,10.6,10.9,null,12.0,12.2,12.1,11.6,11.0,10.4,10.4,11.0,11.6,12.1,12.3,12.3,null],"kmh_p50":[15.4,null,null,null,15.3,15.1,14.5,13.7,13.3,13.7,null,15.1,15.3,15.1,14.6,13.7,13.1,13.1,13.7,14.6,15.1,15.3,15.4,null],"kmh_p85":[18.2,null,null,null,18.1,17.8,17.1,16.1,15.7,16.1,null,17.8,18.0,17.8,17.2,16.2,15.4,15.4,16.2,17.2,17.8,18.1,18.2,null],"n":null}},{"type":"Feature","geometry":{"type":"LineString","coordinates":[[20.628,50.8774],[20.6203,50.87684]]},"properties":{"id":"kielce-071","route":null,"mode":"bus","stop_from":"Przystanek B4","stop_to":"Przystanek C4","plan_kmh":22.6,"kmh_p15":[null,null,null,null,16.9,16.7,16.0,15.1,14.7,15.1,16.0,16.6,16.9,16.7,16.1,15.2,14.4,14.4,15.2,16.1,16.7,17.0,17.0,null],"kmh_p50":[null,null,null,null,21.2,20.8,20.0,18.9,18.3,18.9,20.0,20.8,21.1,20.8,20.1,19.0,18.0,18.0,19.0,20.1,20.9,21.2,21.3,null],"kmh_p85":[null,null,null,null,25.0,24.6,23.6,22.3,21.6,22.3,23.6,24.5,24.9,24.6,23.7,22.4,21.3,21.3,22.4,23.7,24.6,25.0,25.1,null],"n":null}},{"type":"Feature","geometry":{"type":"LineString","coordinates":[[20.6203,50.87684],[20.61336,50.87522]]},"properties":{"id":"kielce-072","route":null,"mode":"bus","stop_from":"Przystanek C4","stop_to":"Przystanek D4","plan_kmh":21.5,"kmh_p15":[null,null,null,null,16.2,16.0,15.3,14.5,14.0,14.5,15.3,15.9,16.1,16.0,15.4,14.5,13.8,13.8,14.5,15.4,16.0,16.2,null,null],"kmh_p50":[null,null,null,null,20.3,19.9,19.1,18.1,17.6,18.1,19.1,19.9,20.2,20.0,19.3,18.2,17.3,17.3,18.2,19.3,20.0,20.3,null,null],"kmh_p85":[null,null,null,null,24.0,23.5,22.6,21.3,20.7,21.3,22.6,23.5,23.8,23.6,22.7,21.4,20.4,20.4,21.4,22.7,23.6,24.0,null,null],"n":null}},{"type":"Feature","geometry":{"type":"LineString","coordinates":[[20.61336,50.87522],[20.60785,50.8727]]},"properties":{"id":"kielce-073","route":null,"mode":"bus","stop_from":"Przystanek D4","stop_to":"Przystanek E4","plan_kmh":19.1,"kmh_p15":[null,null,null,null,14.3,14.1,13.5,12.8,12.4,12.8,13.5,14.1,14.2,14.1,13.6,12.8,12.2,12.2,12.8,13.6,14.1,14.3,null,14.4],"kmh_p50":[null,null,null,null,17.9,17.6,16.9,15.9,15.5,15.9,16.9,17.6,17.8,17.6,17.0,16.0,15.2,15.2,16.0,17.0,17.6,17.9,null,18.0],"kmh_p85":[null,null,null,null,21.1,20.8,19.9,18.8,18.3,18.8,19.9,20.7,21.0,20.8,20.1,18.9,18.0,18.0,18.9,20.1,20.8,21.1,null,21.3],"n":null}},{"type":"Feature","geometry":{"type":"LineString","coordinates":[[20.60785,50.8727],[20.60431,50.86952]]},"properties":{"id":"kielce-074","route":null,"mode":"bus","stop_from":"Przystanek E4","stop_to":"Przystanek F4","plan_kmh":13.1,"kmh_p15":[null,null,null,null,9.9,9.7,9.3,8.8,8.6,8.8,9.3,9.7,null,9.7,9.4,8.9,8.4,8.4,8.9,9.4,9.7,9.9,null,9.9],"kmh_p50":[null,null,null,null,12.4,12.1,11.7,11.0,10.7,11.0,11.6,12.1,null,12.2,11.7,11.1,10.5,10.5,11.1,11.7,12.2,12.4,null,12.4],"kmh_p85":[null,null,null,null,14.6,14.3,13.7,13.0,12.6,13.0,13.7,14.3,null,14.4,13.8,13.1,12.4,12.4,13.1,13.8,14.4,14.6,null,14.7],"n":null}},{"type":"Feature","geometry":{"type":"LineString","coordinates":[[20.60309,50.866],[20.60431,50.86248]]},"properties":{"id":"kielce-075","route":null,"mode":"bus","stop_from":"Przystanek G4","stop_to":"Przystanek H4","plan_kmh":21.6,"kmh_p15":[16.3,16.3,null,null,16.2,15.9,15.3,14.4,14.0,14.4,15.3,15.9,16.1,16.0,15.4,14.5,13.8,13.8,14.5,15.4,16.0,16.2,16.3,16.3],"kmh_p50":[20.4,20.4,null,null,20.3,19.9,19.1,18.0,17.5,18.0,19.1,19.9,20.2,19.9,19.2,18.1,17.3,17.3,18.1,19.2,20.0,20.3,20.4,20.4],"kmh_p85":[24.1,24.1,null,null,23.9,23.5,22.5,21.3,20.7,21.3,22.5,23.5,23.8,23.5,22.7,21.4,20.4,20.4,21.4,22.7,23.6,23.9,24.0,24.1],"n":null}},{"type":"Feature","geometry":{"type":"LineString","coordinates":[[20.60431,50.86248],[20.60785,50.8593]]},"properties":{"id":"kielce-076","route":null,"mode":"bus","stop_from":"Przystanek H4","stop_to":"Przystanek I4","plan_kmh":13.7,"kmh_p15":[null,null,null,null,10.3,10.1,9.7,9.2,8.9,9.2,9.7,10.1,10.2,10.1,9.8,9.2,8.8,8.8,9.2,9.8,10.1,10.3,10.3,null],"kmh_p50":[null,null,null,null,12.9,12.6,12.1,11.5,11.1,11.5,12.1,12.6,12.8,12.7,12.2,11.5,11.0,11.0,11.5,12.2,12.7,12.9,12.9,null],"kmh_p85":[null,null,null,null,15.2,14.9,14.3,13.5,13.1,13.5,14.3,14.9,15.1,14.9,14.4,13.6,12.9,12.9,13.6,14.4,15.0,15.2,15.3,null],"n":null}},{"type":"Feature","geometry":{"type":"LineString","coordinates":[[20.60785,50.8593],[20.61336,50.85678]]},"properties":{"id":"kielce-077","route":null,"mode":"bus","stop_from":"Przystanek I4","stop_to":"Przystanek J4","plan_kmh":15.8,"kmh_p15":[null,null,null,11.9,11.8,11.6,11.1,10.5,10.2,10.5,11.1,11.6,11.8,11.6,11.2,10.6,10.1,10.1,10.6,11.2,11.6,11.8,null,11.9],"kmh_p50":[null,null,null,14.9,14.8,14.5,13.9,13.2,12.8,13.2,13.9,14.5,14.7,14.5,14.0,13.2,12.6,12.6,13.2,14.0,14.6,14.8,null,14.9],"kmh_p85":[null,null,null,17.5,17.4,17.1,16.4,15.5,15.1,15.5,16.4,17.1,17.3,17.2,16.5,15.6,14.8,14.8,15.6,16.6,17.2,17.4,null,17.5],"n":null}},{"type":"Feature","geometry":{"type":"LineString","coordinates":[[20.61336,50.85678],[20.6203,50.85516]]},"properties":{"id":"kielce-078","route":null,"mode":"bus","stop_from":"Przystanek J4","stop_to":"Przystanek K4","plan_kmh":20.1,"kmh_p15":[15.2,null,null,null,15.1,14.9,14.3,13.5,null,13.5,14.2,14.8,15.0,14.9,14.3,13.5,12.9,12.9,13.5,14.3,14.9,15.1,null,15.2],"kmh_p50":[19.0,null,null,null,18.9,18.6,17.8,16.8,null,16.8,17.8,18.5,18.8,18.6,17.9,16.9,16.1,16.1,16.9,17.9,18.6,18.9,null,19.0],"kmh_p85":[22.4,null,null,null,22.3,21.9,21.0,19.9,null,19.9,21.0,21.9,22.2,21.9,21.2,20.0,19.0,19.0,20.0,21.2,22.0,22.3,null,22.4],"n":null}},{"type":"Feature","geometry":{"type":"LineString","coordinates":[[20.628,50.8546],[20.6357,50.85516]]},"properties":{"id":"kielce-079","route":null,"mode":"bus","stop_from":"Przystanek L4","stop_to":"Przystanek M4","plan_kmh":12.9,"kmh_p15":[null,9.8,null,9.7,9.7,9.5,9.1,8.6,8.4,8.6,9.1,9.5,9.6,9.5,9.2,8.7,8.3,8.3,8.7,9.2,9.6,9.7,9.7,9.8],"kmh_p50":[null,12.2,null,12.2,12.1,11.9,11.4,10.8,10.5,10.8,11.4,11.9,12.1,11.9,11.5,10.9,10.3,10.3,10.9,11.5,11.9,12.1,12.2,12.2],"kmh_p85":[null,14.4,null,14.4,14.3,14.1,13.5,12.7,12.4,12.7,13.5,14.0,14.2,14.1,13.6,12.8,12.2,12.2,12.8,13.6,14.1,14.3,14.4,14.4],"n":null}},{"type":"Feature","geometry":{"type":"LineString","coordinates":[[20.6357,50.85516],[20.64264,50.85678]]},"properties":{"id":"kielce-080","route":null,"mode":"bus","stop_from":"Przystanek M4","stop_to":"Przystanek N4","plan_kmh":17.7,"kmh_p15":[null,null,null,null,13.3,13.1,12.5,11.8,11.5,11.8,12.5,13.0,13.2,13.1,12.6,11.9,11.3,11.3,11.9,12.6,13.1,13.3,null,13.4],"kmh_p50":[null,null,null,null,16.6,16.3,15.7,14.8,14.4,14.8,15.7,16.3,16.5,16.3,15.8,14.9,14.1,14.1,14.9,15.8,16.4,16.6,null,16.7],"kmh_p85":[null,null,null,null,19.6,19.3,18.5,17.5,17.0,17.5,18.5,19.2,19.5,19.3,18.6,17.6,16.7,16.7,17.6,18.6,19.3,19.6,null,19.7],"n":null}},{"type":"Feature","geometry":{"type":"LineString","coordinates":[[20.64264,50.85678],[20.64815,50.8593]]},"properties":{"id":"kielce-081","route":null,"mode":"bus","stop_from":"Przystanek N4","stop_to":"Przystanek O4","plan_kmh":18.6,"kmh_p15":[null,null,null,null,13.9,13.7,13.1,12.4,12.0,12.4,13.1,13.6,13.8,13.7,13.2,12.4,11.8,11.8,12.4,13.2,13.7,13.9,14.0,14.0],"kmh_p50":[null,null,null,null,17.4,17.1,16.4,15.5,15.0,15.5,16.4,17.1,17.3,17.1,16.5,15.6,14.8,14.8,15.6,16.5,17.1,17.4,17.5,17.5],"kmh_p85":[null,null,null,null,20.5,20.1,19.3,18.3,17.7,18.3,19.3,20.1,20.4,20.2,19.5,18.4,17.5,17.5,18.4,19.5,20.2,20.5,20.6,20.6],"n":null}},{"type":"Feature","geometry":{"type":"LineString","coordinates":[[20.64815,50.8593],[20.65169,50.86248]]},"properties":{"id":"kielce-082","route":null,"mode":"bus","stop_from":"Przystanek O4","stop_to":"Przystanek P4","plan_kmh":20.5,"kmh_p15":[15.5,null,null,null,15.4,15.1,14.5,13.7,13.3,13.7,14.5,15.1,15.3,15.1,14.6,13.8,13.1,13.1,13.8,14.6,15.1,15.4,null,null],"kmh_p50":[19.3,null,null,null,19.2,18.9,18.1,17.1,16.6,17.1,18.1,18.9,19.1,18.9,18.2,17.2,16.4,16.4,17.2,18.2,18.9,19.2,null,null],"kmh_p85":[22.8,null,null,null,22.7,22.3,21.4,20.2,19.6,20.2,21.4,22.3,22.6,22.3,21.5,20.3,19.3,19.3,20.3,21.5,22.3,22.7,null,null],"n":null}},{"type":"Feature","geometry":{"type":"LineString","coordinates":[[20.67426,50.866],[20.67199,50.87254]]},"properties":{"id":"kielce-083","route":null,"mode":"bus","stop_from":"Przystanek R4","stop_to":"Przystanek S4","plan_kmh":23.3,"kmh_p15":[null,null,null,null,17.5,17.2,16.5,15.6,15.1,15.6,16.5,17.2,17.4,17.2,16.6,15.7,14.9,14.9,15.7,16.6,17.2,17.5,17.6,17.6],"kmh_p50":[null,null,null,null,21.9,21.5,20.6,19.5,18.9,19.5,20.6,21.5,21.8,21.5,20.8,19.6,18.6,18.6,19.6,20.8,21.6,21.9,22.0,22.0],"kmh_p85":[null,null,null,null,25.8,25.4,24.3,23.0,22.3,23.0,24.3,25.4,25.7,25.4,24.5,23.1,22.0,22.0,23.1,24.5,25.4,25.8,26.0,26.0],"n":null}},{"type":"Feature","geometry":{"type":"LineString","coordinates":[[20.67199,50.87254],[20.66542,50.87844]]},"properties":{"id":"kielce-084","route":null,"mode":"bus","stop_from":"Przystanek S4","stop_to":"Przystanek T4","plan_kmh":27.5,"kmh_p15":[null,null,null,null,20.6,20.2,19.4,18.3,17.8,18.3,19.4,20.2,20.5,20.3,19.6,18.4,17.5,17.5,18.4,19.6,20.3,20.6,20.7,20.7],"kmh_p50":[null,null,null,null,25.8,25.3,24.3,22.9,22.3,22.9,24.3,25.3,25.6,25.3,24.4,23.1,21.9,21.9,23.1,24.4,25.4,25.8,25.9,25.9],"kmh_p85":[null,null,null,null,30.4,29.9,28.6,27.1,26.3,27.1,28.6,29.8,30.2,29.9,28.8,27.2,25.9,25.9,27.2,28.8,29.9,30.4,30.5,30.6],"n":null}},{"type":"Feature","geometry":{"type":"LineString","coordinates":[[20.66542,50.87844],[20.65519,50.88312]]},"properties":{"id":"kielce-085","route":null,"mode":"bus","stop_from":"Przystanek T4","stop_to":"Przystanek U4","plan_kmh":20.8,"kmh_p15":[null,null,null,null,15.6,15.3,14.7,13.9,13.5,13.9,14.7,15.3,15.5,15.3,14.8,13.9,13.3,13.3,13.9,14.8,15.3,15.6,15.6,15.7],"kmh_p50":[null,null,null,null,19.5,19.1,18.3,17.3,16.8,17.3,18.3,19.1,19.4,19.2,18.5,17.4,16.6,16.6,17.4,18.5,19.2,19.5,19.6,19.6],"kmh_p85":[null,null,null,null,23.0,22.6,21.7,20.5,19.9,20.5,21.6,22.5,22.8,22.6,21.8,20.6,19.6,19.6,20.6,21.8,22.6,23.0,23.1,23.1],"n":null}},{"type":"Feature","geometry":{"type":"LineString","coordinates":[[20.65519,50.88312],[20.64229,50.88613]]},"properties":{"id":"kielce-086","route":null,"mode":"bus","stop_from":"Przystanek U4","stop_to":"Przystanek V4","plan_kmh":22.9,"kmh_p15":[null,null,null,null,17.2,16.9,16.2,15.3,14.9,15.3,16.2,16.9,17.1,16.9,16.3,15.4,14.7,14.7,15.4,16.3,17.0,17.2,17.3,null],"kmh_p50":[null,null,null,null,21.5,21.1,20.3,19.2,18.6,19.2,20.3,21.1,21.4,21.2,20.4,19.3,18.3,18.3,19.3,20.4,21.2,21.5,21.6,null],"kmh_p85":[null,null,null,null,25.4,25.0,23.9,22.6,22.0,22.6,23.9,24.9,25.3,25.0,24.1,22.7,21.6,21.6,22.7,24.1,25.0,25.4,25.5,null],"n":null}},{"type":"Feature","geometry":{"type":"LineString","coordinates":[[20.64229,50.88613],[20.628,50.88716]]},"properties":{"id":"kielce-087","route":null,"mode":"bus","stop_from":"Przystanek V4","stop_to":"Przystanek W4","plan_kmh":27.2,"kmh_p15":[null,null,null,null,20.5,20.1,19.3,18.2,17.7,18.2,19.3,20.1,20.4,20.1,19.4,18.3,17.4,17.4,18.3,19.4,20.2,null,20.6,20.6],"kmh_p50":[null,null,null,null,25.6,25.1,24.1,22.8,22.1,22.8,24.1,25.1,25.4,25.2,24.3,22.9,21.8,21.8,22.9,24.3,25.2,null,25.7,25.7],"kmh_p85":[null,null,null,null,30.2,29.7,28.5,26.9,26.1,26.9,28.4,29.6,30.0,29.7,28.6,27.0,25.7,25.7,27.0,28.6,29.7,null,30.3,30.4],"n":null}},{"type":"Feature","geometry":{"type":"LineString","coordinates":[[20.628,50.88716],[20.61371,50.88613]]},"properties":{"id":"kielce-088","route":null,"mode":"bus","stop_from":"Przystanek W4","stop_to":"Przystanek X4","plan_kmh":21.1,"kmh_p15":[16.0,16.0,null,null,15.9,15.6,15.0,14.1,13.7,14.1,14.9,15.6,15.8,15.6,15.1,14.2,13.5,13.5,14.2,15.1,15.6,15.9,null,16.0],"kmh_p50":[19.9,19.9,null,null,19.8,19.5,18.7,17.7,17.2,17.7,18.7,19.5,19.7,19.5,18.8,17.8,16.9,16.9,17.8,18.8,19.5,19.8,null,19.9],"kmh_p85":[23.5,23.5,null,null,23.4,23.0,22.1,20.8,20.2,20.8,22.0,23.0,23.3,23.0,22.2,20.9,19.9,19.9,20.9,22.2,23.0,23.4,null,23.5],"n":null}},{"type":"Feature","geometry":{"type":"LineString","coordinates":[[20.61371,50.88613],[20.60081,50.88312]]},"properties":{"id":"kielce-089","route":null,"mode":"bus","stop_from":"Przystanek X4","stop_to":"Przystanek Y4","plan_kmh":null,"kmh_p15":[null,null,null,null,null,null,null,null,null,null,null,null,null,null,null,null,null,null,null,null,null,null,null,null],"kmh_p50":[null,null,null,null,null,null,null,null,null,null,null,null,null,null,null,null,null,null,null,null,null,null,null,null],"kmh_p85":[null,null,null,null,null,null,null,null,null,null,null,null,null,null,null,null,null,null,null,null,null,null,null,null],"n":null}},{"type":"Feature","geometry":{"type":"LineString","coordinates":[[20.60081,50.88312],[20.59058,50.87844]]},"properties":{"id":"kielce-090","route":null,"mode":"bus","stop_from":"Przystanek Y4","stop_to":"Przystanek Z4","plan_kmh":24.3,"kmh_p15":[null,null,null,18.3,18.3,17.9,17.2,16.3,15.8,16.3,17.2,17.9,18.2,18.0,17.3,16.3,15.5,15.5,16.3,17.3,18.0,18.3,18.3,null],"kmh_p50":[null,null,null,22.9,22.8,22.4,21.5,20.3,19.7,20.3,21.5,22.4,22.7,22.4,21.6,20.4,19.4,19.4,20.4,21.7,22.5,22.8,22.9,null],"kmh_p85":[null,null,null,27.1,26.9,26.5,25.4,24.0,23.3,24.0,25.4,26.4,26.8,26.5,25.5,24.1,22.9,22.9,24.1,25.5,26.5,26.9,27.1,null],"n":null}},{"type":"Feature","geometry":{"type":"LineString","coordinates":[[20.59058,50.87844],[20.58401,50.87254]]},"properties":{"id":"kielce-091","route":null,"mode":"bus","stop_from":"Przystanek Z4","stop_to":"Przystanek A5","plan_kmh":23.3,"kmh_p15":[null,17.6,null,null,17.5,17.2,16.5,15.6,15.1,15.6,16.5,17.2,17.4,17.2,16.6,15.7,14.9,14.9,15.7,16.6,17.2,17.5,17.6,null],"kmh_p50":[null,22.0,null,null,21.9,21.5,20.6,19.5,18.9,19.5,20.6,21.5,21.7,21.5,20.7,19.6,18.6,18.6,19.6,20.8,21.5,21.9,22.0,null],"kmh_p85":[null,26.0,null,null,25.8,25.4,24.3,23.0,22.3,23.0,24.3,25.3,25.7,25.4,24.5,23.1,22.0,22.0,23.1,24.5,25.4,25.8,25.9,null],"n":null}},{"type":"Feature","geometry":{"type":"LineString","coordinates":[[20.58401,50.87254],[20.58174,50.866]]},"properties":{"id":"kielce-092","route":null,"mode":"bus","stop_from":"Przystanek A5","stop_to":"Przystanek B5","plan_kmh":21.9,"kmh_p15":[null,16.6,null,null,16.5,16.2,15.5,14.7,14.2,14.7,15.5,16.2,16.4,16.2,15.6,14.7,14.0,14.0,14.7,15.6,16.2,16.5,16.5,null],"kmh_p50":[null,20.7,null,null,20.6,20.2,19.4,18.3,17.8,18.3,19.4,20.2,20.5,20.3,19.5,18.4,17.5,17.5,18.4,19.5,20.3,20.6,20.7,null],"kmh_p85":[null,24.4,null,null,24.3,23.9,22.9,21.6,21.0,21.6,22.9,23.8,24.2,23.9,23.1,21.7,20.7,20.7,21.7,23.1,23.9,24.3,24.4,null],"n":null}},{"type":"Feature","geometry":{"type":"LineString","coordinates":[[20.58174,50.866],[20.58401,50.85946]]},"properties":{"id":"kielce-093","route":null,"mode":"bus","stop_from":"Przystanek B5","stop_to":"Przystanek C5","plan_kmh":23.2,"kmh_p15":[null,null,null,null,17.6,17.2,16.5,15.6,null,15.6,null,17.2,17.5,17.3,16.7,15.7,14.9,14.9,15.7,16.7,17.3,17.6,null,null],"kmh_p50":[null,null,null,null,21.9,21.6,20.7,19.5,null,19.5,null,21.5,21.8,21.6,20.8,19.6,18.7,18.7,19.6,20.8,21.6,21.9,null,null],"kmh_p85":[null,null,null,null,25.9,25.4,24.4,23.1,null,23.1,null,25.4,25.8,25.5,24.6,23.2,22.0,22.0,23.2,24.6,25.5,25.9,null,null],"n":null}},{"type":"Feature","geometry":{"type":"LineString","coordinates":[[20.58401,50.85946],[20.59058,50.85356]]},"properties":{"id":"kielce-094","route":null,"mode":"bus","stop_from":"Przystanek C5","stop_to":"Przystanek D5","plan_kmh":24.9,"kmh_p15":[null,null,null,null,18.7,18.3,17.6,16.6,16.1,16.6,17.6,18.3,18.6,18.4,17.7,16.7,15.9,15.9,16.7,17.7,18.4,18.7,null,18.8],"kmh_p50":[null,null,null,null,23.3,22.9,22.0,20.8,20.2,20.8,22.0,22.9,23.2,23.0,22.1,20.9,19.9,19.9,20.9,22.1,23.0,23.3,null,23.5],"kmh_p85":[null,null,null,null,27.5,27.0,25.9,24.5,23.8,24.5,25.9,27.0,27.4,27.1,26.1,24.6,23.4,23.4,24.6,26.1,27.1,27.5,null,27.7],"n":null}},{"type":"Feature","geometry":{"type":"LineString","coordinates":[[20.59058,50.85356],[20.60081,50.84888]]},"properties":{"id":"kielce-095","route":null,"mode":"bus","stop_from":"Przystanek D5","stop_to":"Przystanek E5","plan_kmh":22.0,"kmh_p15":[null,null,null,null,null,16.3,15.6,14.8,14.3,14.8,15.6,16.3,16.5,16.3,15.7,14.8,14.1,14.1,14.8,15.7,16.3,16.6,16.6,16.7],"kmh_p50":[null,null,null,null,null,20.4,19.5,18.4,17.9,18.4,19.5,20.3,20.6,20.4,19.7,18.5,17.6,17.6,18.5,19.7,20.4,20.7,20.8,20.8],"kmh_p85":[null,null,null,null,null,24.0,23.0,21.8,21.1,21.8,23.0,24.0,24.3,24.0,23.2,21.9,20.8,20.8,21.9,23.2,24.1,24.4,24.6,24.6],"n":null}},{"type":"Feature","geometry":{"type":"LineString","coordinates":[[20.60081,50.84888],[20.61371,50.84587]]},"properties":{"id":"kielce-096","route":null,"mode":"bus","stop_from":"Przystanek E5","stop_to":"Przystanek F5","plan_kmh":22.0,"kmh_p15":[null,null,null,null,16.6,16.3,15.6,14.8,14.3,14.8,null,16.3,16.5,16.3,15.7,14.8,14.1,14.1,14.8,15.7,16.3,16.6,16.6,null],"kmh_p50":[null,null,null,null,20.7,20.3,19.5,18.4,17.9,18.4,null,20.3,20.6,20.4,19.6,18.5,17.6,17.6,18.5,19.6,20.4,20.7,20.8,null],"kmh_p85":[null,null,null,null,24.4,24.0,23.0,21.8,21.1,21.8,null,24.0,24.3,24.0,23.2,21.9,20.8,20.8,21.9,23.2,24.1,24.4,24.5,null],"n":null}},{"type":"Feature","geometry":{"type":"LineString","coordinates":[[20.61371,50.84587],[20.628,50.84484]]},"properties":{"id":"kielce-097","route":null,"mode":"bus","stop_from":"Przystanek F5","stop_to":"Przystanek G5","plan_kmh":25.7,"kmh_p15":[null,19.3,null,19.3,19.2,18.9,18.1,17.1,16.6,17.1,18.1,18.9,19.1,18.9,18.2,null,16.4,16.4,17.2,18.2,18.9,19.2,19.3,19.3],"kmh_p50":[null,24.2,null,24.1,24.0,23.6,22.6,21.4,20.8,21.4,22.6,23.6,23.9,23.6,22.8,null,20.5,20.5,21.5,22.8,23.7,24.0,24.1,24.2],"kmh_p85":[null,28.5,null,28.5,28.4,27.9,26.7,25.2,24.5,25.2,26.7,27.8,28.2,27.9,26.9,null,24.1,24.1,25.4,26.9,27.9,28.4,28.5,28.5],"n":null}},{"type":"Feature","geometry":{"type":"LineString","coordinates":[[20.628,50.84484],[20.64229,50.84587]]},"properties":{"id":"kielce-098","route":null,"mode":"bus","stop_from":"Przystanek G5","stop_to":"Przystanek H5","plan_kmh":20.4,"kmh_p15":[15.3,null,null,15.3,15.2,15.0,14.4,13.6,13.2,13.6,14.4,15.0,15.2,15.0,14.5,13.6,13.0,13.0,13.6,14.5,15.0,15.2,15.3,null],"kmh_p50":[19.2,null,null,19.1,19.1,18.7,18.0,17.0,16.5,17.0,18.0,18.7,18.9,18.7,18.1,17.1,16.2,16.2,17.1,18.1,18.8,19.1,19.1,null],"kmh_p85":[22.6,null,null,22.6,22.5,22.1,21.2,20.0,19.4,20.0,21.2,22.1,22.4,22.1,21.3,20.1,19.1,19.1,20.1,21.3,22.1,22.5,22.6,null],"n":null}},{"type":"Feature","geometry":{"type":"LineString","coordinates":[[20.64229,50.84587],[20.65519,50.84888]]},"properties":{"id":"kielce-099","route":null,"mode":"bus","stop_from":"Przystanek H5","stop_to":"Przystanek I5","plan_kmh":null,"kmh_p15":[null,null,null,null,null,null,null,null,null,null,null,null,null,null,null,null,null,null,null,null,null,null,null,null],"kmh_p50":[null,null,null,null,null,null,null,null,null,null,null,null,null,null,null,null,null,null,null,null,null,null,null,null],"kmh_p85":[null,null,null,null,null,null,null,null,null,null,null,null,null,null,null,null,null,null,null,null,null,null,null,null],"n":null}},{"type":"Feature","geometry":{"type":"LineString","coordinates":[[20.65519,50.84888],[20.66542,50.85356]]},"properties":{"id":"kielce-100","route":null,"mode":"bus","stop_from":"Przystanek I5","stop_to":"Przystanek J5","plan_kmh":29.0,"kmh_p15":[null,22.0,22.0,null,21.8,21.4,20.6,19.4,18.9,19.4,20.6,21.4,21.7,null,20.7,19.5,18.6,18.6,19.5,20.7,21.5,21.8,null,null],"kmh_p50":[null,27.4,27.4,null,27.3,26.8,25.7,24.3,23.6,24.3,25.7,26.8,27.1,null,25.9,24.4,23.2,23.2,24.4,25.9,26.9,27.3,null,null],"kmh_p85":[null,32.4,32.4,null,32.2,31.6,30.3,28.7,27.9,28.7,30.3,31.6,32.0,null,30.6,28.8,27.4,27.4,28.8,30.6,31.7,32.2,null,null],"n":null}},{"type":"Feature","geometry":{"type":"LineString","coordinates":[[20.66542,50.85356],[20.67199,50.85946]]},"properties":{"id":"kielce-101","route":null,"mode":"bus","stop_from":"Przystanek J5","stop_to":"Przystanek K5","plan_kmh":23.1,"kmh_p15":[null,null,17.4,null,17.3,17.0,16.3,15.4,15.0,15.4,16.3,17.0,17.2,17.0,16.4,15.5,14.7,14.7,15.5,16.4,17.1,17.3,17.4,null],"kmh_p50":[null,null,21.8,null,21.7,21.3,20.4,19.3,18.7,19.3,20.4,21.2,21.5,21.3,20.5,19.4,18.4,18.4,19.4,20.5,21.3,21.7,21.8,null],"kmh_p85":[null,null,25.7,null,25.5,25.1,24.1,22.7,22.1,22.7,24.1,25.1,25.4,25.1,24.2,22.9,21.8,21.8,22.9,24.2,25.2,25.6,25.7,null],"n":null}},{"type":"Feature","geometry":{"type":"LineString","coordinates":[[20.67199,50.85946],[20.67426,50.866]]},"properties":{"id":"kielce-102","route":null,"mode":"bus","stop_from":"Przystanek K5","stop_to":"Przystanek L5","plan_kmh":26.8,"kmh_p15":[null,null,null,null,20.1,19.7,18.9,17.9,17.4,17.9,18.9,19.7,20.0,19.8,19.1,18.0,17.1,17.1,18.0,19.1,19.8,20.1,null,20.2],"kmh_p50":[null,null,null,null,25.1,24.7,23.7,22.4,21.7,22.4,23.7,24.7,25.0,24.7,23.8,22.5,21.4,21.4,22.5,23.8,24.7,25.1,null,25.3],"kmh_p85":[null,null,null,null,29.6,29.1,27.9,26.4,25.6,26.4,27.9,29.1,29.5,29.2,28.1,26.5,25.2,25.2,26.5,28.1,29.2,29.7,null,29.8],"n":null}}]}