{"type":"FeatureCollection","features":[{"type":"Feature","geometry":{"type":"LineString","coordinates":[[19.456,51.759],[19.47151,51.75949]]},"properties":{"id":"lodz-001","route":"11","mode":"tram","stop_from":"Przystanek A","stop_to":"Przystanek B","plan_kmh":8.8,"kmh_p15":[null,null,null,null,6.6,6.5,6.2,5.9,5.7,5.9,6.2,6.5,6.6,6.5,6.3,5.9,5.6,5.6,5.9,6.3,6.5,6.6,null,6.6],"kmh_p50":[null,null,null,null,8.3,8.1,7.8,7.4,7.1,7.4,7.8,8.1,8.2,8.1,7.8,7.4,7.0,7.0,7.4,7.8,8.1,8.3,null,8.3],"kmh_p85":[null,null,null,null,9.7,9.6,9.2,8.7,8.4,8.7,9.2,9.6,9.7,9.6,9.2,8.7,8.3,8.3,8.7,9.2,9.6,9.7,null,9.8],"n":null}},{"type":"Feature","geometry":{"type":"LineString","coordinates":[[19.47151,51.75949],[19.48691,51.76054]]},"properties":{"id":"lodz-002","route":"11","mode":"tram","stop_from":"Przystanek B","stop_to":"Przystanek C","plan_kmh":18.1,"kmh_p15":[null,null,null,null,13.6,13.4,12.9,12.1,11.8,12.1,12.9,13.4,13.6,13.4,12.9,12.2,11.6,11.6,12.2,12.9,13.4,13.6,null,13.7],"kmh_p50":[null,null,null,null,17.0,16.7,16.1,15.2,14.7,15.2,16.1,16.7,17.0,16.8,16.2,15.3,14.5,14.5,15.3,16.2,16.8,17.1,null,17.1],"kmh_p85":[null,null,null,null,20.1,19.8,19.0,17.9,17.4,17.9,19.0,19.7,20.0,19.8,19.1,18.0,17.1,17.1,18.0,19.1,19.8,20.1,null,20.2],"n":null}},{"type":"Feature","geometry":{"type":"LineString","coordinates":[[19.48691,51.76054],[19.50229,51.76159]]},"properties":{"id":"lodz-003","route":"11","mode":"tram","stop_from":"Przystanek C","stop_to":"Przystanek D","plan_kmh":24.0,"kmh_p15":[null,null,null,null,18.0,17.7,17.0,16.1,15.6,16.1,17.0,17.7,17.9,17.7,17.1,16.1,15.3,15.3,16.1,17.1,17.8,18.0,18.1,null],"kmh_p50":[null,null,null,null,22.5,22.1,21.2,20.1,19.5,20.1,21.2,22.1,22.4,22.2,21.4,20.2,19.2,19.2,20.2,21.4,22.2,22.5,22.6,null],"kmh_p85":[null,null,null,null,26.6,26.1,25.1,23.7,23.0,23.7,25.1,26.1,26.4,26.2,25.2,23.8,22.6,22.6,23.8,25.2,26.2,26.6,26.7,null],"n":null}},{"type":"Feature","geometry":{"type":"LineString","coordinates":[[19.50229,51.76159],[19.51772,51.76246]]},"properties":{"id":"lodz-004","route":"11","mode":"tram","stop_from":"Przystanek D","stop_to":"Przystanek E","plan_kmh":21.4,"kmh_p15":[null,16.1,null,null,16.0,15.8,15.1,14.3,13.9,14.3,15.1,15.7,15.9,15.8,15.2,14.4,13.7,13.7,14.4,15.2,15.8,16.0,null,16.1],"kmh_p50":[null,20.2,null,null,20.0,19.7,18.9,17.8,17.3,17.8,18.9,19.7,19.9,19.7,19.0,17.9,17.1,17.1,17.9,19.0,19.7,20.0,null,20.2],"kmh_p85":[null,23.8,null,null,23.7,23.2,22.3,21.1,20.5,21.1,22.3,23.2,23.5,23.3,22.4,21.2,20.1,20.1,21.2,22.4,23.3,23.7,null,23.8],"n":null}},{"type":"Feature","geometry":{"type":"LineString","coordinates":[[19.51772,51.76246],[19.53329,51.7628]]},"properties":{"id":"lodz-005","route":"11","mode":"tram","stop_from":"Przystanek E","stop_to":"Przystanek F","plan_kmh":27.8,"kmh_p15":[20.9,null,null,20.9,20.8,20.4,19.6,18.5,18.0,18.5,19.6,20.4,20.7,20.5,19.7,18.6,17.7,17.7,18.6,19.7,20.5,20.8,20.9,20.9],"kmh_p50":[26.2,null,null,26.1,26.0,25.6,24.5,23.2,22.5,23.2,24.5,25.5,25.9,25.6,24.7,23.3,22.1,22.1,23.3,24.7,25.6,26.0,26.1,26.2],"kmh_p85":[30.9,null,null,30.8,30.7,30.2,28.9,27.3,26.6,27.3,28.9,30.1,30.5,30.2,29.1,27.5,26.1,26.1,27.5,29.1,30.2,30.7,30.8,30.9],"n":null}},{"type":"Feature","geometry":{"type":"LineString","coordinates":[[19.53329,51.7628],[19.54841,51.76476]]},"properties":{"id":"lodz-006","route":"11","mode":"tram","stop_from":"Przystanek F","stop_to":"Przystanek G","plan_kmh":33.5,"kmh_p15":[null,null,null,null,25.2,24.7,23.7,22.4,21.8,22.4,23.7,24.7,25.0,24.7,null,22.5,21.4,21.4,22.5,23.9,24.8,25.2,25.3,null],"kmh_p50":[null,null,null,null,31.4,30.9,29.6,28.0,27.2,28.0,29.6,30.9,31.3,30.9,null,28.1,26.8,26.8,28.1,29.8,31.0,31.5,31.6,null],"kmh_p85":[null,null,null,null,37.1,36.5,35.0,33.0,32.1,33.0,35.0,36.4,36.9,36.5,null,33.2,31.6,31.6,33.2,35.2,36.5,37.1,37.3,null],"n":null}},{"type":"Feature","geometry":{"type":"LineString","coordinates":[[19.54841,51.76476],[19.56368,51.76612]]},"properties":{"id":"lodz-007","route":"11","mode":"tram","stop_from":"Przystanek G","stop_to":"Przystanek H","plan_kmh":37.0,"kmh_p15":[null,null,null,null,27.8,27.3,26.2,24.7,24.0,24.7,26.2,27.3,27.6,27.3,null,24.9,23.6,23.6,24.9,26.4,27.4,27.8,27.9,27.9],"kmh_p50":[null,null,null,null,34.7,34.1,32.7,30.9,30.0,30.9,32.7,34.1,34.5,34.2,null,31.1,29.6,29.6,31.1,33.0,34.2,34.7,34.9,34.9],"kmh_p85":[null,null,null,null,41.0,40.3,38.6,36.5,35.4,36.5,38.6,40.2,40.7,40.3,null,36.7,34.9,34.9,36.7,38.9,40.4,41.0,41.2,41.2],"n":null}},{"type":"Feature","geometry":{"type":"LineString","coordinates":[[19.456,51.759],[19.46644,51.76417]]},"properties":{"id":"lodz-008","route":null,"mode":"bus","stop_from":"Przystanek I","stop_to":"Przystanek J","plan_kmh":9.8,"kmh_p15":[null,null,null,null,7.3,7.2,6.9,6.5,6.3,6.5,6.9,7.2,7.3,7.2,7.0,6.6,6.2,6.2,6.6,7.0,7.2,7.3,7.4,null],"kmh_p50":[null,null,null,null,9.2,9.0,8.6,8.2,7.9,8.2,8.6,9.0,9.1,9.0,8.7,8.2,7.8,7.8,8.2,8.7,9.0,9.2,9.2,null],"kmh_p85":[null,null,null,null,10.8,10.6,10.2,9.6,9.4,9.6,10.2,10.6,10.8,10.6,10.3,9.7,9.2,9.2,9.7,10.3,10.6,10.8,10.9,null],"n":null}},{"type":"Feature","geometry":{"type":"LineString","coordinates":[[19.46644,51.76417],[19.47831,51.76872]]},"properties":{"id":"lodz-009","route":null,"mode":"bus","stop_from":"Przystanek J","stop_to":"Przystanek K","plan_kmh":13.4,"kmh_p15":[null,null,10.1,null,10.1,9.9,9.5,9.0,8.7,9.0,9.5,9.9,10.0,9.9,9.5,9.0,8.6,8.6,9.0,9.5,9.9,10.1,null,null],"kmh_p50":[null,null,12.6,null,12.6,12.3,11.8,11.2,10.9,11.2,11.8,12.3,12.5,12.4,11.9,11.2,10.7,10.7,11.2,11.9,12.4,12.6,null,null],"kmh_p85":[null,null,14.9,null,14.8,14.6,14.0,13.2,12.8,13.2,14.0,14.6,14.7,14.6,14.1,13.3,12.6,12.6,13.3,14.1,14.6,14.8,null,null],"n":null}},{"type":"Feature","geometry":{"type":"LineString","coordinates":[[19.47831,51.76872],[19.48898,51.7738]]},"properties":{"id":"lodz-010","route":null,"mode":"bus","stop_from":"Przystanek K","stop_to":"Przystanek L","plan_kmh":18.2,"kmh_p15":[13.8,null,null,null,13.7,13.4,12.9,12.2,11.8,12.2,12.9,13.4,13.6,13.5,13.0,12.2,11.7,11.7,12.2,13.0,13.5,13.7,null,13.8],"kmh_p50":[17.2,null,null,null,17.1,16.8,16.1,15.2,14.8,15.2,16.1,16.8,17.0,16.8,16.2,15.3,14.6,14.6,15.3,16.2,16.8,17.1,null,17.2],"kmh_p85":[20.3,null,null,null,20.2,19.8,19.0,18.0,17.5,18.0,19.0,19.8,20.1,19.9,19.2,18.1,17.2,17.2,18.1,19.2,19.9,20.2,null,20.3],"n":null}},{"type":"Feature","geometry":{"type":"LineString","coordinates":[[19.48898,51.7738],[19.5009,51.77831]]},"properties":{"id":"lodz-011","route":null,"mode":"bus","stop_from":"Przystanek L","stop_to":"Przystanek M","plan_kmh":23.2,"kmh_p15":[null,null,null,null,17.5,17.2,16.5,15.6,15.1,15.6,16.5,17.1,17.4,17.2,16.6,15.6,14.9,14.9,15.6,16.6,17.2,17.5,17.5,null],"kmh_p50":[null,null,null,null,21.8,21.4,20.6,19.4,18.9,19.4,20.6,21.4,21.7,21.5,20.7,19.5,18.6,18.6,19.5,20.7,21.5,21.8,21.9,null],"kmh_p85":[null,null,null,null,25.8,25.3,24.3,22.9,22.3,22.9,24.3,25.3,25.6,25.3,24.4,23.1,21.9,21.9,23.1,24.4,25.4,25.8,25.9,null],"n":null}},{"type":"Feature","geometry":{"type":"LineString","coordinates":[[19.5009,51.77831],[19.51259,51.78292]]},"properties":{"id":"lodz-012","route":null,"mode":"bus","stop_from":"Przystanek M","stop_to":"Przystanek N","plan_kmh":30.4,"kmh_p15":[null,22.9,22.9,null,22.8,22.4,21.5,20.3,19.7,20.3,21.5,22.4,22.7,22.4,21.6,20.4,19.4,19.4,20.4,21.6,22.5,22.8,null,22.9],"kmh_p50":[null,28.7,28.7,null,28.5,28.0,26.9,25.4,24.7,25.4,26.9,28.0,28.3,28.0,27.0,25.5,24.3,24.3,25.5,27.0,28.1,28.5,null,28.7],"kmh_p85":[null,33.8,33.8,null,33.6,33.0,31.7,29.9,29.1,29.9,31.7,33.0,33.4,33.1,31.9,30.1,28.6,28.6,30.1,31.9,33.1,33.6,null,33.8],"n":null}},{"type":"Feature","geometry":{"type":"LineString","coordinates":[[19.51259,51.78292],[19.51848,51.79009]]},"properties":{"id":"lodz-013","route":null,"mode":"bus","stop_from":"Przystanek N","stop_to":"Przystanek O","plan_kmh":26.7,"kmh_p15":[null,null,null,null,20.1,19.7,18.9,17.9,17.4,17.9,18.9,19.7,null,19.8,19.1,18.0,17.1,17.1,18.0,19.1,19.8,20.1,20.2,null],"kmh_p50":[null,null,null,null,25.1,24.7,23.7,22.4,21.7,22.4,23.7,24.7,null,24.7,23.8,22.5,21.4,21.4,22.5,23.8,24.7,25.1,25.2,null],"kmh_p85":[null,null,null,null,29.7,29.1,27.9,26.4,25.6,26.4,27.9,29.1,null,29.2,28.1,26.5,25.2,25.2,26.5,28.1,29.2,29.7,29.8,null],"n":null}},{"type":"Feature","geometry":{"type":"LineString","coordinates":[[19.51848,51.79009],[19.52892,51.79526]]},"properties":{"id":"lodz-014","route":null,"mode":"bus","stop_from":"Przystanek O","stop_to":"Przystanek P","plan_kmh":31.2,"kmh_p15":[null,null,null,null,23.4,23.0,22.1,20.9,20.3,20.9,22.1,23.0,23.3,23.1,22.2,21.0,20.0,20.0,21.0,22.3,23.1,23.5,23.6,null],"kmh_p50":[null,null,null,null,29.3,28.8,27.6,26.1,25.3,26.1,27.6,28.8,29.1,28.8,27.8,26.2,25.0,25.0,26.2,27.8,28.9,29.3,29.4,null],"kmh_p85":[null,null,null,null,34.6,34.0,32.6,30.8,29.9,30.8,32.6,33.9,34.4,34.0,32.8,31.0,29.4,29.4,31.0,32.8,34.1,34.6,34.7,null],"n":null}},{"type":"Feature","geometry":{"type":"LineString","coordinates":[[19.456,51.759],[19.45614,51.76598]]},"properties":{"id":"lodz-015","route":null,"mode":"tram","stop_from":"Przystanek Q","stop_to":"Przystanek R","plan_kmh":10.1,"kmh_p15":[7.6,null,7.6,null,7.6,7.4,7.1,6.7,6.5,6.7,7.1,7.4,7.5,7.4,7.2,6.8,null,6.4,6.8,7.2,7.4,null,null,null],"kmh_p50":[9.5,null,9.5,null,9.5,9.3,8.9,8.4,8.2,8.4,8.9,9.3,9.4,9.3,9.0,8.5,null,8.0,8.5,9.0,9.3,null,null,null],"kmh_p85":[11.2,null,11.2,null,11.2,11.0,10.5,9.9,9.6,9.9,10.5,10.9,11.1,11.0,10.6,10.0,null,9.5,10.0,10.6,11.0,null,null,null],"n":null}},{"type":"Feature","geometry":{"type":"LineString","coordinates":[[19.45614,51.76598],[19.45594,51.77295]]},"properties":{"id":"lodz-016","route":null,"mode":"tram","stop_from":"Przystanek R","stop_to":"Przystanek S","plan_kmh":19.1,"kmh_p15":[null,null,14.4,null,14.3,14.1,13.5,12.8,12.4,12.8,13.5,14.1,14.3,14.1,13.6,12.8,12.2,12.2,12.8,13.6,14.1,14.4,null,14.4],"kmh_p50":[null,null,18.0,null,17.9,17.6,16.9,16.0,15.5,16.0,16.9,17.6,17.8,17.6,17.0,16.1,15.3,15.3,16.1,17.0,17.7,17.9,null,18.0],"kmh_p85":[null,null,21.3,null,21.2,20.8,19.9,18.8,18.3,18.8,19.9,20.8,21.0,20.8,20.1,18.9,18.0,18.0,18.9,20.1,20.8,21.2,null,21.3],"n":null}},{"type":"Feature","geometry":{"type":"LineString","coordinates":[[19.45594,51.77295],[19.45766,51.77992]]},"properties":{"id":"lodz-017","route":null,"mode":"tram","stop_from":"Przystanek S","stop_to":"Przystanek T","plan_kmh":16.6,"kmh_p15":[12.5,null,null,null,12.5,12.2,11.7,11.1,10.8,11.1,11.7,12.2,12.4,12.3,11.8,11.2,10.6,10.6,11.2,11.8,12.3,12.5,12.5,12.5],"kmh_p50":[15.7,null,null,null,15.6,15.3,14.7,13.9,13.5,13.9,14.7,15.3,15.5,15.3,14.8,13.9,13.3,13.3,13.9,14.8,15.3,15.6,15.7,15.7],"kmh_p85":[18.5,null,null,null,18.4,18.1,17.3,16.4,15.9,16.4,17.3,18.0,18.3,18.1,17.4,16.5,15.7,15.7,16.5,17.4,18.1,18.4,18.5,18.5],"n":null}},{"type":"Feature","geometry":{"type":"LineString","coordinates":[[19.45766,51.77992],[19.45982,51.78685]]},"properties":{"id":"lodz-018","route":null,"mode":"tram","stop_from":"Przystanek T","stop_to":"Przystanek U","plan_kmh":25.4,"kmh_p15":[null,null,null,null,19.2,18.9,18.1,17.1,null,17.1,18.1,18.9,19.1,18.9,18.2,17.2,16.4,16.4,17.2,null,18.9,19.2,null,null],"kmh_p50":[null,null,null,null,24.0,23.6,22.6,21.4,null,21.4,22.6,23.6,23.9,23.6,22.8,21.5,20.4,20.4,21.5,null,23.7,24.0,null,null],"kmh_p85":[null,null,null,null,28.3,27.8,26.7,25.2,null,25.2,26.7,27.8,28.2,27.9,26.9,25.4,24.1,24.1,25.4,null,27.9,28.3,null,null],"n":null}},{"type":"Feature","geometry":{"type":"LineString","coordinates":[[19.45982,51.78685],[19.45947,51.79385]]},"properties":{"id":"lodz-019","route":null,"mode":"tram","stop_from":"Przystanek U","stop_to":"Przystanek V","plan_kmh":31.5,"kmh_p15":[null,null,null,null,23.8,23.4,22.4,21.2,20.6,21.2,22.4,23.4,23.7,23.4,22.6,21.3,20.3,20.3,21.3,22.6,23.4,23.8,null,null],"kmh_p50":[null,null,null,null,29.7,29.2,28.0,26.5,25.7,26.5,28.0,29.2,29.6,29.3,28.2,26.6,25.3,25.3,26.6,28.2,29.3,29.7,null,null],"kmh_p85":[null,null,null,null,35.1,34.5,33.1,31.3,30.4,31.3,33.1,34.4,34.9,34.5,33.3,31.4,29.9,29.9,31.4,33.3,34.6,35.1,null,null],"n":null}},{"type":"Feature","geometry":{"type":"LineString","coordinates":[[19.45947,51.79385],[19.4564,51.80086]]},"properties":{"id":"lodz-020","route":null,"mode":"tram","stop_from":"Przystanek V","stop_to":"Przystanek W","plan_kmh":26.3,"kmh_p15":[19.8,null,null,null,19.7,19.4,18.6,17.6,17.1,17.6,18.6,19.4,19.6,19.4,18.7,17.7,16.8,16.8,17.7,18.7,19.4,19.7,null,null],"kmh_p50":[24.8,null,null,null,24.7,24.2,23.2,22.0,21.3,22.0,23.2,24.2,24.5,24.3,23.4,22.1,21.0,21.0,22.1,23.4,24.3,24.7,null,null],"kmh_p85":[29.3,null,null,null,29.1,28.6,27.4,25.9,25.2,25.9,27.4,28.6,28.9,28.6,27.6,26.1,24.8,24.8,26.1,27.6,28.7,29.1,null,null],"n":null}},{"type":"Feature","geometry":{"type":"LineString","coordinates":[[19.4564,51.80086],[19.4626,51.80775]]},"properties":{"id":"lodz-021","route":null,"mode":"tram","stop_from":"Przystanek W","stop_to":"Przystanek X","plan_kmh":32.4,"kmh_p15":[null,null,null,null,24.4,23.9,23.0,21.7,21.1,21.7,23.0,23.9,24.2,24.0,23.1,21.8,20.7,20.7,21.8,23.1,24.0,24.4,24.5,null],"kmh_p50":[null,null,null,null,30.5,29.9,28.7,27.1,26.3,27.1,28.7,29.9,30.3,30.0,28.9,27.3,25.9,25.9,27.3,28.9,30.0,30.5,30.6,null],"kmh_p85":[null,null,null,null,35.9,35.3,33.9,32.0,31.1,32.0,33.9,35.3,35.7,35.4,34.1,32.2,30.6,30.6,32.2,34.1,35.4,35.9,36.1,null],"n":null}},{"type":"Feature","geometry":{"type":"LineString","coordinates":[[19.456,51.759],[19.44638,51.76229]]},"properties":{"id":"lodz-022","route":null,"mode":"bus","stop_from":"Przystanek Y","stop_to":"Przystanek Z","plan_kmh":15.7,"kmh_p15":[11.8,11.8,null,null,11.8,11.5,11.1,10.5,10.2,10.5,11.1,11.5,11.7,11.6,11.2,10.5,10.0,10.0,10.5,null,11.6,11.8,11.8,null],"kmh_p50":[14.8,14.8,null,null,14.7,14.4,13.8,13.1,12.7,13.1,13.8,14.4,14.6,14.5,13.9,13.2,12.5,12.5,13.2,null,14.5,14.7,14.8,null],"kmh_p85":[17.4,17.4,null,null,17.3,17.0,16.3,15.4,15.0,15.4,16.3,17.0,17.2,17.1,16.5,15.5,14.8,14.8,15.5,null,17.1,17.3,17.4,null],"n":null}},{"type":"Feature","geometry":{"type":"LineString","coordinates":[[19.44638,51.76229],[19.43684,51.76562]]},"properties":{"id":"lodz-023","route":null,"mode":"bus","stop_from":"Przystanek Z","stop_to":"Przystanek A2","plan_kmh":17.0,"kmh_p15":[null,12.8,null,null,12.7,12.5,12.0,11.3,11.0,11.3,12.0,12.5,12.6,12.5,12.1,11.4,10.8,10.8,11.4,12.1,12.5,12.7,null,null],"kmh_p50":[null,16.0,null,null,15.9,15.6,15.0,14.1,13.7,14.1,15.0,15.6,15.8,15.6,15.1,14.2,13.5,13.5,14.2,15.1,15.6,15.9,null,null],"kmh_p85":[null,18.9,null,null,18.7,18.4,17.7,16.7,16.2,16.7,17.7,18.4,18.6,18.4,17.8,16.8,16.0,16.0,16.8,17.8,18.5,18.8,null,null],"n":null}},{"type":"Feature","geometry":{"type":"LineString","coordinates":[[19.43684,51.76562],[19.4268,51.76866]]},"properties":{"id":"lodz-024","route":null,"mode":"bus","stop_from":"Przystanek A2","stop_to":"Przystanek B2","plan_kmh":13.7,"kmh_p15":[null,null,null,null,10.3,10.1,9.7,9.1,8.9,9.1,9.7,10.1,10.2,null,9.7,9.2,8.7,8.7,9.2,9.7,10.1,10.3,10.3,10.3],"kmh_p50":[null,null,null,null,12.8,12.6,12.1,11.4,11.1,11.4,12.1,12.6,12.8,null,12.2,11.5,10.9,10.9,11.5,12.2,12.6,12.8,12.9,12.9],"kmh_p85":[null,null,null,null,15.2,14.9,14.3,13.5,13.1,13.5,14.3,14.9,15.1,null,14.4,13.6,12.9,12.9,13.6,14.4,14.9,15.2,15.2,15.2],"n":null}},{"type":"Feature","geometry":{"type":"LineString","coordinates":[[19.4268,51.76866],[19.41669,51.77165]]},"properties":{"id":"lodz-025","route":null,"mode":"bus","stop_from":"Przystanek B2","stop_to":"Przystanek C2","plan_kmh":22.4,"kmh_p15":[null,null,null,16.9,16.8,16.5,15.8,15.0,14.5,15.0,15.8,16.5,16.7,16.5,16.0,15.0,14.3,14.3,15.0,16.0,16.6,16.8,16.9,16.9],"kmh_p50":[null,null,null,21.1,21.0,20.6,19.8,18.7,18.2,18.7,19.8,20.6,20.9,20.7,19.9,18.8,17.9,17.9,18.8,19.9,20.7,21.0,21.1,21.1],"kmh_p85":[null,null,null,24.9,24.8,24.4,23.4,22.1,21.4,22.1,23.4,24.3,24.7,24.4,23.5,22.2,21.1,21.1,22.2,23.5,24.4,24.8,24.9,24.9],"n":null}},{"type":"Feature","geometry":{"type":"LineString","coordinates":[[19.41669,51.77165],[19.40761,51.77527]]},"properties":{"id":"lodz-026","route":null,"mode":"bus","stop_from":"Przystanek C2","stop_to":"Przystanek D2","plan_kmh":25.4,"kmh_p15":[null,null,null,null,null,18.8,18.0,17.0,16.6,17.0,18.0,18.8,19.0,18.8,18.2,17.1,16.3,16.3,17.1,18.2,18.9,19.1,19.2,null],"kmh_p50":[null,null,null,null,null,23.5,22.5,21.3,20.7,21.3,22.5,23.5,23.8,23.5,22.7,21.4,20.4,20.4,21.4,22.7,23.6,23.9,24.0,null],"kmh_p85":[null,null,null,null,null,27.7,26.6,25.1,24.4,25.1,26.6,27.7,28.1,27.8,26.8,25.3,24.0,24.0,25.3,26.8,27.8,28.2,28.4,null],"n":null}},{"type":"Feature","geometry":{"type":"LineString","coordinates":[[19.40761,51.77527],[19.39913,51.77923]]},"properties":{"id":"lodz-027","route":null,"mode":"bus","stop_from":"Przystanek D2","stop_to":"Przystanek E2","plan_kmh":28.8,"kmh_p15":[null,21.8,null,null,21.6,21.3,20.4,19.3,18.7,19.3,20.4,21.2,21.5,21.3,20.5,19.4,null,18.4,19.4,20.5,21.3,21.6,null,null],"kmh_p50":[null,27.2,null,null,27.1,26.6,25.5,24.1,23.4,24.1,25.5,26.5,26.9,26.6,25.7,24.2,null,23.0,24.2,25.7,26.6,27.1,null,null],"kmh_p85":[null,32.1,null,null,31.9,31.4,30.1,28.4,27.6,28.4,30.1,31.3,31.7,31.4,30.3,28.6,null,27.2,28.6,30.3,31.4,31.9,null,null],"n":null}},{"type":"Feature","geometry":{"type":"LineString","coordinates":[[19.39913,51.77923],[19.39042,51.78302]]},"properties":{"id":"lodz-028","route":null,"mode":"bus","stop_from":"Przystanek E2","stop_to":"Przystanek F2","plan_kmh":26.1,"kmh_p15":[19.7,null,null,null,19.6,19.2,18.5,17.4,16.9,17.4,18.5,19.2,19.5,19.3,18.6,17.5,16.7,16.7,17.5,18.6,19.3,19.6,null,null],"kmh_p50":[24.6,null,null,null,24.5,24.1,23.1,21.8,21.2,21.8,23.1,24.0,24.3,24.1,23.2,21.9,20.8,20.8,21.9,23.2,24.1,24.5,null,null],"kmh_p85":[29.1,null,null,null,28.9,28.4,27.2,25.7,25.0,25.7,27.2,28.4,28.7,28.4,27.4,25.9,24.6,24.6,25.9,27.4,28.5,28.9,null,null],"n":null}},{"type":"Feature","geometry":{"type":"LineString","coordinates":[[19.39042,51.78302],[19.38143,51.78666]]},"properties":{"id":"lodz-029","route":null,"mode":"bus","stop_from":"Przystanek F2","stop_to":"Przystanek G2","plan_kmh":30.0,"kmh_p15":[22.6,null,null,22.6,22.5,22.1,21.2,20.0,19.5,20.0,21.2,22.1,22.4,22.1,21.3,20.1,19.1,19.1,20.1,null,22.1,22.5,null,null],"kmh_p50":[28.3,null,null,28.2,28.1,27.6,26.5,25.0,24.3,25.0,26.5,27.6,28.0,27.7,26.7,25.2,23.9,23.9,25.2,null,27.7,28.1,null,null],"kmh_p85":[33.4,null,null,33.3,33.2,32.6,31.3,29.5,28.7,29.5,31.3,32.6,33.0,32.6,31.5,29.7,28.2,28.2,29.7,null,32.7,33.2,null,null],"n":null}},{"type":"Feature","geometry":{"type":"LineString","coordinates":[[19.38143,51.78666],[19.37146,51.78976]]},"properties":{"id":"lodz-030","route":null,"mode":"bus","stop_from":"Przystanek G2","stop_to":"Przystanek H2","plan_kmh":null,"kmh_p15":[null,null,null,null,null,null,null,null,null,null,null,null,null,null,null,null,null,null,null,null,null,null,null,null],"kmh_p50":[null,null,null,null,null,null,null,null,null,null,null,null,null,null,null,null,null,null,null,null,null,null,null,null],"kmh_p85":[null,null,null,null,null,null,null,null,null,null,null,null,null,null,null,null,null,null,null,null,null,null,null,null],"n":null}},{"type":"Feature","geometry":{"type":"LineString","coordinates":[[19.456,51.759],[19.44399,51.75837]]},"properties":{"id":"lodz-031","route":null,"mode":"tram","stop_from":"Przystanek I2","stop_to":"Przystanek J2","plan_kmh":11.7,"kmh_p15":[8.8,null,null,null,8.7,8.6,8.2,7.8,7.6,7.8,8.2,8.6,null,8.6,8.3,7.8,7.4,null,7.8,8.3,8.6,8.7,null,8.8],"kmh_p50":[11.0,null,null,null,10.9,10.7,10.3,9.7,9.4,9.7,10.3,10.7,null,10.7,10.4,9.8,9.3,null,9.8,10.4,10.8,10.9,null,11.0],"kmh_p85":[13.0,null,null,null,12.9,12.7,12.1,11.5,11.1,11.5,12.1,12.6,null,12.7,12.2,11.5,11.0,null,11.5,12.2,12.7,12.9,null,13.0],"n":null}},{"type":"Feature","geometry":{"type":"LineString","coordinates":[[19.44399,51.75837],[19.43221,51.75704]]},"properties":{"id":"lodz-032","route":null,"mode":"tram","stop_from":"Przystanek J2","stop_to":"Przystanek K2","plan_kmh":18.6,"kmh_p15":[null,null,null,null,13.9,13.7,13.1,12.4,12.1,12.4,13.1,13.7,13.9,13.7,13.2,12.5,11.9,11.9,12.5,13.2,null,14.0,14.0,null],"kmh_p50":[null,null,null,null,17.4,17.1,16.4,15.5,15.1,15.5,16.4,17.1,17.3,17.2,16.5,15.6,14.8,14.8,15.6,16.5,null,17.4,17.5,null],"kmh_p85":[null,null,null,null,20.6,20.2,19.4,18.3,17.8,18.3,19.4,20.2,20.5,20.2,19.5,18.4,17.5,17.5,18.4,19.5,null,20.6,20.7,null],"n":null}},{"type":"Feature","geometry":{"type":"LineString","coordinates":[[19.43221,51.75704],[19.41985,51.75759]]},"properties":{"id":"lodz-033","route":null,"mode":"tram","stop_from":"Przystanek K2","stop_to":"Przystanek L2","plan_kmh":13.9,"kmh_p15":[null,null,null,null,10.4,10.2,9.8,9.3,9.0,9.3,9.8,10.2,10.3,10.2,9.9,9.3,8.8,8.8,9.3,9.9,10.2,10.4,10.4,10.4],"kmh_p50":[null,null,null,null,13.0,12.8,12.2,11.6,11.2,11.6,12.2,12.7,12.9,12.8,12.3,11.6,11.1,11.1,11.6,12.3,12.8,13.0,13.0,13.1],"kmh_p85":[null,null,null,null,15.3,15.1,14.4,13.6,13.3,13.6,14.4,15.0,15.2,15.1,14.5,13.7,13.0,13.0,13.7,14.5,15.1,15.3,15.4,15.4],"n":null}},{"type":"Feature","geometry":{"type":"LineString","coordinates":[[19.41985,51.75759],[19.40845,51.755]]},"properties":{"id":"lodz-034","route":null,"mode":"tram","stop_from":"Przystanek L2","stop_to":"Przystanek M2","plan_kmh":16.5,"kmh_p15":[null,null,null,null,12.4,12.2,11.7,null,10.8,11.1,11.7,12.2,12.4,12.2,11.8,11.1,10.6,10.6,11.1,11.8,12.3,12.4,12.5,12.5],"kmh_p50":[null,null,null,null,15.6,15.3,14.7,null,13.5,13.9,14.7,15.3,15.5,15.3,14.8,13.9,13.2,13.2,13.9,14.8,15.3,15.6,15.6,15.6],"kmh_p85":[null,null,null,null,18.4,18.0,17.3,null,15.9,16.3,17.3,18.0,18.3,18.1,17.4,16.4,15.6,15.6,16.4,17.4,18.1,18.4,18.4,18.5],"n":null}},{"type":"Feature","geometry":{"type":"LineString","coordinates":[[19.40845,51.755],[19.39618,51.75504]]},"properties":{"id":"lodz-035","route":null,"mode":"tram","stop_from":"Przystanek M2","stop_to":"Przystanek N2","plan_kmh":19.6,"kmh_p15":[null,14.8,null,null,14.7,null,13.9,13.1,12.7,13.1,13.9,14.4,14.6,14.5,13.9,13.2,12.5,12.5,13.2,13.9,14.5,14.7,14.8,null],"kmh_p50":[null,18.5,null,null,18.4,null,17.3,16.4,15.9,16.4,17.3,18.0,18.3,18.1,17.4,16.4,15.6,15.6,16.4,17.4,18.1,18.4,18.5,null],"kmh_p85":[null,21.8,null,null,21.7,null,20.4,19.3,18.8,19.3,20.4,21.3,21.6,21.3,20.6,19.4,18.5,18.5,19.4,20.6,21.4,21.7,21.8,null],"n":null}},{"type":"Feature","geometry":{"type":"LineString","coordinates":[[19.39618,51.75504],[19.38392,51.75526]]},"properties":{"id":"lodz-036","route":null,"mode":"tram","stop_from":"Przystanek N2","stop_to":"Przystanek O2","plan_kmh":24.7,"kmh_p15":[null,null,null,null,18.6,18.3,17.5,16.6,16.1,16.6,17.5,18.3,18.5,18.3,17.7,16.7,15.8,15.8,16.7,17.7,18.3,18.6,null,null],"kmh_p50":[null,null,null,null,23.3,22.9,21.9,20.7,20.1,20.7,21.9,22.8,23.1,22.9,22.1,20.8,19.8,19.8,20.8,22.1,22.9,23.3,null,null],"kmh_p85":[null,null,null,null,27.5,27.0,25.9,24.5,23.8,24.5,25.9,26.9,27.3,27.0,26.1,24.6,23.4,23.4,24.6,26.1,27.0,27.5,null,null],"n":null}},{"type":"Feature","geometry":{"type":"LineString","coordinates":[[19.38392,51.75526],[19.37241,51.75298]]},"properties":{"id":"lodz-037","route":null,"mode":"tram","stop_from":"Przystanek O2","stop_to":"Przystanek P2","plan_kmh":null,"kmh_p15":[null,null,null,null,null,null,null,null,null,null,null,null,null,null,null,null,null,null,null,null,null,null,null,null],"kmh_p50":[null,null,null,null,null,null,null,null,null,null,null,null,null,null,null,null,null,null,null,null,null,null,null,null],"kmh_p85":[null,null,null,null,null,null,null,null,null,null,null,null,null,null,null,null,null,null,null,null,null,null,null,null],"n":null}},{"type":"Feature","geometry":{"type":"LineString","coordinates":[[19.37241,51.75298],[19.36018,51.75298]]},"properties":{"id":"lodz-038","route":null,"mode":"tram","stop_from":"Przystanek P2","stop_to":"Przystanek Q2","plan_kmh":28.0,"kmh_p15":[null,null,null,null,21.0,20.6,19.8,18.7,18.1,18.7,19.8,20.6,20.9,20.6,19.9,18.8,17.9,17.9,18.8,19.9,20.7,21.0,21.1,null],"kmh_p50":[null,null,null,null,26.2,25.8,24.7,23.4,22.7,23.4,24.7,25.7,26.1,25.8,24.9,23.5,22.3,22.3,23.5,24.9,25.8,26.2,26.4,null],"kmh_p85":[null,null,null,null,30.9,30.4,29.2,27.6,26.8,27.6,29.2,30.4,30.8,30.5,29.4,27.7,26.3,26.3,27.7,29.4,30.5,31.0,31.1,null],"n":null}},{"type":"Feature","geometry":{"type":"LineString","coordinates":[[19.36018,51.75298],[19.34805,51.75275]]},"properties":{"id":"lodz-039","route":null,"mode":"tram","stop_from":"Przystanek Q2","stop_to":"Przystanek R2","plan_kmh":33.9,"kmh_p15":[null,25.6,null,null,25.5,25.0,24.0,22.7,22.0,22.7,24.0,25.0,25.4,25.1,24.2,22.8,21.7,21.7,22.8,24.2,25.1,25.5,25.6,25.6],"kmh_p50":[null,32.0,null,null,31.9,31.3,30.0,28.4,27.6,28.4,30.0,31.3,31.7,31.4,30.2,28.5,27.1,27.1,28.5,30.2,31.4,31.9,32.0,32.0],"kmh_p85":[null,37.8,null,null,37.6,36.9,35.4,33.5,32.5,33.5,35.4,36.9,37.4,37.0,35.7,33.7,32.0,32.0,33.7,35.7,37.0,37.6,37.8,37.8],"n":null}},{"type":"Feature","geometry":{"type":"LineString","coordinates":[[19.456,51.759],[19.44657,51.7556]]},"properties":{"id":"lodz-040","route":null,"mode":"bus","stop_from":"Przystanek S2","stop_to":"Przystanek T2","plan_kmh":16.0,"kmh_p15":[null,null,null,null,12.1,11.9,11.4,10.8,10.5,10.8,11.4,11.9,12.0,11.9,11.5,10.8,10.3,10.3,10.8,11.5,11.9,12.1,null,null],"kmh_p50":[null,null,null,null,15.1,14.9,14.3,13.5,13.1,13.5,14.3,14.9,15.1,14.9,14.4,13.6,12.9,12.9,13.6,14.4,14.9,15.1,null,null],"kmh_p85":[null,null,null,null,17.9,17.6,16.8,15.9,15.5,15.9,16.8,17.5,17.8,17.6,17.0,16.0,15.2,15.2,16.0,17.0,17.6,17.9,null,null],"n":null}},{"type":"Feature","geometry":{"type":"LineString","coordinates":[[19.44657,51.7556],[19.43613,51.75281]]},"properties":{"id":"lodz-041","route":null,"mode":"bus","stop_from":"Przystanek T2","stop_to":"Przystanek U2","plan_kmh":11.2,"kmh_p15":[null,null,null,null,8.5,8.3,8.0,7.5,7.3,7.5,8.0,8.3,8.4,8.3,8.0,7.6,7.2,7.2,7.6,8.0,8.3,8.5,8.5,8.5],"kmh_p50":[null,null,null,null,10.6,10.4,10.0,9.4,9.1,9.4,10.0,10.4,10.5,10.4,10.0,9.5,9.0,9.0,9.5,10.0,10.4,10.6,10.6,10.6],"kmh_p85":[null,null,null,null,12.5,12.3,11.8,11.1,10.8,11.1,11.8,12.2,12.4,12.3,11.8,11.2,10.6,10.6,11.2,11.8,12.3,12.5,12.5,12.5],"n":null}},{"type":"Feature","geometry":{"type":"LineString","coordinates":[[19.43613,51.75281],[19.42654,51.7495]]},"properties":{"id":"lodz-042","route":null,"mode":"bus","stop_from":"Przystanek U2","stop_to":"Przystanek V2","plan_kmh":15.6,"kmh_p15":[null,null,null,11.8,11.7,11.5,11.0,10.4,10.1,10.4,11.0,11.5,11.6,11.5,11.1,10.5,10.0,10.0,10.5,11.1,null,11.7,11.8,11.8],"kmh_p50":[null,null,null,14.7,14.6,14.4,13.8,13.0,12.7,13.0,13.8,14.4,14.6,14.4,13.9,13.1,12.5,12.5,13.1,13.9,null,14.6,14.7,14.7],"kmh_p85":[null,null,null,17.4,17.3,17.0,16.3,15.4,14.9,15.4,16.3,17.0,17.2,17.0,16.4,15.5,14.7,14.7,15.5,16.4,null,17.3,17.4,17.4],"n":null}},{"type":"Feature","geometry":{"type":"LineString","coordinates":[[19.42654,51.7495],[19.41641,51.74653]]},"properties":{"id":"lodz-043","route":null,"mode":"bus","stop_from":"Przystanek V2","stop_to":"Przystanek W2","plan_kmh":19.0,"kmh_p15":[null,null,null,14.3,14.2,14.0,13.4,12.7,12.3,12.7,13.4,14.0,14.1,14.0,13.5,12.7,12.1,12.1,12.7,13.5,14.0,14.2,null,null],"kmh_p50":[null,null,null,17.9,17.8,17.5,16.7,15.8,15.4,15.8,16.7,17.4,17.7,17.5,16.9,15.9,15.1,15.1,15.9,16.9,17.5,17.8,null,null],"kmh_p85":[null,null,null,21.1,21.0,20.6,19.8,18.7,18.1,18.7,19.8,20.6,20.9,20.6,19.9,18.8,17.9,17.9,18.8,19.9,20.6,21.0,null,null],"n":null}},{"type":"Feature","geometry":{"type":"LineString","coordinates":[[19.41641,51.74653],[19.40699,51.74311]]},"properties":{"id":"lodz-044","route":null,"mode":"bus","stop_from":"Przystanek W2","stop_to":"Przystanek X2","plan_kmh":21.7,"kmh_p15":[null,null,null,null,16.4,16.1,15.4,14.6,14.1,14.6,15.4,16.1,16.3,16.1,15.5,14.6,13.9,13.9,null,15.5,16.1,16.4,16.4,null],"kmh_p50":[null,null,null,null,20.4,20.1,19.3,18.2,17.7,18.2,19.3,20.1,20.3,20.1,19.4,18.3,17.4,17.4,null,19.4,20.1,20.5,20.5,null],"kmh_p85":[null,null,null,null,24.1,23.7,22.7,21.5,20.9,21.5,22.7,23.7,24.0,23.7,22.9,21.6,20.5,20.5,null,22.9,23.8,24.1,24.2,null],"n":null}},{"type":"Feature","geometry":{"type":"LineString","coordinates":[[19.40699,51.74311],[19.39773,51.7396]]},"properties":{"id":"lodz-045","route":null,"mode":"bus","stop_from":"Przystanek X2","stop_to":"Przystanek Y2","plan_kmh":30.6,"kmh_p15":[null,null,null,null,23.1,22.7,21.8,20.6,20.0,20.6,21.8,22.7,23.0,22.8,21.9,20.7,19.7,19.7,20.7,21.9,22.8,23.1,null,null],"kmh_p50":[null,null,null,null,28.9,28.4,27.2,25.7,25.0,25.7,27.2,28.4,28.8,28.4,27.4,25.9,24.6,24.6,25.9,27.4,28.5,28.9,null,null],"kmh_p85":[null,null,null,null,34.1,33.5,32.2,30.4,29.5,30.4,32.1,33.5,33.9,33.6,32.4,30.5,29.0,29.0,30.5,32.4,33.6,34.1,null,null],"n":null}},{"type":"Feature","geometry":{"type":"LineString","coordinates":[[19.39773,51.7396],[19.39025,51.73507]]},"properties":{"id":"lodz-046","route":null,"mode":"bus","stop_from":"Przystanek Y2","stop_to":"Przystanek Z2","plan_kmh":24.3,"kmh_p15":[null,null,null,null,18.2,17.9,17.2,16.2,15.8,16.2,17.2,17.9,18.1,17.9,17.3,16.3,15.5,15.5,16.3,17.3,18.0,18.2,null,18.3],"kmh_p50":[null,null,null,null,22.8,22.4,21.5,20.3,19.7,20.3,21.5,22.4,22.7,22.4,21.6,20.4,19.4,19.4,20.4,21.6,22.4,22.8,null,22.9],"kmh_p85":[null,null,null,null,26.9,26.4,25.3,23.9,23.3,23.9,25.3,26.4,26.7,26.5,25.5,24.1,22.9,22.9,24.1,25.5,26.5,26.9,null,27.0],"n":null}},{"type":"Feature","geometry":{"type":"LineString","coordinates":[[19.39025,51.73507],[19.38118,51.73147]]},"properties":{"id":"lodz-047","route":null,"mode":"bus","stop_from":"Przystanek Z2","stop_to":"Przystanek A3","plan_kmh":30.1,"kmh_p15":[null,null,null,null,22.6,22.2,21.3,20.2,19.6,20.2,21.3,22.2,22.5,22.3,21.5,20.3,19.3,19.3,20.3,21.5,22.3,22.6,22.7,22.8],"kmh_p50":[null,null,null,null,28.3,27.8,26.7,25.2,24.5,25.2,26.7,27.8,28.1,27.8,26.8,25.3,24.1,24.1,25.3,26.8,27.9,28.3,28.4,28.4],"kmh_p85":[null,null,null,null,33.4,32.8,31.5,29.7,28.9,29.7,31.5,32.8,33.2,32.8,31.7,29.9,28.4,28.4,29.9,31.7,32.9,33.4,33.5,33.6],"n":null}},{"type":"Feature","geometry":{"type":"LineString","coordinates":[[19.38118,51.73147],[19.36984,51.72916]]},"properties":{"id":"lodz-048","route":null,"mode":"bus","stop_from":"Przystanek A3","stop_to":"Przystanek B3","plan_kmh":32.2,"kmh_p15":[null,24.4,null,null,24.2,23.8,22.8,21.6,20.9,21.6,22.8,23.8,24.1,23.8,23.0,21.7,20.6,20.6,21.7,23.0,23.8,24.2,24.3,null],"kmh_p50":[null,30.4,null,null,30.3,29.7,28.5,27.0,26.2,27.0,28.5,29.7,30.1,29.8,28.7,27.1,25.8,25.8,27.1,28.7,29.8,30.3,30.4,null],"kmh_p85":[null,35.9,null,null,35.7,35.1,33.7,31.8,30.9,31.8,33.7,35.1,35.5,35.1,33.9,32.0,30.4,30.4,32.0,33.9,35.2,35.7,35.9,null],"n":null}},{"type":"Feature","geometry":{"type":"LineString","coordinates":[[19.456,51.759],[19.45493,51.75359]]},"properties":{"id":"lodz-049","route":null,"mode":"tram","stop_from":"Przystanek C3","stop_to":"Przystanek D3","plan_kmh":13.1,"kmh_p15":[null,null,null,null,9.8,9.7,9.3,8.8,8.5,8.8,9.3,9.7,9.8,9.7,9.3,8.8,8.4,8.4,8.8,9.3,9.7,9.8,null,9.9],"kmh_p50":[null,null,null,null,12.3,12.1,11.6,11.0,10.6,11.0,11.6,12.1,12.2,12.1,11.7,11.0,10.5,10.5,11.0,11.7,12.1,12.3,null,12.4],"kmh_p85":[null,null,null,null,14.5,14.3,13.7,12.9,12.6,12.9,13.7,14.2,14.4,14.3,13.8,13.0,12.4,12.4,13.0,13.8,14.3,14.5,null,14.6],"n":null}},{"type":"Feature","geometry":{"type":"LineString","coordinates":[[19.45493,51.75359],[19.45409,51.74818]]},"properties":{"id":"lodz-050","route":null,"mode":"tram","stop_from":"Przystanek D3","stop_to":"Przystanek E3","plan_kmh":19.3,"kmh_p15":[null,null,14.5,null,14.5,14.2,13.6,12.9,12.5,12.9,13.6,14.2,14.4,14.2,13.7,12.9,12.3,12.3,12.9,13.7,14.2,14.5,null,14.5],"kmh_p50":[null,null,18.2,null,18.1,17.7,17.0,16.1,15.6,16.1,17.0,17.7,18.0,17.8,17.1,16.2,15.4,15.4,16.2,17.1,17.8,18.1,null,18.2],"kmh_p85":[null,null,21.4,null,21.3,20.9,20.1,19.0,18.4,19.0,20.1,20.9,21.2,21.0,20.2,19.1,18.1,18.1,19.1,20.2,21.0,21.3,null,21.4],"n":null}},{"type":"Feature","geometry":{"type":"LineString","coordinates":[[19.45409,51.74818],[19.45283,51.74278]]},"properties":{"id":"lodz-051","route":null,"mode":"tram","stop_from":"Przystanek E3","stop_to":"Przystanek F3","plan_kmh":22.4,"kmh_p15":[null,null,null,null,16.8,16.5,15.8,14.9,14.5,14.9,15.8,16.5,null,16.5,15.9,15.0,14.3,14.3,15.0,15.9,16.5,16.8,16.8,16.9],"kmh_p50":[null,null,null,null,21.0,20.6,19.8,18.7,18.1,18.7,19.8,20.6,null,20.6,19.9,18.8,17.8,17.8,18.8,19.9,20.6,21.0,21.1,21.1],"kmh_p85":[null,null,null,null,24.7,24.3,23.3,22.0,21.4,22.0,23.3,24.3,null,24.3,23.5,22.1,21.1,21.1,22.1,23.5,24.4,24.7,24.8,24.9],"n":null}},{"type":"Feature","geometry":{"type":"LineString","coordinates":[[19.45283,51.74278],[19.44936,51.7375]]},"properties":{"id":"lodz-052","route":null,"mode":"tram","stop_from":"Przystanek F3","stop_to":"Przystanek G3","plan_kmh":20.9,"kmh_p15":[null,null,null,null,15.7,15.4,14.8,14.0,13.6,14.0,14.8,15.4,15.6,15.4,14.9,14.0,13.4,13.4,14.0,14.9,15.5,15.7,15.8,null],"kmh_p50":[null,null,null,null,19.6,19.3,18.5,17.5,17.0,17.5,18.5,19.3,19.5,19.3,18.6,17.6,16.7,16.7,17.6,18.6,19.3,19.6,19.7,null],"kmh_p85":[null,null,null,null,23.1,22.7,21.8,20.6,20.0,20.6,21.8,22.7,23.0,22.8,22.0,20.7,19.7,19.7,20.7,22.0,22.8,23.2,23.3,null],"n":null}},{"type":"Feature","geometry":{"type":"LineString","coordinates":[[19.44936,51.7375],[19.44653,51.7322]]},"properties":{"id":"lodz-053","route":null,"mode":"tram","stop_from":"Przystanek G3","stop_to":"Przystanek H3","plan_kmh":20.1,"kmh_p15":[null,null,null,null,15.1,14.8,14.2,13.5,13.1,13.5,14.2,14.8,null,14.9,14.3,13.5,12.9,12.9,13.5,14.3,14.9,15.1,15.2,15.2],"kmh_p50":[null,null,null,null,18.9,18.6,17.8,16.8,16.3,16.8,17.8,18.5,null,18.6,17.9,16.9,16.1,16.1,16.9,17.9,18.6,18.9,19.0,19.0],"kmh_p85":[null,null,null,null,22.3,21.9,21.0,19.9,19.3,19.8,21.0,21.9,null,21.9,21.2,20.0,19.0,19.0,20.0,21.2,22.0,22.3,22.4,22.4],"n":null}},{"type":"Feature","geometry":{"type":"LineString","coordinates":[[19.44653,51.7322],[19.44808,51.72664]]},"properties":{"id":"lodz-054","route":null,"mode":"tram","stop_from":"Przystanek H3","stop_to":"Przystanek I3","plan_kmh":26.7,"kmh_p15":[null,20.2,null,null,20.1,19.7,18.9,17.9,17.4,17.9,18.9,19.7,20.0,19.8,19.0,18.0,17.1,17.1,18.0,19.1,19.8,20.1,null,null],"kmh_p50":[null,25.2,null,null,25.1,24.7,23.7,22.3,21.7,22.3,23.6,24.6,25.0,24.7,23.8,22.5,21.4,21.4,22.5,23.8,24.7,25.1,null,null],"kmh_p85":[null,29.8,null,null,29.6,29.1,27.9,26.4,25.6,26.4,27.9,29.1,29.4,29.1,28.1,26.5,25.2,25.2,26.5,28.1,29.2,29.6,null,null],"n":null}},{"type":"Feature","geometry":{"type":"LineString","coordinates":[[19.44808,51.72664],[19.44606,51.72128]]},"properties":{"id":"lodz-055","route":null,"mode":"tram","stop_from":"Przystanek I3","stop_to":"Przystanek J3","plan_kmh":null,"kmh_p15":[null,null,null,null,null,null,null,null,null,null,null,null,null,null,null,null,null,null,null,null,null,null,null,null],"kmh_p50":[null,null,null,null,null,null,null,null,null,null,null,null,null,null,null,null,null,null,null,null,null,null,null,null],"kmh_p85":[null,null,null,null,null,null,null,null,null,null,null,null,null,null,null,null,null,null,null,null,null,null,null,null],"n":null}},{"type":"Feature","geometry":{"type":"LineString","coordinates":[[19.44606,51.72128],[19.44376,51.71594]]},"properties":{"id":"lodz-056","route":null,"mode":"tram","stop_from":"Przystanek J3","stop_to":"Przystanek K3","plan_kmh":27.2,"kmh_p15":[null,null,null,null,20.4,20.1,19.3,18.2,17.7,18.2,19.3,20.1,20.3,20.1,19.4,18.3,17.4,17.4,18.3,19.4,20.1,20.4,20.5,null],"kmh_p50":[null,null,null,null,25.5,25.1,24.1,22.7,22.1,22.7,24.1,25.1,25.4,25.1,24.2,22.9,21.7,21.7,22.9,24.2,25.2,25.6,25.7,null],"kmh_p85":[null,null,null,null,30.1,29.6,28.4,26.8,26.1,26.8,28.4,29.6,30.0,29.7,28.6,27.0,25.7,25.7,27.0,28.6,29.7,30.2,30.3,null],"n":null}},{"type":"Feature","geometry":{"type":"LineString","coordinates":[[19.44376,51.71594],[19.44706,51.71033]]},"properties":{"id":"lodz-057","route":null,"mode":"tram","stop_from":"Przystanek K3","stop_to":"Przystanek L3","plan_kmh":null,"kmh_p15":[null,null,null,null,null,null,null,null,null,null,null,null,null,null,null,null,null,null,null,null,null,null,null,null],"kmh_p50":[null,null,null,null,null,null,null,null,null,null,null,null,null,null,null,null,null,null,null,null,null,null,null,null],"kmh_p85":[null,null,null,null,null,null,null,null,null,null,null,null,null,null,null,null,null,null,null,null,null,null,null,null],"n":null}},{"type":"Feature","geometry":{"type":"LineString","coordinates":[[19.456,51.759],[19.46672,51.75395]]},"properties":{"id":"lodz-058","route":null,"mode":"bus","stop_from":"Przystanek M3","stop_to":"Przystanek N3","plan_kmh":9.0,"kmh_p15":[6.8,6.8,null,null,6.8,6.7,6.4,6.0,5.9,6.0,6.4,6.6,6.7,6.7,6.4,6.1,5.8,5.8,6.1,6.4,6.7,6.8,6.8,6.8],"kmh_p50":[8.5,8.5,null,null,8.5,8.3,8.0,7.5,7.3,7.5,8.0,8.3,8.4,8.3,8.0,7.6,7.2,7.2,7.6,8.0,8.3,8.5,8.5,8.5],"kmh_p85":[10.0,10.0,null,null,10.0,9.8,9.4,8.9,8.6,8.9,9.4,9.8,9.9,9.8,9.5,8.9,8.5,8.5,8.9,9.5,9.8,10.0,10.0,10.0],"n":null}},{"type":"Feature","geometry":{"type":"LineString","coordinates":[[19.46672,51.75395],[19.47766,51.74899]]},"properties":{"id":"lodz-059","route":null,"mode":"bus","stop_from":"Przystanek N3","stop_to":"Przystanek O3","plan_kmh":17.3,"kmh_p15":[13.1,null,null,13.1,13.0,12.8,12.2,11.6,11.2,11.6,12.2,12.8,12.9,12.8,12.3,11.6,11.1,11.1,11.6,12.3,12.8,13.0,null,13.1],"kmh_p50":[16.3,null,null,16.3,16.2,16.0,15.3,14.5,14.0,14.5,15.3,15.9,16.1,16.0,15.4,14.5,13.8,13.8,14.5,15.4,16.0,16.2,null,16.3],"kmh_p85":[19.3,null,null,19.3,19.2,18.8,18.1,17.1,16.6,17.1,18.1,18.8,19.1,18.9,18.2,17.2,16.3,16.3,17.2,18.2,18.9,19.2,null,19.3],"n":null}},{"type":"Feature","geometry":{"type":"LineString","coordinates":[[19.47766,51.74899],[19.49022,51.74477]]},"properties":{"id":"lodz-060","route":null,"mode":"bus","stop_from":"Przystanek O3","stop_to":"Przystanek P3","plan_kmh":23.7,"kmh_p15":[null,17.9,null,null,17.8,17.5,16.8,15.8,15.4,15.8,16.8,17.5,17.7,17.5,16.9,15.9,15.2,15.2,15.9,16.9,17.5,17.8,17.9,null],"kmh_p50":[null,22.4,null,null,22.2,21.9,21.0,19.8,19.2,19.8,21.0,21.8,22.1,21.9,21.1,19.9,18.9,18.9,19.9,21.1,21.9,22.2,22.3,null],"kmh_p85":[null,26.4,null,null,26.2,25.8,24.7,23.4,22.7,23.4,24.7,25.8,26.1,25.8,24.9,23.5,22.3,22.3,23.5,24.9,25.9,26.3,26.4,null],"n":null}},{"type":"Feature","geometry":{"type":"LineString","coordinates":[[19.49022,51.74477],[19.49769,51.73829]]},"properties":{"id":"lodz-061","route":null,"mode":"bus","stop_from":"Przystanek P3","stop_to":"Przystanek Q3","plan_kmh":27.2,"kmh_p15":[null,null,null,20.5,20.4,20.1,19.3,18.2,17.7,18.2,19.3,20.1,20.3,20.1,19.4,18.3,17.4,17.4,18.3,19.4,20.1,20.4,20.5,20.6],"kmh_p50":[null,null,null,25.7,25.6,25.1,24.1,22.8,22.1,22.8,24.1,25.1,25.4,25.1,24.2,22.9,21.8,21.8,22.9,24.3,25.2,25.6,25.7,25.7],"kmh_p85":[null,null,null,30.3,30.2,29.6,28.4,26.9,26.1,26.9,28.4,29.6,30.0,29.7,28.6,27.0,25.7,25.7,27.0,28.6,29.7,30.2,30.3,30.3],"n":null}},{"type":"Feature","geometry":{"type":"LineString","coordinates":[[19.49769,51.73829],[19.51281,51.73519]]},"properties":{"id":"lodz-062","route":null,"mode":"bus","stop_from":"Przystanek Q3","stop_to":"Przystanek R3","plan_kmh":28.2,"kmh_p15":[null,null,null,null,21.1,20.8,19.9,18.8,18.3,18.8,19.9,20.8,21.0,20.8,20.1,18.9,18.0,18.0,18.9,20.1,20.8,21.1,21.2,null],"kmh_p50":[null,null,null,null,26.4,26.0,24.9,23.5,22.9,23.5,24.9,25.9,26.3,26.0,25.1,23.7,22.5,22.5,23.7,25.1,26.0,26.4,26.6,null],"kmh_p85":[null,null,null,null,31.2,30.6,29.4,27.8,27.0,27.8,29.4,30.6,31.0,30.7,29.6,27.9,26.6,26.6,27.9,29.6,30.7,31.2,31.3,null],"n":null}},{"type":"Feature","geometry":{"type":"LineString","coordinates":[[19.51281,51.73519],[19.5199,51.7285]]},"properties":{"id":"lodz-063","route":null,"mode":"bus","stop_from":"Przystanek R3","stop_to":"Przystanek S3","plan_kmh":27.9,"kmh_p15":[21.1,null,null,null,20.9,20.6,19.7,18.6,18.1,18.6,19.7,20.5,20.8,20.6,19.9,18.7,17.8,17.8,18.7,19.9,20.6,20.9,null,21.1],"kmh_p50":[26.3,null,null,null,26.2,25.7,24.7,23.3,22.6,23.3,24.7,25.7,26.0,25.8,24.8,23.4,22.3,22.3,23.4,24.8,25.8,26.2,null,26.3],"kmh_p85":[31.1,null,null,null,30.9,30.3,29.1,27.5,26.7,27.5,29.1,30.3,30.7,30.4,29.3,27.6,26.3,26.3,27.6,29.3,30.4,30.9,null,31.1],"n":null}},{"type":"Feature","geometry":{"type":"LineString","coordinates":[[19.5199,51.7285],[19.52874,51.72267]]},"properties":{"id":"lodz-064","route":null,"mode":"bus","stop_from":"Przystanek S3","stop_to":"Przystanek T3","plan_kmh":31.1,"kmh_p15":[null,23.4,null,null,23.3,22.9,22.0,20.7,20.1,20.7,21.9,22.9,23.2,22.9,22.1,20.8,19.8,19.8,20.8,22.1,22.9,23.3,null,null],"kmh_p50":[null,29.3,null,null,29.1,28.6,27.4,25.9,25.2,25.9,27.4,28.6,29.0,28.6,27.6,26.1,24.8,24.8,26.1,27.6,28.7,29.1,null,null],"kmh_p85":[null,34.6,null,null,34.4,33.8,32.4,30.6,29.7,30.6,32.4,33.7,34.2,33.8,32.6,30.8,29.2,29.2,30.8,32.6,33.8,34.4,null,null],"n":null}},{"type":"Feature","geometry":{"type":"LineString","coordinates":[[19.4941,51.759],[19.49223,51.76428]]},"properties":{"id":"lodz-065","route":null,"mode":"bus","stop_from":"Przystanek U3","stop_to":"Przystanek V3","plan_kmh":16.2,"kmh_p15":[null,null,null,12.3,12.2,12.0,11.5,10.9,10.6,10.9,11.5,12.0,12.1,12.0,11.6,10.9,10.4,10.4,10.9,11.6,12.0,12.2,null,12.3],"kmh_p50":[null,null,null,15.3,15.3,15.0,14.4,13.6,13.2,13.6,14.4,15.0,15.2,15.0,14.5,13.7,13.0,13.0,13.7,14.5,15.0,15.3,null,15.3],"kmh_p85":[null,null,null,18.1,18.0,17.7,17.0,16.0,15.6,16.0,17.0,17.7,17.9,17.7,17.1,16.1,15.3,15.3,16.1,17.1,17.7,18.0,null,18.1],"n":null}},{"type":"Feature","geometry":{"type":"LineString","coordinates":[[19.49223,51.76428],[19.48682,51.76905]]},"properties":{"id":"lodz-066","route":null,"mode":"bus","stop_from":"Przystanek V3","stop_to":"Przystanek W3","plan_kmh":22.9,"kmh_p15":[null,null,null,null,17.2,16.9,16.3,15.4,14.9,15.4,16.3,16.9,17.2,17.0,16.4,15.4,14.7,14.7,15.4,16.4,17.0,17.3,null,null],"kmh_p50":[null,null,null,null,21.6,21.2,20.3,19.2,18.6,19.2,20.3,21.2,21.4,21.2,20.5,19.3,18.4,18.4,19.3,20.5,21.2,21.6,null,null],"kmh_p85":[null,null,null,null,25.4,25.0,24.0,22.7,22.0,22.7,24.0,25.0,25.3,25.0,24.1,22.8,21.7,21.7,22.8,24.1,25.1,25.4,null,null],"n":null}},{"type":"Feature","geometry":{"type":"LineString","coordinates":[[19.48682,51.76905],[19.47839,51.77283]]},"properties":{"id":"lodz-067","route":null,"mode":"bus","stop_from":"Przystanek W3","stop_to":"Przystanek X3","plan_kmh":17.2,"kmh_p15":[null,null,12.9,null,12.9,12.6,12.1,11.4,11.1,11.4,12.1,12.6,12.8,12.6,12.2,11.5,10.9,10.9,11.5,12.2,12.7,12.9,null,12.9],"kmh_p50":[null,null,16.2,null,16.1,15.8,15.1,14.3,13.9,14.3,15.1,15.8,16.0,15.8,15.2,14.4,13.7,13.7,14.4,15.2,15.8,16.1,null,16.2],"kmh_p85":[null,null,19.1,null,19.0,18.6,17.9,16.9,16.4,16.9,17.9,18.6,18.9,18.7,18.0,17.0,16.1,16.1,17.0,18.0,18.7,19.0,null,19.1],"n":null}},{"type":"Feature","geometry":{"type":"LineString","coordinates":[[19.47839,51.77283],[19.46777,51.77526]]},"properties":{"id":"lodz-068","route":null,"mode":"bus","stop_from":"Przystanek X3","stop_to":"Przystanek Y3","plan_kmh":null,"kmh_p15":[null,null,null,null,null,null,null,null,null,null,null,null,null,null,null,null,null,null,null,null,null,null,null,null],"kmh_p50":[null,null,null,null,null,null,null,null,null,null,null,null,null,null,null,null,null,null,null,null,null,null,null,null],"kmh_p85":[null,null,null,null,null,null,null,null,null,null,null,null,null,null,null,null,null,null,null,null,null,null,null,null],"n":null}},{"type":"Feature","geometry":{"type":"LineString","coordinates":[[19.456,51.77609],[19.44423,51.77526]]},"properties":{"id":"lodz-069","route":null,"mode":"bus","stop_from":"Przystanek Z3","stop_to":"Przystanek A4","plan_kmh":null,"kmh_p15":[null,null,null,null,null,null,null,null,null,null,null,null,null,null,null,null,null,null,null,null,null,null,null,null],"kmh_p50":[null,null,null,null,null,null,null,null,null,null,null,null,null,null,null,null,null,null,null,null,null,null,null,null],"kmh_p85":[null,null,null,null,null,null,null,null,null,null,null,null,null,null,null,null,null,null,null,null,null,null,null,null],"n":null}},{"type":"Feature","geometry":{"type":"LineString","coordinates":[[19.44423,51.77526],[19.43361,51.77283]]},"properties":{"id":"lodz-070","route":null,"mode":"bus","stop_from":"Przystanek A4","stop_to":"Przystanek B4","plan_kmh":22.6,"kmh_p15":[null,null,null,null,17.0,16.7,16.0,15.1,14.7,15.1,16.0,16.6,16.9,16.7,16.1,15.2,14.4,14.4,15.2,16.1,16.7,17.0,17.0,17.0],"kmh_p50":[null,null,null,null,21.2,20.8,20.0,18.9,18.3,18.9,20.0,20.8,21.1,20.9,20.1,19.0,18.0,18.0,19.0,20.1,20.9,21.2,21.3,21.3],"kmh_p85":[null,null,null,null,25.0,24.6,23.6,22.3,21.6,22.3,23.6,24.5,24.9,24.6,23.7,22.4,21.3,21.3,22.4,23.7,24.6,25.0,25.1,25.1],"n":null}},{"type":"Feature","geometry":{"type":"LineString","coordinates":[[19.43361,51.77283],[19.42518,51.76905]]},"properties":{"id":"lodz-071","route":null,"mode":"bus","stop_from":"Przystanek B4","stop_to":"Przystanek C4","plan_kmh":23.0,"kmh_p15":[null,17.3,17.3,null,17.2,16.9,16.3,15.4,14.9,15.4,16.3,16.9,17.2,17.0,16.4,15.4,14.7,14.7,15.4,16.4,17.0,17.3,17.3,17.3],"kmh_p50":[null,21.7,21.7,null,21.6,21.2,20.3,19.2,18.6,19.2,20.3,21.2,21.4,21.2,20.5,19.3,18.4,18.4,19.3,20.5,21.2,21.6,21.7,21.7],"kmh_p85":[null,25.6,25.6,null,25.4,25.0,24.0,22.7,22.0,22.7,24.0,25.0,25.3,25.0,24.1,22.8,21.7,21.7,22.8,24.1,25.1,25.4,25.6,25.6],"n":null}},{"type":"Feature","geometry":{"type":"LineString","coordinates":[[19.42518,51.76905],[19.41977,51.76428]]},"properties":{"id":"lodz-072","route":null,"mode":"bus","stop_from":"Przystanek C4","stop_to":"Przystanek D4","plan_kmh":20.4,"kmh_p15":[null,15.4,null,null,15.3,15.0,14.4,13.6,13.2,13.6,14.4,15.0,15.2,15.1,14.5,13.7,13.0,13.0,13.7,14.5,15.1,15.3,15.4,null],"kmh_p50":[null,19.2,null,null,19.1,18.8,18.0,17.0,16.5,17.0,18.0,18.8,19.0,18.8,18.2,17.1,16.3,16.3,17.1,18.2,18.8,19.1,19.2,null],"kmh_p85":[null,22.7,null,null,22.6,22.2,21.3,20.1,19.5,20.1,21.3,22.2,22.5,22.2,21.4,20.2,19.2,19.2,20.2,21.4,22.2,22.6,22.7,null],"n":null}},{"type":"Feature","geometry":{"type":"LineString","coordinates":[[19.4179,51.759],[19.41977,51.75372]]},"properties":{"id":"lodz-073","route":null,"mode":"bus","stop_from":"Przystanek E4","stop_to":"Przystanek F4","plan_kmh":18.1,"kmh_p15":[null,null,null,null,13.6,13.4,12.8,12.1,11.8,12.1,12.8,13.4,13.5,13.4,12.9,12.2,11.6,11.6,12.2,12.9,13.4,13.6,13.7,null],"kmh_p50":[null,null,null,null,17.0,16.7,16.0,15.1,14.7,15.1,16.0,16.7,16.9,16.7,16.1,15.2,14.5,14.5,15.2,16.1,16.8,17.0,17.1,null],"kmh_p85":[null,null,null,null,20.1,19.7,18.9,17.9,17.4,17.9,18.9,19.7,20.0,19.8,19.0,18.0,17.1,17.1,18.0,19.1,19.8,20.1,20.2,null],"n":null}},{"type":"Feature","geometry":{"type":"LineString","coordinates":[[19.41977,51.75372],[19.42518,51.74895]]},"properties":{"id":"lodz-074","route":null,"mode":"bus","stop_from":"Przystanek F4","stop_to":"Przystanek G4","plan_kmh":14.1,"kmh_p15":[null,null,null,null,10.6,10.4,10.0,9.4,9.2,9.4,10.0,10.4,10.5,10.4,10.1,9.5,9.0,9.0,9.5,10.1,10.4,10.6,10.7,10.7],"kmh_p50":[null,null,null,null,13.3,13.0,12.5,11.8,11.5,11.8,12.5,13.0,13.2,13.0,12.6,11.9,11.3,11.3,11.9,12.6,13.1,13.3,13.3,13.3],"kmh_p85":[null,null,null,null,15.6,15.4,14.7,13.9,13.5,13.9,14.7,15.4,15.6,15.4,14.8,14.0,13.3,13.3,14.0,14.8,15.4,15.6,15.7,15.7],"n":null}},{"type":"Feature","geometry":{"type":"LineString","coordinates":[[19.42518,51.74895],[19.43361,51.74517]]},"properties":{"id":"lodz-075","route":null,"mode":"bus","stop_from":"Przystanek G4","stop_to":"Przystanek H4","plan_kmh":16.5,"kmh_p15":[null,null,null,null,12.4,12.2,11.7,11.1,10.8,11.1,11.7,12.2,12.4,12.2,11.8,11.1,10.6,10.6,11.1,11.8,12.2,12.4,12.5,12.5],"kmh_p50":[null,null,null,null,15.5,15.3,14.6,13.8,13.4,13.8,14.6,15.3,15.5,15.3,14.7,13.9,13.2,13.2,13.9,14.7,15.3,15.5,15.6,15.6],"kmh_p85":[null,null,null,null,18.3,18.0,17.3,16.3,15.9,16.3,17.3,18.0,18.2,18.0,17.4,16.4,15.6,15.6,16.4,17.4,18.1,18.3,18.4,18.4],"n":null}},{"type":"Feature","geometry":{"type":"LineString","coordinates":[[19.43361,51.74517],[19.44423,51.74274]]},"properties":{"id":"lodz-076","route":null,"mode":"bus","stop_from":"Przystanek H4","stop_to":"Przystanek I4","plan_kmh":21.4,"kmh_p15":[16.2,null,null,16.2,16.1,15.8,15.2,14.3,13.9,14.3,15.2,15.8,16.0,15.8,null,14.4,13.7,13.7,14.4,15.3,15.9,16.1,16.2,16.2],"kmh_p50":[20.2,null,null,20.2,20.1,19.8,19.0,17.9,17.4,17.9,19.0,19.7,20.0,19.8,null,18.0,17.1,17.1,18.0,19.1,19.8,20.1,20.2,20.2],"kmh_p85":[23.9,null,null,23.9,23.7,23.3,22.4,21.1,20.5,21.1,22.4,23.3,23.6,23.4,null,21.3,20.2,20.2,21.3,22.5,23.4,23.8,23.9,23.9],"n":null}},{"type":"Feature","geometry":{"type":"LineString","coordinates":[[19.456,51.74191],[19.46777,51.74274]]},"properties":{"id":"lodz-077","route":null,"mode":"bus","stop_from":"Przystanek J4","stop_to":"Przystanek K4","plan_kmh":13.7,"kmh_p15":[null,null,null,null,10.3,10.1,9.7,9.2,8.9,9.2,9.7,10.1,10.2,10.1,9.8,9.2,8.8,8.8,9.2,9.8,10.1,10.3,10.4,null],"kmh_p50":[null,null,null,null,12.9,12.7,12.1,11.5,11.1,11.5,12.1,12.6,12.8,12.7,12.2,11.5,11.0,11.0,11.5,12.2,12.7,12.9,12.9,null],"kmh_p85":[null,null,null,null,15.2,14.9,14.3,13.5,13.1,13.5,14.3,14.9,15.1,15.0,14.4,13.6,12.9,12.9,13.6,14.4,15.0,15.2,15.3,null],"n":null}},{"type":"Feature","geometry":{"type":"LineString","coordinates":[[19.46777,51.74274],[19.47839,51.74517]]},"properties":{"id":"lodz-078","route":null,"mode":"bus","stop_from":"Przystanek K4","stop_to":"Przystanek L4","plan_kmh":22.9,"kmh_p15":[null,null,null,null,17.2,16.9,16.2,15.3,14.9,15.3,16.2,16.9,17.1,16.9,16.3,15.4,14.7,14.7,15.4,16.3,17.0,17.2,17.3,17.3],"kmh_p50":[null,null,null,null,21.5,21.1,20.3,19.2,18.6,19.2,20.3,21.1,21.4,21.2,20.4,19.3,18.3,18.3,19.3,20.4,21.2,21.5,21.6,21.6],"kmh_p85":[null,null,null,null,25.4,24.9,23.9,22.6,22.0,22.6,23.9,24.9,25.3,25.0,24.1,22.7,21.6,21.6,22.7,24.1,25.0,25.4,25.5,25.5],"n":null}},{"type":"Feature","geometry":{"type":"LineString","coordinates":[[19.47839,51.74517],[19.48682,51.74895]]},"properties":{"id":"lodz-079","route":null,"mode":"bus","stop_from":"Przystanek L4","stop_to":"Przystanek M4","plan_kmh":15.1,"kmh_p15":[11.3,null,null,null,11.3,11.1,10.6,10.0,9.8,10.0,10.6,11.1,11.2,11.1,10.7,10.1,9.6,9.6,10.1,10.7,11.1,11.3,null,11.3],"kmh_p50":[14.2,null,null,null,14.1,13.8,13.3,12.6,12.2,12.6,13.3,13.8,14.0,13.9,13.4,12.6,12.0,12.0,12.6,13.4,13.9,14.1,null,14.2],"kmh_p85":[16.7,null,null,null,16.6,16.3,15.7,14.8,14.4,14.8,15.7,16.3,16.5,16.4,15.8,14.9,14.2,14.2,14.9,15.8,16.4,16.6,null,16.7],"n":null}},{"type":"Feature","geometry":{"type":"LineString","coordinates":[[19.48682,51.74895],[19.49223,51.75372]]},"properties":{"id":"lodz-080","route":null,"mode":"bus","stop_from":"Przystanek M4","stop_to":"Przystanek N4","plan_kmh":16.7,"kmh_p15":[null,null,12.6,null,12.5,12.3,11.8,11.2,10.8,11.2,11.8,12.3,12.5,12.3,11.9,11.2,10.7,10.7,11.2,11.9,12.3,12.5,12.6,12.6],"kmh_p50":[null,null,15.8,null,15.7,15.4,14.8,13.9,13.5,13.9,14.8,15.4,15.6,15.4,14.9,14.0,13.3,13.3,14.0,14.9,15.4,15.7,15.7,15.8],"kmh_p85":[null,null,18.6,null,18.5,18.2,17.4,16.5,16.0,16.5,17.4,18.1,18.4,18.2,17.5,16.5,15.7,15.7,16.5,17.5,18.2,18.5,18.6,18.6],"n":null}},{"type":"Feature","geometry":{"type":"LineString","coordinates":[[19.52675,51.759],[19.52329,51.76881]]},"properties":{"id":"lodz-081","route":null,"mode":"bus","stop_from":"Przystanek P4","stop_to":"Przystanek Q4","plan_kmh":23.5,"kmh_p15":[null,null,null,null,17.7,17.3,16.6,15.7,15.3,15.7,16.6,17.3,17.6,17.4,16.8,15.8,15.0,15.0,15.8,16.8,17.4,17.7,17.7,17.8],"kmh_p50":[null,null,null,null,22.1,21.7,20.8,19.7,19.1,19.7,20.8,21.7,21.9,21.7,20.9,19.8,18.8,18.8,19.8,20.9,21.7,22.1,22.2,22.2],"kmh_p85":[null,null,null,null,26.0,25.6,24.5,23.2,22.5,23.2,24.5,25.6,25.9,25.6,24.7,23.3,22.2,22.2,23.3,24.7,25.6,26.0,26.2,26.2],"n":null}},{"type":"Feature","geometry":{"type":"LineString","coordinates":[[19.52329,51.76881],[19.51324,51.77766]]},"properties":{"id":"lodz-082","route":null,"mode":"bus","stop_from":"Przystanek Q4","stop_to":"Przystanek R4","plan_kmh":28.2,"kmh_p15":[null,null,null,null,21.2,20.8,20.0,18.9,18.3,18.9,20.0,20.8,21.1,20.8,20.1,19.0,18.0,18.0,19.0,20.1,20.9,21.2,21.3,21.3],"kmh_p50":[null,null,null,null,26.5,26.0,24.9,23.6,22.9,23.6,24.9,26.0,26.3,26.0,25.1,23.7,22.5,22.5,23.7,25.1,26.1,26.5,26.6,26.6],"kmh_p85":[null,null,null,null,31.2,30.7,29.4,27.8,27.0,27.8,29.4,30.6,31.1,30.7,29.6,28.0,26.6,26.6,28.0,29.6,30.8,31.2,31.4,31.4],"n":null}},{"type":"Feature","geometry":{"type":"LineString","coordinates":[[19.51324,51.77766],[19.49759,51.78468]]},"properties":{"id":"lodz-083","route":null,"mode":"bus","stop_from":"Przystanek R4","stop_to":"Przystanek S4","plan_kmh":29.7,"kmh_p15":[null,null,null,null,22.3,21.9,21.0,19.8,19.2,19.8,21.0,21.8,22.1,21.9,21.1,19.9,18.9,18.9,19.9,21.1,21.9,22.3,null,22.4],"kmh_p50":[null,null,null,null,27.8,27.3,26.2,24.8,24.1,24.8,26.2,27.3,27.7,27.4,26.4,24.9,23.7,23.7,24.9,26.4,27.4,27.8,null,28.0],"kmh_p85":[null,null,null,null,32.8,32.2,30.9,29.2,28.4,29.2,30.9,32.2,32.6,32.3,31.1,29.4,27.9,27.9,29.4,31.1,32.3,32.8,null,33.0],"n":null}},{"type":"Feature","geometry":{"type":"LineString","coordinates":[[19.49759,51.78468],[19.47786,51.78919]]},"properties":{"id":"lodz-084","route":null,"mode":"bus","stop_from":"Przystanek S4","stop_to":"Przystanek T4","plan_kmh":23.7,"kmh_p15":[null,null,null,null,17.9,17.6,16.9,16.0,15.5,16.0,16.9,17.6,17.8,17.7,17.0,16.1,15.3,15.3,16.1,17.0,null,18.0,null,null],"kmh_p50":[null,null,null,null,22.4,22.0,21.1,20.0,19.4,20.0,21.1,22.0,22.3,22.1,21.3,20.1,19.1,19.1,20.1,21.3,null,22.4,null,null],"kmh_p85":[null,null,null,null,26.5,26.0,25.0,23.6,22.9,23.6,24.9,26.0,26.3,26.0,25.1,23.7,22.5,22.5,23.7,25.1,null,26.5,null,null],"n":null}},{"type":"Feature","geometry":{"type":"LineString","coordinates":[[19.47786,51.78919],[19.456,51.79074]]},"properties":{"id":"lodz-085","route":null,"mode":"bus","stop_from":"Przystanek T4","stop_to":"Przystanek U4","plan_kmh":22.3,"kmh_p15":[null,null,null,null,16.7,16.4,15.7,14.8,14.4,14.8,15.7,16.4,16.6,16.4,15.8,14.9,14.2,14.2,14.9,15.8,16.4,16.7,16.8,16.8],"kmh_p50":[null,null,null,null,20.8,20.5,19.6,18.6,18.0,18.6,19.6,20.5,20.7,20.5,19.8,18.7,17.7,17.7,18.7,19.8,20.5,20.8,20.9,21.0],"kmh_p85":[null,null,null,null,24.6,24.2,23.2,21.9,21.3,21.9,23.2,24.1,24.5,24.2,23.3,22.0,20.9,20.9,22.0,23.3,24.2,24.6,24.7,24.7],"n":null}},{"type":"Feature","geometry":{"type":"LineString","coordinates":[[19.456,51.79074],[19.43414,51.78919]]},"properties":{"id":"lodz-086","route":null,"mode":"bus","stop_from":"Przystanek U4","stop_to":"Przystanek V4","plan_kmh":21.1,"kmh_p15":[15.9,null,null,null,15.8,15.6,14.9,14.1,13.7,14.1,14.9,15.5,null,15.6,15.0,14.2,13.5,13.5,14.2,15.0,15.6,15.8,null,null],"kmh_p50":[19.9,null,null,null,19.8,19.4,18.6,17.6,17.1,17.6,18.6,19.4,null,19.5,18.8,17.7,16.8,16.8,17.7,18.8,19.5,19.8,null,null],"kmh_p85":[23.5,null,null,null,23.3,22.9,22.0,20.8,20.2,20.8,22.0,22.9,null,23.0,22.2,20.9,19.9,19.9,20.9,22.2,23.0,23.4,null,null],"n":null}},{"type":"Feature","geometry":{"type":"LineString","coordinates":[[19.43414,51.78919],[19.41441,51.78468]]},"properties":{"id":"lodz-087","route":null,"mode":"bus","stop_from":"Przystanek V4","stop_to":"Przystanek W4","plan_kmh":25.5,"kmh_p15":[19.3,null,null,null,19.2,18.8,18.1,17.1,16.6,17.1,18.1,18.8,19.1,18.9,18.2,17.2,16.3,16.3,17.2,18.2,18.9,19.2,19.3,null],"kmh_p50":[24.1,null,null,null,24.0,23.5,22.6,21.3,20.7,21.3,22.6,23.5,23.8,23.6,22.7,21.4,20.4,20.4,21.4,22.7,23.6,24.0,24.1,null],"kmh_p85":[28.4,null,null,null,28.3,27.8,26.6,25.2,24.4,25.2,26.6,27.7,28.1,27.8,26.8,25.3,24.1,24.1,25.3,26.8,27.8,28.3,28.4,null],"n":null}},{"type":"Feature","geometry":{"type":"LineString","coordinates":[[19.41441,51.78468],[19.39876,51.77766]]},"properties":{"id":"lodz-088","route":null,"mode":"bus","stop_from":"Przystanek W4","stop_to":"Przystanek X4","plan_kmh":29.8,"kmh_p15":[null,null,null,null,22.4,22.0,21.1,19.9,19.3,19.9,21.1,21.9,22.2,22.0,21.2,20.0,null,19.0,null,21.2,22.0,22.4,22.5,null],"kmh_p50":[null,null,null,null,27.9,27.4,26.3,24.9,24.2,24.9,26.3,27.4,27.8,27.5,26.5,25.0,null,23.8,null,26.5,27.5,27.9,28.1,null],"kmh_p85":[null,null,null,null,33.0,32.4,31.1,29.4,28.5,29.4,31.1,32.4,32.8,32.4,31.3,29.5,null,28.1,null,31.3,32.5,33.0,33.1,null],"n":null}},{"type":"Feature","geometry":{"type":"LineString","coordinates":[[19.39876,51.77766],[19.38871,51.76881]]},"properties":{"id":"lodz-089","route":null,"mode":"bus","stop_from":"Przystanek X4","stop_to":"Przystanek Y4","plan_kmh":21.6,"kmh_p15":[null,null,null,null,16.3,16.0,15.3,14.5,14.1,14.5,15.3,16.0,16.2,16.0,null,14.6,13.8,13.8,14.6,15.4,16.0,16.3,null,16.4],"kmh_p50":[null,null,null,null,20.3,20.0,19.2,18.1,17.6,18.1,19.2,20.0,20.2,20.0,null,18.2,17.3,17.3,18.2,19.3,20.0,20.3,null,20.4],"kmh_p85":[null,null,null,null,24.0,23.6,22.6,21.4,20.8,21.4,22.6,23.5,23.9,23.6,null,21.5,20.4,20.4,21.5,22.8,23.6,24.0,null,24.1],"n":null}},{"type":"Feature","geometry":{"type":"LineString","coordinates":[[19.38871,51.76881],[19.38525,51.759]]},"properties":{"id":"lodz-090","route":null,"mode":"bus","stop_from":"Przystanek Y4","stop_to":"Przystanek Z4","plan_kmh":22.3,"kmh_p15":[null,null,null,16.8,16.7,16.4,15.7,14.9,14.4,14.9,15.7,16.4,16.6,16.4,15.8,14.9,14.2,14.2,14.9,15.8,16.4,16.7,16.8,16.8],"kmh_p50":[null,null,null,21.0,20.9,20.5,19.7,18.6,18.1,18.6,19.7,20.5,20.8,20.5,19.8,18.7,17.8,17.8,18.7,19.8,20.6,20.9,21.0,21.0],"kmh_p85":[null,null,null,24.8,24.6,24.2,23.2,21.9,21.3,21.9,23.2,24.2,24.5,24.2,23.4,22.0,21.0,21.0,22.1,23.4,24.3,24.6,24.7,24.8],"n":null}},{"type":"Feature","geometry":{"type":"LineString","coordinates":[[19.38525,51.759],[19.38871,51.74919]]},"properties":{"id":"lodz-091","route":null,"mode":"bus","stop_from":"Przystanek Z4","stop_to":"Przystanek A5","plan_kmh":30.1,"kmh_p15":[null,null,null,null,22.8,22.4,21.4,20.3,19.7,20.3,21.4,22.3,22.6,22.4,21.6,20.4,19.4,19.4,20.4,21.6,22.4,22.8,null,null],"kmh_p50":[null,null,null,null,28.4,27.9,26.8,25.3,24.6,25.3,26.8,27.9,28.3,28.0,27.0,25.5,24.2,24.2,25.5,27.0,28.0,28.4,null,null],"kmh_p85":[null,null,null,null,33.6,33.0,31.6,29.9,29.0,29.9,31.6,32.9,33.4,33.0,31.8,30.0,28.6,28.6,30.0,31.8,33.0,33.6,null,null],"n":null}},{"type":"Feature","geometry":{"type":"LineString","coordinates":[[19.38871,51.74919],[19.39876,51.74034]]},"properties":{"id":"lodz-092","route":null,"mode":"bus","stop_from":"Przystanek A5","stop_to":"Przystanek B5","plan_kmh":21.7,"kmh_p15":[null,16.4,null,null,16.3,16.1,15.4,14.6,14.1,14.6,15.4,16.0,16.3,16.1,15.5,14.6,13.9,13.9,14.6,15.5,16.1,16.3,null,null],"kmh_p50":[null,20.5,null,null,20.4,20.1,19.3,18.2,17.7,18.2,19.3,20.1,20.3,20.1,19.4,18.3,17.4,17.4,18.3,19.4,20.1,20.4,null,null],"kmh_p85":[null,24.2,null,null,24.1,23.7,22.7,21.5,20.9,21.5,22.7,23.7,24.0,23.7,22.9,21.6,20.5,20.5,21.6,22.9,23.7,24.1,null,null],"n":null}},{"type":"Feature","geometry":{"type":"LineString","coordinates":[[19.39876,51.74034],[19.41441,51.73332]]},"properties":{"id":"lodz-093","route":null,"mode":"bus","stop_from":"Przystanek B5","stop_to":"Przystanek C5","plan_kmh":22.2,"kmh_p15":[null,null,null,16.7,16.6,16.3,15.7,14.8,14.4,14.8,15.7,16.3,16.5,16.3,15.8,14.9,14.1,14.1,14.9,15.8,16.4,16.6,null,16.7],"kmh_p50":[null,null,null,20.9,20.8,20.4,19.6,18.5,18.0,18.5,19.6,20.4,20.7,20.4,19.7,18.6,17.7,17.7,18.6,19.7,20.5,20.8,null,20.9],"kmh_p85":[null,null,null,24.6,24.5,24.1,23.1,21.8,21.2,21.8,23.1,24.0,24.4,24.1,23.3,21.9,20.9,20.9,21.9,23.3,24.1,24.5,null,24.6],"n":null}},{"type":"Feature","geometry":{"type":"LineString","coordinates":[[19.41441,51.73332],[19.43414,51.72881]]},"properties":{"id":"lodz-094","route":null,"mode":"bus","stop_from":"Przystanek C5","stop_to":"Przystanek D5","plan_kmh":24.4,"kmh_p15":[null,null,null,null,18.3,18.0,17.2,16.3,15.8,16.3,17.2,17.9,18.2,18.0,17.3,16.4,15.6,15.6,16.4,17.4,18.0,18.3,18.4,null],"kmh_p50":[null,null,null,null,22.9,22.5,21.5,20.4,19.8,20.4,21.5,22.4,22.7,22.5,21.7,20.5,19.5,19.5,20.5,21.7,22.5,22.9,23.0,null],"kmh_p85":[null,null,null,null,27.0,26.5,25.4,24.0,23.3,24.0,25.4,26.5,26.8,26.5,25.6,24.1,23.0,23.0,24.1,25.6,26.6,27.0,27.1,null],"n":null}},{"type":"Feature","geometry":{"type":"LineString","coordinates":[[19.43414,51.72881],[19.456,51.72726]]},"properties":{"id":"lodz-095","route":null,"mode":"bus","stop_from":"Przystanek D5","stop_to":"Przystanek E5","plan_kmh":22.5,"kmh_p15":[null,null,null,17.0,16.9,16.6,15.9,15.1,14.6,15.1,15.9,16.6,16.8,16.6,16.1,15.1,14.4,14.4,15.1,16.1,16.7,16.9,null,null],"kmh_p50":[null,null,null,21.2,21.1,20.8,19.9,18.8,18.3,18.8,19.9,20.8,21.0,20.8,20.1,18.9,18.0,18.0,18.9,20.1,20.8,21.2,null,null],"kmh_p85":[null,null,null,25.1,25.0,24.5,23.5,22.2,21.6,22.2,23.5,24.5,24.8,24.5,23.7,22.3,21.2,21.2,22.3,23.7,24.6,25.0,null,null],"n":null}},{"type":"Feature","geometry":{"type":"LineString","coordinates":[[19.456,51.72726],[19.47786,51.72881]]},"properties":{"id":"lodz-096","route":null,"mode":"bus","stop_from":"Przystanek E5","stop_to":"Przystanek F5","plan_kmh":25.7,"kmh_p15":[null,null,null,null,19.2,18.9,18.1,17.1,16.6,17.1,18.1,18.9,19.1,18.9,18.3,17.2,16.4,16.4,17.2,18.3,19.0,19.2,19.3,19.4],"kmh_p50":[null,null,null,null,24.1,23.6,22.7,21.4,20.8,21.4,22.7,23.6,23.9,23.7,22.8,21.5,20.5,20.5,21.5,22.8,23.7,24.1,24.2,24.2],"kmh_p85":[null,null,null,null,28.4,27.9,26.8,25.3,24.6,25.3,26.7,27.9,28.2,27.9,26.9,25.4,24.2,24.2,25.4,26.9,28.0,28.4,28.5,28.5],"n":null}},{"type":"Feature","geometry":{"type":"LineString","coordinates":[[19.47786,51.72881],[19.49759,51.73332]]},"properties":{"id":"lodz-097","route":null,"mode":"bus","stop_from":"Przystanek F5","stop_to":"Przystanek G5","plan_kmh":30.4,"kmh_p15":[null,null,null,null,22.9,22.5,21.5,20.4,19.8,20.4,21.5,22.4,22.7,22.5,21.7,20.5,19.5,19.5,20.5,21.7,22.5,22.9,null,23.0],"kmh_p50":[null,null,null,null,28.6,28.1,26.9,25.4,24.7,25.4,26.9,28.0,28.4,28.1,27.1,25.6,24.3,24.3,25.6,27.1,28.1,28.6,null,28.7],"kmh_p85":[null,null,null,null,33.7,33.1,31.8,30.0,29.2,30.0,31.8,33.1,33.5,33.2,32.0,30.2,28.7,28.7,30.2,32.0,33.2,33.7,null,33.9],"n":null}},{"type":"Feature","geometry":{"type":"LineString","coordinates":[[19.49759,51.73332],[19.51324,51.74034]]},"properties":{"id":"lodz-098","route":null,"mode":"bus","stop_from":"Przystanek G5","stop_to":"Przystanek H5","plan_kmh":21.4,"kmh_p15":[null,null,null,null,16.1,15.8,15.1,14.3,13.9,14.3,15.1,15.8,16.0,15.8,15.3,14.4,13.7,13.7,14.4,15.3,15.8,16.1,16.1,16.2],"kmh_p50":[null,null,null,null,20.1,19.7,18.9,17.9,17.4,17.9,18.9,19.7,20.0,19.8,19.1,18.0,17.1,17.1,18.0,19.1,19.8,20.1,20.2,20.2],"kmh_p85":[null,null,null,null,23.7,23.3,22.3,21.1,20.5,21.1,22.3,23.3,23.6,23.3,22.5,21.2,20.2,20.2,21.2,22.5,23.3,23.7,23.8,23.8],"n":null}},{"type":"Feature","geometry":{"type":"LineString","coordinates":[[19.51324,51.74034],[19.52329,51.74919]]},"properties":{"id":"lodz-099","route":null,"mode":"bus","stop_from":"Przystanek H5","stop_to":"Przystanek I5","plan_kmh":27.8,"kmh_p15":[null,null,21.0,null,20.8,20.5,19.6,18.6,18.0,18.6,19.6,20.5,null,20.5,19.8,18.7,17.7,17.7,18.7,19.8,20.5,20.8,null,21.0],"kmh_p50":[null,null,26.2,null,26.1,25.6,24.6,23.2,22.5,23.2,24.6,25.6,null,25.6,24.7,23.3,22.2,22.2,23.3,24.7,25.7,26.1,null,26.2],"kmh_p85":[null,null,30.9,null,30.7,30.2,29.0,27.4,26.6,27.4,29.0,30.2,null,30.2,29.2,27.5,26.2,26.2,27.5,29.2,30.3,30.8,null,30.9],"n":null}},{"type":"Feature","geometry":{"type":"LineString","coordinates":[[19.52329,51.74919],[19.52675,51.759]]},"properties":{"id":"lodz-100","route":null,"mode":"bus","stop_from":"Przystanek I5","stop_to":"Przystanek J5","plan_kmh":26.9,"kmh_p15":[null,null,null,null,20.2,19.9,19.1,18.0,17.5,18.0,19.1,19.9,20.1,19.9,19.2,18.1,17.2,17.2,18.1,19.2,19.9,20.2,20.3,20.3],"kmh_p50":[null,null,null,null,25.3,24.8,23.8,22.5,21.9,22.5,23.8,24.8,25.1,24.9,24.0,22.6,21.5,21.5,22.6,24.0,24.9,25.3,25.4,25.4],"kmh_p85":[null,null,null,null,29.8,29.3,28.1,26.6,25.8,26.6,28.1,29.3,29.7,29.4,28.3,26.7,25.4,25.4,26.7,28.3,29.4,29.8,30.0,30.0],"n":null}}]}