{"type":"FeatureCollection","features":[{"type":"Feature","geometry":{"type":"LineString","coordinates":[[18.6,53.01],[18.60925,53.00946]]},"properties":{"id":"miasto-e-001","route":"11","mode":"tram","stop_from":"Przystanek A","stop_to":"Przystanek B","plan_kmh":null,"kmh_p15":[null,null,null,null,null,null,null,null,null,null,null,null,null,null,null,null,null,null,null,null,null,null,null,null],"kmh_p50":[null,null,null,null,null,null,null,null,null,null,null,null,null,null,null,null,null,null,null,null,null,null,null,null],"kmh_p85":[null,null,null,null,null,null,null,null,null,null,null,null,null,null,null,null,null,null,null,null,null,null,null,null],"n":null}},{"type":"Feature","geometry":{"type":"LineString","coordinates":[[18.60925,53.00946],[18.61843,53.00871]]},"properties":{"id":"miasto-e-002","route":"11","mode":"tram","stop_from":"Przystanek B","stop_to":"Przystanek C","plan_kmh":11.8,"kmh_p15":[null,null,null,null,8.9,8.7,8.3,7.9,7.7,7.9,8.3,8.7,8.8,8.7,8.4,7.9,7.5,7.5,7.9,8.4,8.7,8.9,null,null],"kmh_p50":[null,null,null,null,11.1,10.9,10.4,9.9,9.6,9.9,10.4,10.9,11.0,10.9,10.5,9.9,9.4,9.4,9.9,10.5,10.9,11.1,null,null],"kmh_p85":[null,null,null,null,13.1,12.8,12.3,11.6,11.3,11.6,12.3,12.8,13.0,12.9,12.4,11.7,11.1,11.1,11.7,12.4,12.9,13.1,null,null],"n":null}},{"type":"Feature","geometry":{"type":"LineString","coordinates":[[18.61843,53.00871],[18.6277,53.00824]]},"properties":{"id":"miasto-e-003","route":"11","mode":"tram","stop_from":"Przystanek C","stop_to":"Przystanek D","plan_kmh":null,"kmh_p15":[null,null,null,null,null,null,null,null,null,null,null,null,null,null,null,null,null,null,null,null,null,null,null,null],"kmh_p50":[null,null,null,null,null,null,null,null,null,null,null,null,null,null,null,null,null,null,null,null,null,null,null,null],"kmh_p85":[null,null,null,null,null,null,null,null,null,null,null,null,null,null,null,null,null,null,null,null,null,null,null,null],"n":null}},{"type":"Feature","geometry":{"type":"LineString","coordinates":[[18.6277,53.00824],[18.6369,53.00754]]},"properties":{"id":"miasto-e-004","route":"11","mode":"tram","stop_from":"Przystanek D","stop_to":"Przystanek E","plan_kmh":21.0,"kmh_p15":[null,null,null,null,15.8,15.5,14.9,14.1,13.7,14.1,14.9,15.5,15.7,15.5,15.0,14.1,13.4,13.4,14.1,15.0,15.6,15.8,15.9,null],"kmh_p50":[null,null,null,null,19.7,19.4,18.6,17.6,17.1,17.6,18.6,19.4,19.6,19.4,18.7,17.7,16.8,16.8,17.7,18.7,19.4,19.7,19.8,null],"kmh_p85":[null,null,null,null,23.3,22.9,22.0,20.7,20.1,20.7,22.0,22.9,23.2,22.9,22.1,20.9,19.8,19.8,20.9,22.1,22.9,23.3,23.4,null],"n":null}},{"type":"Feature","geometry":{"type":"LineString","coordinates":[[18.6369,53.00754],[18.64642,53.00793]]},"properties":{"id":"miasto-e-005","route":"11","mode":"tram","stop_from":"Przystanek E","stop_to":"Przystanek F","plan_kmh":23.6,"kmh_p15":[null,null,17.8,null,17.7,17.4,16.7,15.8,15.3,15.8,16.7,17.4,17.6,17.4,16.8,15.9,15.1,15.1,null,16.8,17.5,17.7,17.8,17.8],"kmh_p50":[null,null,22.3,null,22.2,21.8,20.9,19.7,19.2,19.7,20.9,21.8,22.0,21.8,21.0,19.8,18.9,18.9,null,21.0,21.8,22.2,22.3,22.3],"kmh_p85":[null,null,26.3,null,26.2,25.7,24.7,23.3,22.6,23.3,24.6,25.7,26.0,25.7,24.8,23.4,22.3,22.3,null,24.8,25.8,26.2,26.3,26.3],"n":null}},{"type":"Feature","geometry":{"type":"LineString","coordinates":[[18.64642,53.00793],[18.65538,53.00642]]},"properties":{"id":"miasto-e-006","route":"11","mode":"tram","stop_from":"Przystanek F","stop_to":"Przystanek G","plan_kmh":null,"kmh_p15":[null,null,null,null,null,null,null,null,null,null,null,null,null,null,null,null,null,null,null,null,null,null,null,null],"kmh_p50":[null,null,null,null,null,null,null,null,null,null,null,null,null,null,null,null,null,null,null,null,null,null,null,null],"kmh_p85":[null,null,null,null,null,null,null,null,null,null,null,null,null,null,null,null,null,null,null,null,null,null,null,null],"n":null}},{"type":"Feature","geometry":{"type":"LineString","coordinates":[[18.65538,53.00642],[18.66456,53.00567]]},"properties":{"id":"miasto-e-007","route":"11","mode":"tram","stop_from":"Przystanek G","stop_to":"Przystanek H","plan_kmh":35.0,"kmh_p15":[null,26.4,null,null,26.3,25.8,24.8,23.4,22.7,23.4,24.8,25.8,26.1,25.9,24.9,23.5,22.4,22.4,23.5,24.9,25.9,26.3,26.4,26.4],"kmh_p50":[null,33.0,null,null,32.9,32.3,31.0,29.3,28.4,29.3,31.0,32.2,32.7,32.3,31.2,29.4,28.0,28.0,29.4,31.2,32.4,32.9,33.0,33.0],"kmh_p85":[null,39.0,null,null,38.8,38.1,36.5,34.5,33.5,34.5,36.5,38.1,38.6,38.1,36.8,34.7,33.0,33.0,34.7,36.8,38.2,38.8,39.0,39.0],"n":null}},{"type":"Feature","geometry":{"type":"LineString","coordinates":[[18.6,53.01],[18.60644,53.01219]]},"properties":{"id":"miasto-e-008","route":null,"mode":"bus","stop_from":"Przystanek I","stop_to":"Przystanek J","plan_kmh":null,"kmh_p15":[null,null,null,null,null,null,null,null,null,null,null,null,null,null,null,null,null,null,null,null,null,null,null,null],"kmh_p50":[null,null,null,null,null,null,null,null,null,null,null,null,null,null,null,null,null,null,null,null,null,null,null,null],"kmh_p85":[null,null,null,null,null,null,null,null,null,null,null,null,null,null,null,null,null,null,null,null,null,null,null,null],"n":null}},{"type":"Feature","geometry":{"type":"LineString","coordinates":[[18.60644,53.01219],[18.61333,53.01411]]},"properties":{"id":"miasto-e-009","route":null,"mode":"bus","stop_from":"Przystanek J","stop_to":"Przystanek K","plan_kmh":null,"kmh_p15":[null,null,null,null,null,null,null,null,null,null,null,null,null,null,null,null,null,null,null,null,null,null,null,null],"kmh_p50":[null,null,null,null,null,null,null,null,null,null,null,null,null,null,null,null,null,null,null,null,null,null,null,null],"kmh_p85":[null,null,null,null,null,null,null,null,null,null,null,null,null,null,null,null,null,null,null,null,null,null,null,null],"n":null}},{"type":"Feature","geometry":{"type":"LineString","coordinates":[[18.61333,53.01411],[18.61873,53.01688]]},"properties":{"id":"miasto-e-010","route":null,"mode":"bus","stop_from":"Przystanek K","stop_to":"Przystanek L","plan_kmh":null,"kmh_p15":[null,null,null,null,null,null,null,null,null,null,null,null,null,null,null,null,null,null,null,null,null,null,null,null],"kmh_p50":[null,null,null,null,null,null,null,null,null,null,null,null,null,null,null,null,null,null,null,null,null,null,null,null],"kmh_p85":[null,null,null,null,null,null,null,null,null,null,null,null,null,null,null,null,null,null,null,null,null,null,null,null],"n":null}},{"type":"Feature","geometry":{"type":"LineString","coordinates":[[18.61873,53.01688],[18.62505,53.01914]]},"properties":{"id":"miasto-e-011","route":null,"mode":"bus","stop_from":"Przystanek L","stop_to":"Przystanek M","plan_kmh":null,"kmh_p15":[null,null,null,null,null,null,null,null,null,null,null,null,null,null,null,null,null,null,null,null,null,null,null,null],"kmh_p50":[null,null,null,null,null,null,null,null,null,null,null,null,null,null,null,null,null,null,null,null,null,null,null,null],"kmh_p85":[null,null,null,null,null,null,null,null,null,null,null,null,null,null,null,null,null,null,null,null,null,null,null,null],"n":null}},{"type":"Feature","geometry":{"type":"LineString","coordinates":[[18.62505,53.01914],[18.63191,53.02111]]},"properties":{"id":"miasto-e-012","route":null,"mode":"bus","stop_from":"Przystanek M","stop_to":"Przystanek N","plan_kmh":29.7,"kmh_p15":[null,null,22.4,22.4,22.3,21.9,21.0,19.9,19.3,19.9,21.0,21.9,22.2,21.9,21.2,20.0,19.0,19.0,20.0,21.2,22.0,22.3,null,22.4],"kmh_p50":[null,null,28.0,28.0,27.9,27.4,26.3,24.8,24.1,24.8,26.3,27.4,27.7,27.4,26.5,25.0,23.7,23.7,25.0,26.5,27.5,27.9,null,28.0],"kmh_p85":[null,null,33.1,33.1,32.9,32.3,31.0,29.3,28.5,29.3,31.0,32.3,32.7,32.4,31.2,29.5,28.0,28.0,29.5,31.2,32.4,32.9,null,33.1],"n":null}},{"type":"Feature","geometry":{"type":"LineString","coordinates":[[18.63191,53.02111],[18.63803,53.02347]]},"properties":{"id":"miasto-e-013","route":null,"mode":"bus","stop_from":"Przystanek N","stop_to":"Przystanek O","plan_kmh":null,"kmh_p15":[null,null,null,null,null,null,null,null,null,null,null,null,null,null,null,null,null,null,null,null,null,null,null,null],"kmh_p50":[null,null,null,null,null,null,null,null,null,null,null,null,null,null,null,null,null,null,null,null,null,null,null,null],"kmh_p85":[null,null,null,null,null,null,null,null,null,null,null,null,null,null,null,null,null,null,null,null,null,null,null,null],"n":null}},{"type":"Feature","geometry":{"type":"LineString","coordinates":[[18.63803,53.02347],[18.64563,53.02501]]},"properties":{"id":"miasto-e-014","route":null,"mode":"bus","stop_from":"Przystanek O","stop_to":"Przystanek P","plan_kmh":null,"kmh_p15":[null,null,null,null,null,null,null,null,null,null,null,null,null,null,null,null,null,null,null,null,null,null,null,null],"kmh_p50":[null,null,null,null,null,null,null,null,null,null,null,null,null,null,null,null,null,null,null,null,null,null,null,null],"kmh_p85":[null,null,null,null,null,null,null,null,null,null,null,null,null,null,null,null,null,null,null,null,null,null,null,null],"n":null}},{"type":"Feature","geometry":{"type":"LineString","coordinates":[[18.64563,53.02501],[18.64948,53.0286]]},"properties":{"id":"miasto-e-015","route":null,"mode":"bus","stop_from":"Przystanek P","stop_to":"Przystanek Q","plan_kmh":34.1,"kmh_p15":[null,null,null,null,25.6,25.1,24.1,22.8,22.1,22.8,24.1,25.1,25.4,25.2,24.3,22.9,21.8,21.8,22.9,24.3,25.2,25.6,null,25.7],"kmh_p50":[null,null,null,null,32.0,31.4,30.1,28.5,27.7,28.5,30.1,31.4,31.8,31.5,30.3,28.6,27.2,27.2,28.6,30.3,31.5,32.0,null,32.2],"kmh_p85":[null,null,null,null,37.7,37.1,35.6,33.6,32.6,33.6,35.6,37.0,37.5,37.1,35.8,33.8,32.1,32.1,33.8,35.8,37.2,37.7,null,37.9],"n":null}},{"type":"Feature","geometry":{"type":"LineString","coordinates":[[18.6,53.01],[18.60072,53.01406]]},"properties":{"id":"miasto-e-016","route":null,"mode":"tram","stop_from":"Przystanek R","stop_to":"Przystanek S","plan_kmh":null,"kmh_p15":[null,null,null,null,null,null,null,null,null,null,null,null,null,null,null,null,null,null,null,null,null,null,null,null],"kmh_p50":[null,null,null,null,null,null,null,null,null,null,null,null,null,null,null,null,null,null,null,null,null,null,null,null],"kmh_p85":[null,null,null,null,null,null,null,null,null,null,null,null,null,null,null,null,null,null,null,null,null,null,null,null],"n":null}},{"type":"Feature","geometry":{"type":"LineString","coordinates":[[18.60072,53.01406],[18.60026,53.01814]]},"properties":{"id":"miasto-e-017","route":null,"mode":"tram","stop_from":"Przystanek S","stop_to":"Przystanek T","plan_kmh":16.2,"kmh_p15":[null,null,null,null,12.1,11.9,11.4,10.8,10.5,10.8,11.4,11.9,12.1,11.9,11.5,10.9,10.3,10.3,10.9,11.5,12.0,12.1,null,12.2],"kmh_p50":[null,null,null,null,15.2,14.9,14.3,13.5,13.1,13.5,14.3,14.9,15.1,14.9,14.4,13.6,12.9,12.9,13.6,14.4,15.0,15.2,null,15.3],"kmh_p85":[null,null,null,null,17.9,17.6,16.9,16.0,15.5,16.0,16.9,17.6,17.8,17.6,17.0,16.0,15.3,15.3,16.0,17.0,17.6,17.9,null,18.0],"n":null}},{"type":"Feature","geometry":{"type":"LineString","coordinates":[[18.60026,53.01814],[18.60102,53.0222]]},"properties":{"id":"miasto-e-018","route":null,"mode":"tram","stop_from":"Przystanek T","stop_to":"Przystanek U","plan_kmh":null,"kmh_p15":[null,null,null,null,null,null,null,null,null,null,null,null,null,null,null,null,null,null,null,null,null,null,null,null],"kmh_p50":[null,null,null,null,null,null,null,null,null,null,null,null,null,null,null,null,null,null,null,null,null,null,null,null],"kmh_p85":[null,null,null,null,null,null,null,null,null,null,null,null,null,null,null,null,null,null,null,null,null,null,null,null],"n":null}},{"type":"Feature","geometry":{"type":"LineString","coordinates":[[18.60102,53.0222],[18.60125,53.02627]]},"properties":{"id":"miasto-e-019","route":null,"mode":"tram","stop_from":"Przystanek U","stop_to":"Przystanek V","plan_kmh":null,"kmh_p15":[null,null,null,null,null,null,null,null,null,null,null,null,null,null,null,null,null,null,null,null,null,null,null,null],"kmh_p50":[null,null,null,null,null,null,null,null,null,null,null,null,null,null,null,null,null,null,null,null,null,null,null,null],"kmh_p85":[null,null,null,null,null,null,null,null,null,null,null,null,null,null,null,null,null,null,null,null,null,null,null,null],"n":null}},{"type":"Feature","geometry":{"type":"LineString","coordinates":[[18.60125,53.02627],[18.60034,53.03035]]},"properties":{"id":"miasto-e-020","route":null,"mode":"tram","stop_from":"Przystanek V","stop_to":"Przystanek W","plan_kmh":24.4,"kmh_p15":[18.4,null,null,null,18.3,18.0,17.2,16.3,15.8,16.3,17.2,18.0,18.2,18.0,17.4,16.4,15.6,15.6,16.4,17.4,18.0,18.3,null,null],"kmh_p50":[23.0,null,null,null,22.9,22.5,21.6,20.4,19.8,20.4,21.5,22.4,22.7,22.5,21.7,20.5,19.5,19.5,20.5,21.7,22.5,22.9,null,null],"kmh_p85":[27.1,null,null,null,27.0,26.5,25.4,24.0,23.3,24.0,25.4,26.5,26.8,26.5,25.6,24.2,23.0,23.0,24.2,25.6,26.6,27.0,null,null],"n":null}},{"type":"Feature","geometry":{"type":"LineString","coordinates":[[18.60034,53.03035],[18.59884,53.03441]]},"properties":{"id":"miasto-e-021","route":null,"mode":"tram","stop_from":"Przystanek W","stop_to":"Przystanek X","plan_kmh":null,"kmh_p15":[null,null,null,null,null,null,null,null,null,null,null,null,null,null,null,null,null,null,null,null,null,null,null,null],"kmh_p50":[null,null,null,null,null,null,null,null,null,null,null,null,null,null,null,null,null,null,null,null,null,null,null,null],"kmh_p85":[null,null,null,null,null,null,null,null,null,null,null,null,null,null,null,null,null,null,null,null,null,null,null,null],"n":null}},{"type":"Feature","geometry":{"type":"LineString","coordinates":[[18.59884,53.03441],[18.59986,53.03849]]},"properties":{"id":"miasto-e-022","route":null,"mode":"tram","stop_from":"Przystanek X","stop_to":"Przystanek Y","plan_kmh":null,"kmh_p15":[null,null,null,null,null,null,null,null,null,null,null,null,null,null,null,null,null,null,null,null,null,null,null,null],"kmh_p50":[null,null,null,null,null,null,null,null,null,null,null,null,null,null,null,null,null,null,null,null,null,null,null,null],"kmh_p85":[null,null,null,null,null,null,null,null,null,null,null,null,null,null,null,null,null,null,null,null,null,null,null,null],"n":null}},{"type":"Feature","geometry":{"type":"LineString","coordinates":[[18.6,53.01],[18.59411,53.01316]]},"properties":{"id":"miasto-e-023","route":null,"mode":"bus","stop_from":"Przystanek Z","stop_to":"Przystanek A2","plan_kmh":16.5,"kmh_p15":[null,null,null,null,12.4,12.2,11.7,11.0,10.7,11.0,11.7,12.1,12.3,12.2,11.7,11.1,null,10.5,11.1,11.7,12.2,12.4,12.4,12.4],"kmh_p50":[null,null,null,null,15.5,15.2,14.6,13.8,13.4,13.8,14.6,15.2,15.4,15.2,14.7,13.8,null,13.2,13.8,14.7,15.2,15.5,15.5,15.6],"kmh_p85":[null,null,null,null,18.3,17.9,17.2,16.3,15.8,16.3,17.2,17.9,18.2,18.0,17.3,16.3,null,15.5,16.3,17.3,18.0,18.3,18.3,18.4],"n":null}},{"type":"Feature","geometry":{"type":"LineString","coordinates":[[18.59411,53.01316],[18.58741,53.01601]]},"properties":{"id":"miasto-e-024","route":null,"mode":"bus","stop_from":"Przystanek A2","stop_to":"Przystanek B2","plan_kmh":null,"kmh_p15":[null,null,null,null,null,null,null,null,null,null,null,null,null,null,null,null,null,null,null,null,null,null,null,null],"kmh_p50":[null,null,null,null,null,null,null,null,null,null,null,null,null,null,null,null,null,null,null,null,null,null,null,null],"kmh_p85":[null,null,null,null,null,null,null,null,null,null,null,null,null,null,null,null,null,null,null,null,null,null,null,null],"n":null}},{"type":"Feature","geometry":{"type":"LineString","coordinates":[[18.58741,53.01601],[18.58095,53.01895]]},"properties":{"id":"miasto-e-025","route":null,"mode":"bus","stop_from":"Przystanek B2","stop_to":"Przystanek C2","plan_kmh":null,"kmh_p15":[null,null,null,null,null,null,null,null,null,null,null,null,null,null,null,null,null,null,null,null,null,null,null,null],"kmh_p50":[null,null,null,null,null,null,null,null,null,null,null,null,null,null,null,null,null,null,null,null,null,null,null,null],"kmh_p85":[null,null,null,null,null,null,null,null,null,null,null,null,null,null,null,null,null,null,null,null,null,null,null,null],"n":null}},{"type":"Feature","geometry":{"type":"LineString","coordinates":[[18.58095,53.01895],[18.57575,53.02237]]},"properties":{"id":"miasto-e-026","route":null,"mode":"bus","stop_from":"Przystanek C2","stop_to":"Przystanek D2","plan_kmh":27.6,"kmh_p15":[null,null,null,null,20.7,null,19.5,18.4,17.9,18.4,19.5,20.3,20.6,20.3,19.6,18.5,17.6,17.6,18.5,19.6,20.4,20.7,null,20.8],"kmh_p50":[null,null,null,null,25.8,null,24.4,23.0,22.3,23.0,24.3,25.4,25.7,25.4,24.5,23.1,22.0,22.0,23.1,24.5,25.4,25.8,null,26.0],"kmh_p85":[null,null,null,null,30.5,null,28.7,27.2,26.4,27.2,28.7,29.9,30.3,30.0,28.9,27.3,26.0,26.0,27.3,28.9,30.0,30.5,null,30.7],"n":null}},{"type":"Feature","geometry":{"type":"LineString","coordinates":[[18.57575,53.02237],[18.56889,53.02517]]},"properties":{"id":"miasto-e-027","route":null,"mode":"bus","stop_from":"Przystanek D2","stop_to":"Przystanek E2","plan_kmh":null,"kmh_p15":[null,null,null,null,null,null,null,null,null,null,null,null,null,null,null,null,null,null,null,null,null,null,null,null],"kmh_p50":[null,null,null,null,null,null,null,null,null,null,null,null,null,null,null,null,null,null,null,null,null,null,null,null],"kmh_p85":[null,null,null,null,null,null,null,null,null,null,null,null,null,null,null,null,null,null,null,null,null,null,null,null],"n":null}},{"type":"Feature","geometry":{"type":"LineString","coordinates":[[18.56889,53.02517],[18.56327,53.02843]]},"properties":{"id":"miasto-e-028","route":null,"mode":"bus","stop_from":"Przystanek E2","stop_to":"Przystanek F2","plan_kmh":null,"kmh_p15":[null,null,null,null,null,null,null,null,null,null,null,null,null,null,null,null,null,null,null,null,null,null,null,null],"kmh_p50":[null,null,null,null,null,null,null,null,null,null,null,null,null,null,null,null,null,null,null,null,null,null,null,null],"kmh_p85":[null,null,null,null,null,null,null,null,null,null,null,null,null,null,null,null,null,null,null,null,null,null,null,null],"n":null}},{"type":"Feature","geometry":{"type":"LineString","coordinates":[[18.56327,53.02843],[18.55511,53.03069]]},"properties":{"id":"miasto-e-029","route":null,"mode":"bus","stop_from":"Przystanek F2","stop_to":"Przystanek G2","plan_kmh":null,"kmh_p15":[null,null,null,null,null,null,null,null,null,null,null,null,null,null,null,null,null,null,null,null,null,null,null,null],"kmh_p50":[null,null,null,null,null,null,null,null,null,null,null,null,null,null,null,null,null,null,null,null,null,null,null,null],"kmh_p85":[null,null,null,null,null,null,null,null,null,null,null,null,null,null,null,null,null,null,null,null,null,null,null,null],"n":null}},{"type":"Feature","geometry":{"type":"LineString","coordinates":[[18.6,53.01],[18.59188,53.00962]]},"properties":{"id":"miasto-e-030","route":null,"mode":"tram","stop_from":"Przystanek H2","stop_to":"Przystanek I2","plan_kmh":null,"kmh_p15":[null,null,null,null,null,null,null,null,null,null,null,null,null,null,null,null,null,null,null,null,null,null,null,null],"kmh_p50":[null,null,null,null,null,null,null,null,null,null,null,null,null,null,null,null,null,null,null,null,null,null,null,null],"kmh_p85":[null,null,null,null,null,null,null,null,null,null,null,null,null,null,null,null,null,null,null,null,null,null,null,null],"n":null}},{"type":"Feature","geometry":{"type":"LineString","coordinates":[[18.59188,53.00962],[18.58388,53.00885]]},"properties":{"id":"miasto-e-031","route":null,"mode":"tram","stop_from":"Przystanek I2","stop_to":"Przystanek J2","plan_kmh":null,"kmh_p15":[null,null,null,null,null,null,null,null,null,null,null,null,null,null,null,null,null,null,null,null,null,null,null,null],"kmh_p50":[null,null,null,null,null,null,null,null,null,null,null,null,null,null,null,null,null,null,null,null,null,null,null,null],"kmh_p85":[null,null,null,null,null,null,null,null,null,null,null,null,null,null,null,null,null,null,null,null,null,null,null,null],"n":null}},{"type":"Feature","geometry":{"type":"LineString","coordinates":[[18.58388,53.00885],[18.57559,53.00909]]},"properties":{"id":"miasto-e-032","route":null,"mode":"tram","stop_from":"Przystanek J2","stop_to":"Przystanek K2","plan_kmh":23.4,"kmh_p15":[17.7,null,null,null,17.6,17.3,16.6,15.7,15.2,15.7,16.6,17.3,17.5,17.3,16.7,15.8,15.0,15.0,15.8,16.7,17.3,17.6,17.7,17.7],"kmh_p50":[22.1,null,null,null,22.0,21.6,20.8,19.6,19.0,19.6,20.8,21.6,21.9,21.7,20.9,19.7,18.7,18.7,19.7,20.9,21.7,22.0,22.1,22.1],"kmh_p85":[26.1,null,null,null,26.0,25.5,24.5,23.1,22.5,23.1,24.5,25.5,25.8,25.6,24.7,23.3,22.1,22.1,23.3,24.7,25.6,26.0,26.1,26.1],"n":null}},{"type":"Feature","geometry":{"type":"LineString","coordinates":[[18.57559,53.00909],[18.56765,53.00806]]},"properties":{"id":"miasto-e-033","route":null,"mode":"tram","stop_from":"Przystanek K2","stop_to":"Przystanek L2","plan_kmh":null,"kmh_p15":[null,null,null,null,null,null,null,null,null,null,null,null,null,null,null,null,null,null,null,null,null,null,null,null],"kmh_p50":[null,null,null,null,null,null,null,null,null,null,null,null,null,null,null,null,null,null,null,null,null,null,null,null],"kmh_p85":[null,null,null,null,null,null,null,null,null,null,null,null,null,null,null,null,null,null,null,null,null,null,null,null],"n":null}},{"type":"Feature","geometry":{"type":"LineString","coordinates":[[18.56765,53.00806],[18.55936,53.0083]]},"properties":{"id":"miasto-e-034","route":null,"mode":"tram","stop_from":"Przystanek L2","stop_to":"Przystanek M2","plan_kmh":20.4,"kmh_p15":[null,null,null,null,15.3,15.0,14.4,13.6,13.2,13.6,14.4,15.0,15.2,15.0,14.5,13.7,13.0,13.0,13.7,14.5,15.1,15.3,null,15.4],"kmh_p50":[null,null,null,null,19.1,18.8,18.0,17.0,16.5,17.0,18.0,18.8,19.0,18.8,18.1,17.1,16.3,16.3,17.1,18.1,18.8,19.1,null,19.2],"kmh_p85":[null,null,null,null,22.6,22.2,21.3,20.1,19.5,20.1,21.3,22.1,22.4,22.2,21.4,20.2,19.2,19.2,20.2,21.4,22.2,22.6,null,22.7],"n":null}},{"type":"Feature","geometry":{"type":"LineString","coordinates":[[18.55936,53.0083],[18.55126,53.00785]]},"properties":{"id":"miasto-e-035","route":null,"mode":"tram","stop_from":"Przystanek M2","stop_to":"Przystanek N2","plan_kmh":null,"kmh_p15":[null,null,null,null,null,null,null,null,null,null,null,null,null,null,null,null,null,null,null,null,null,null,null,null],"kmh_p50":[null,null,null,null,null,null,null,null,null,null,null,null,null,null,null,null,null,null,null,null,null,null,null,null],"kmh_p85":[null,null,null,null,null,null,null,null,null,null,null,null,null,null,null,null,null,null,null,null,null,null,null,null],"n":null}},{"type":"Feature","geometry":{"type":"LineString","coordinates":[[18.55126,53.00785],[18.54324,53.00707]]},"properties":{"id":"miasto-e-036","route":null,"mode":"tram","stop_from":"Przystanek N2","stop_to":"Przystanek O2","plan_kmh":33.9,"kmh_p15":[null,null,null,null,25.6,25.2,24.2,22.8,22.2,22.8,24.2,25.2,25.5,25.2,24.3,22.9,21.8,21.8,22.9,null,25.2,25.6,null,null],"kmh_p50":[null,null,null,null,32.0,31.5,30.2,28.5,27.7,28.5,30.2,31.4,31.9,31.5,30.4,28.7,27.3,27.3,28.7,null,31.6,32.0,null,null],"kmh_p85":[null,null,null,null,37.8,37.1,35.6,33.7,32.7,33.7,35.6,37.1,37.6,37.2,35.9,33.8,32.2,32.2,33.8,null,37.2,37.8,null,null],"n":null}},{"type":"Feature","geometry":{"type":"LineString","coordinates":[[18.54324,53.00707],[18.53496,53.00738]]},"properties":{"id":"miasto-e-037","route":null,"mode":"tram","stop_from":"Przystanek O2","stop_to":"Przystanek P2","plan_kmh":33.0,"kmh_p15":[null,24.9,null,null,24.7,24.3,23.3,22.0,21.4,22.0,23.3,24.3,24.6,24.3,23.5,22.1,21.1,21.1,22.1,23.5,24.4,24.7,24.9,null],"kmh_p50":[null,31.1,null,null,30.9,30.4,29.1,27.5,26.7,27.5,29.1,30.3,30.8,30.4,29.3,27.7,26.3,26.3,27.7,29.3,30.5,30.9,31.1,null],"kmh_p85":[null,36.7,null,null,36.5,35.8,34.4,32.5,31.6,32.5,34.4,35.8,36.3,35.9,34.6,32.7,31.1,31.1,32.7,34.6,35.9,36.5,36.7,null],"n":null}},{"type":"Feature","geometry":{"type":"LineString","coordinates":[[18.6,53.01],[18.59277,53.00743]]},"properties":{"id":"miasto-e-038","route":null,"mode":"bus","stop_from":"Przystanek Q2","stop_to":"Przystanek R2","plan_kmh":null,"kmh_p15":[null,null,null,null,null,null,null,null,null,null,null,null,null,null,null,null,null,null,null,null,null,null,null,null],"kmh_p50":[null,null,null,null,null,null,null,null,null,null,null,null,null,null,null,null,null,null,null,null,null,null,null,null],"kmh_p85":[null,null,null,null,null,null,null,null,null,null,null,null,null,null,null,null,null,null,null,null,null,null,null,null],"n":null}},{"type":"Feature","geometry":{"type":"LineString","coordinates":[[18.59277,53.00743],[18.58535,53.00496]]},"properties":{"id":"miasto-e-039","route":null,"mode":"bus","stop_from":"Przystanek R2","stop_to":"Przystanek S2","plan_kmh":null,"kmh_p15":[null,null,null,null,null,null,null,null,null,null,null,null,null,null,null,null,null,null,null,null,null,null,null,null],"kmh_p50":[null,null,null,null,null,null,null,null,null,null,null,null,null,null,null,null,null,null,null,null,null,null,null,null],"kmh_p85":[null,null,null,null,null,null,null,null,null,null,null,null,null,null,null,null,null,null,null,null,null,null,null,null],"n":null}},{"type":"Feature","geometry":{"type":"LineString","coordinates":[[18.58535,53.00496],[18.57724,53.00289]]},"properties":{"id":"miasto-e-040","route":null,"mode":"bus","stop_from":"Przystanek S2","stop_to":"Przystanek T2","plan_kmh":14.9,"kmh_p15":[11.3,null,null,null,11.2,11.0,10.5,10.0,9.7,10.0,10.5,11.0,11.1,11.0,10.6,10.0,9.5,9.5,10.0,10.6,11.0,11.2,11.2,11.2],"kmh_p50":[14.1,null,null,null,14.0,13.7,13.2,12.5,12.1,12.5,13.2,13.7,13.9,13.8,13.3,12.5,11.9,11.9,12.5,13.3,13.8,14.0,14.0,14.1],"kmh_p85":[16.6,null,null,null,16.5,16.2,15.6,14.7,14.3,14.7,15.5,16.2,16.4,16.2,15.7,14.8,14.0,14.0,14.8,15.7,16.3,16.5,16.6,16.6],"n":null}},{"type":"Feature","geometry":{"type":"LineString","coordinates":[[18.57724,53.00289],[18.57021,53.00019]]},"properties":{"id":"miasto-e-041","route":null,"mode":"bus","stop_from":"Przystanek T2","stop_to":"Przystanek U2","plan_kmh":null,"kmh_p15":[null,null,null,null,null,null,null,null,null,null,null,null,null,null,null,null,null,null,null,null,null,null,null,null],"kmh_p50":[null,null,null,null,null,null,null,null,null,null,null,null,null,null,null,null,null,null,null,null,null,null,null,null],"kmh_p85":[null,null,null,null,null,null,null,null,null,null,null,null,null,null,null,null,null,null,null,null,null,null,null,null],"n":null}},{"type":"Feature","geometry":{"type":"LineString","coordinates":[[18.57021,53.00019],[18.56468,52.9967]]},"properties":{"id":"miasto-e-042","route":null,"mode":"bus","stop_from":"Przystanek U2","stop_to":"Przystanek V2","plan_kmh":null,"kmh_p15":[null,null,null,null,null,null,null,null,null,null,null,null,null,null,null,null,null,null,null,null,null,null,null,null],"kmh_p50":[null,null,null,null,null,null,null,null,null,null,null,null,null,null,null,null,null,null,null,null,null,null,null,null],"kmh_p85":[null,null,null,null,null,null,null,null,null,null,null,null,null,null,null,null,null,null,null,null,null,null,null,null],"n":null}},{"type":"Feature","geometry":{"type":"LineString","coordinates":[[18.56468,52.9967],[18.55745,52.99413]]},"properties":{"id":"miasto-e-043","route":null,"mode":"bus","stop_from":"Przystanek V2","stop_to":"Przystanek W2","plan_kmh":30.1,"kmh_p15":[null,22.7,null,null,22.6,22.2,21.3,20.1,19.6,20.1,21.3,22.2,22.5,22.3,21.5,20.2,19.3,19.3,20.2,21.5,22.3,22.6,22.7,22.7],"kmh_p50":[null,28.4,null,null,28.3,27.8,26.6,25.2,24.5,25.2,26.6,27.7,28.1,27.8,26.8,25.3,24.1,24.1,25.3,26.8,27.8,28.3,28.4,28.4],"kmh_p85":[null,33.6,null,null,33.4,32.8,31.4,29.7,28.9,29.7,31.4,32.7,33.2,32.8,31.7,29.9,28.4,28.4,29.9,31.7,32.9,33.4,33.5,33.5],"n":null}},{"type":"Feature","geometry":{"type":"LineString","coordinates":[[18.55745,52.99413],[18.54826,52.99261]]},"properties":{"id":"miasto-e-044","route":null,"mode":"bus","stop_from":"Przystanek W2","stop_to":"Przystanek X2","plan_kmh":null,"kmh_p15":[null,null,null,null,null,null,null,null,null,null,null,null,null,null,null,null,null,null,null,null,null,null,null,null],"kmh_p50":[null,null,null,null,null,null,null,null,null,null,null,null,null,null,null,null,null,null,null,null,null,null,null,null],"kmh_p85":[null,null,null,null,null,null,null,null,null,null,null,null,null,null,null,null,null,null,null,null,null,null,null,null],"n":null}},{"type":"Feature","geometry":{"type":"LineString","coordinates":[[18.6,53.01],[18.60067,53.00594]]},"properties":{"id":"miasto-e-045","route":null,"mode":"tram","stop_from":"Przystanek Y2","stop_to":"Przystanek Z2","plan_kmh":null,"kmh_p15":[null,null,null,null,null,null,null,null,null,null,null,null,null,null,null,null,null,null,null,null,null,null,null,null],"kmh_p50":[null,null,null,null,null,null,null,null,null,null,null,null,null,null,null,null,null,null,null,null,null,null,null,null],"kmh_p85":[null,null,null,null,null,null,null,null,null,null,null,null,null,null,null,null,null,null,null,null,null,null,null,null],"n":null}},{"type":"Feature","geometry":{"type":"LineString","coordinates":[[18.60067,53.00594],[18.60127,53.00188]]},"properties":{"id":"miasto-e-046","route":null,"mode":"tram","stop_from":"Przystanek Z2","stop_to":"Przystanek A3","plan_kmh":21.3,"kmh_p15":[null,null,16.1,null,16.0,15.7,15.0,14.2,13.8,14.2,15.0,15.7,15.9,15.7,15.1,14.3,13.6,null,14.3,15.1,15.7,16.0,null,null],"kmh_p50":[null,null,20.1,null,20.0,19.6,18.8,17.8,17.3,17.8,18.8,19.6,19.8,19.6,18.9,17.9,17.0,null,17.9,18.9,19.6,20.0,null,null],"kmh_p85":[null,null,23.7,null,23.5,23.1,22.2,21.0,20.4,21.0,22.2,23.1,23.4,23.2,22.3,21.1,20.0,null,21.1,22.3,23.2,23.5,null,null],"n":null}},{"type":"Feature","geometry":{"type":"LineString","coordinates":[[18.60127,53.00188],[18.60191,52.99782]]},"properties":{"id":"miasto-e-047","route":null,"mode":"tram","stop_from":"Przystanek A3","stop_to":"Przystanek B3","plan_kmh":null,"kmh_p15":[null,null,null,null,null,null,null,null,null,null,null,null,null,null,null,null,null,null,null,null,null,null,null,null],"kmh_p50":[null,null,null,null,null,null,null,null,null,null,null,null,null,null,null,null,null,null,null,null,null,null,null,null],"kmh_p85":[null,null,null,null,null,null,null,null,null,null,null,null,null,null,null,null,null,null,null,null,null,null,null,null],"n":null}},{"type":"Feature","geometry":{"type":"LineString","coordinates":[[18.60191,52.99782],[18.60065,52.99372]]},"properties":{"id":"miasto-e-048","route":null,"mode":"tram","stop_from":"Przystanek B3","stop_to":"Przystanek C3","plan_kmh":null,"kmh_p15":[null,null,null,null,null,null,null,null,null,null,null,null,null,null,null,null,null,null,null,null,null,null,null,null],"kmh_p50":[null,null,null,null,null,null,null,null,null,null,null,null,null,null,null,null,null,null,null,null,null,null,null,null],"kmh_p85":[null,null,null,null,null,null,null,null,null,null,null,null,null,null,null,null,null,null,null,null,null,null,null,null],"n":null}},{"type":"Feature","geometry":{"type":"LineString","coordinates":[[18.60065,52.99372],[18.60126,52.98966]]},"properties":{"id":"miasto-e-049","route":null,"mode":"tram","stop_from":"Przystanek C3","stop_to":"Przystanek D3","plan_kmh":null,"kmh_p15":[null,null,null,null,null,null,null,null,null,null,null,null,null,null,null,null,null,null,null,null,null,null,null,null],"kmh_p50":[null,null,null,null,null,null,null,null,null,null,null,null,null,null,null,null,null,null,null,null,null,null,null,null],"kmh_p85":[null,null,null,null,null,null,null,null,null,null,null,null,null,null,null,null,null,null,null,null,null,null,null,null],"n":null}},{"type":"Feature","geometry":{"type":"LineString","coordinates":[[18.60126,52.98966],[18.60104,52.98559]]},"properties":{"id":"miasto-e-050","route":null,"mode":"tram","stop_from":"Przystanek D3","stop_to":"Przystanek E3","plan_kmh":null,"kmh_p15":[null,null,null,null,null,null,null,null,null,null,null,null,null,null,null,null,null,null,null,null,null,null,null,null],"kmh_p50":[null,null,null,null,null,null,null,null,null,null,null,null,null,null,null,null,null,null,null,null,null,null,null,null],"kmh_p85":[null,null,null,null,null,null,null,null,null,null,null,null,null,null,null,null,null,null,null,null,null,null,null,null],"n":null}},{"type":"Feature","geometry":{"type":"LineString","coordinates":[[18.60104,52.98559],[18.6051,52.9816]]},"properties":{"id":"miasto-e-051","route":null,"mode":"tram","stop_from":"Przystanek E3","stop_to":"Przystanek F3","plan_kmh":null,"kmh_p15":[null,null,null,null,null,null,null,null,null,null,null,null,null,null,null,null,null,null,null,null,null,null,null,null],"kmh_p50":[null,null,null,null,null,null,null,null,null,null,null,null,null,null,null,null,null,null,null,null,null,null,null,null],"kmh_p85":[null,null,null,null,null,null,null,null,null,null,null,null,null,null,null,null,null,null,null,null,null,null,null,null],"n":null}},{"type":"Feature","geometry":{"type":"LineString","coordinates":[[18.6,53.01],[18.60613,53.00693]]},"properties":{"id":"miasto-e-052","route":null,"mode":"bus","stop_from":"Przystanek G3","stop_to":"Przystanek H3","plan_kmh":16.0,"kmh_p15":[null,null,null,null,12.0,11.8,11.3,10.7,10.4,10.7,11.3,11.8,11.9,null,11.4,10.8,10.2,10.2,10.8,11.4,11.8,12.0,12.1,12.1],"kmh_p50":[null,null,null,null,15.0,14.8,14.2,13.4,13.0,13.4,14.1,14.7,14.9,null,14.2,13.4,12.8,12.8,13.4,14.2,14.8,15.0,15.1,15.1],"kmh_p85":[null,null,null,null,17.7,17.4,16.7,15.8,15.3,15.8,16.7,17.4,17.6,null,16.8,15.9,15.1,15.1,15.9,16.8,17.4,17.7,17.8,17.8],"n":null}},{"type":"Feature","geometry":{"type":"LineString","coordinates":[[18.60613,53.00693],[18.61255,53.00397]]},"properties":{"id":"miasto-e-053","route":null,"mode":"bus","stop_from":"Przystanek H3","stop_to":"Przystanek I3","plan_kmh":16.9,"kmh_p15":[null,null,null,null,12.7,12.4,11.9,11.3,11.0,11.3,11.9,12.4,12.6,12.5,12.0,11.3,10.8,10.8,11.3,12.0,12.5,12.7,12.7,12.7],"kmh_p50":[null,null,null,null,15.8,15.6,14.9,14.1,13.7,14.1,14.9,15.5,15.8,15.6,15.0,14.2,13.5,13.5,14.2,15.0,15.6,15.8,15.9,15.9],"kmh_p85":[null,null,null,null,18.7,18.4,17.6,16.6,16.2,16.6,17.6,18.3,18.6,18.4,17.7,16.7,15.9,15.9,16.7,17.7,18.4,18.7,18.8,18.8],"n":null}},{"type":"Feature","geometry":{"type":"LineString","coordinates":[[18.61255,53.00397],[18.61863,53.00089]]},"properties":{"id":"miasto-e-054","route":null,"mode":"bus","stop_from":"Przystanek I3","stop_to":"Przystanek J3","plan_kmh":null,"kmh_p15":[null,null,null,null,null,null,null,null,null,null,null,null,null,null,null,null,null,null,null,null,null,null,null,null],"kmh_p50":[null,null,null,null,null,null,null,null,null,null,null,null,null,null,null,null,null,null,null,null,null,null,null,null],"kmh_p85":[null,null,null,null,null,null,null,null,null,null,null,null,null,null,null,null,null,null,null,null,null,null,null,null],"n":null}},{"type":"Feature","geometry":{"type":"LineString","coordinates":[[18.61863,53.00089],[18.62555,52.99813]]},"properties":{"id":"miasto-e-055","route":null,"mode":"bus","stop_from":"Przystanek J3","stop_to":"Przystanek K3","plan_kmh":26.2,"kmh_p15":[null,null,null,null,19.7,19.3,18.5,17.5,17.0,17.5,18.5,19.3,19.5,19.3,18.7,17.6,16.7,16.7,17.6,18.7,19.4,19.7,19.7,19.8],"kmh_p50":[null,null,null,null,24.6,24.1,23.2,21.9,21.3,21.9,23.2,24.1,24.4,24.2,23.3,22.0,20.9,20.9,22.0,23.3,24.2,24.6,24.7,24.7],"kmh_p85":[null,null,null,null,29.0,28.5,27.3,25.8,25.1,25.8,27.3,28.5,28.8,28.5,27.5,26.0,24.7,24.7,26.0,27.5,28.6,29.0,29.1,29.2],"n":null}},{"type":"Feature","geometry":{"type":"LineString","coordinates":[[18.62555,52.99813],[18.63128,52.9949]]},"properties":{"id":"miasto-e-056","route":null,"mode":"bus","stop_from":"Przystanek K3","stop_to":"Przystanek L3","plan_kmh":25.0,"kmh_p15":[null,null,null,null,18.8,null,17.7,16.8,16.3,16.8,17.7,18.5,18.7,18.5,17.9,16.8,16.0,16.0,16.8,17.9,18.5,18.8,18.9,18.9],"kmh_p50":[null,null,null,null,23.5,null,22.2,20.9,20.3,20.9,22.2,23.1,23.4,23.1,22.3,21.0,20.0,20.0,21.0,22.3,23.2,23.5,23.6,23.6],"kmh_p85":[null,null,null,null,27.7,null,26.2,24.7,24.0,24.7,26.1,27.2,27.6,27.3,26.3,24.8,23.6,23.6,24.8,26.3,27.3,27.8,27.9,27.9],"n":null}},{"type":"Feature","geometry":{"type":"LineString","coordinates":[[18.63128,52.9949],[18.63603,52.99131]]},"properties":{"id":"miasto-e-057","route":null,"mode":"bus","stop_from":"Przystanek L3","stop_to":"Przystanek M3","plan_kmh":null,"kmh_p15":[null,null,null,null,null,null,null,null,null,null,null,null,null,null,null,null,null,null,null,null,null,null,null,null],"kmh_p50":[null,null,null,null,null,null,null,null,null,null,null,null,null,null,null,null,null,null,null,null,null,null,null,null],"kmh_p85":[null,null,null,null,null,null,null,null,null,null,null,null,null,null,null,null,null,null,null,null,null,null,null,null],"n":null}},{"type":"Feature","geometry":{"type":"LineString","coordinates":[[18.63603,52.99131],[18.64425,52.98904]]},"properties":{"id":"miasto-e-058","route":null,"mode":"bus","stop_from":"Przystanek M3","stop_to":"Przystanek N3","plan_kmh":34.1,"kmh_p15":[null,25.8,25.8,25.8,25.6,25.2,24.2,22.8,22.2,22.8,24.2,25.2,25.5,25.2,null,22.9,21.8,21.8,22.9,24.3,25.2,25.6,25.8,25.8],"kmh_p50":[null,32.2,32.2,32.2,32.0,31.5,30.2,28.5,27.7,28.5,30.2,31.4,31.9,31.5,null,28.7,27.3,27.3,28.7,30.4,31.6,32.0,32.2,32.2],"kmh_p85":[null,38.0,38.0,38.0,37.8,37.1,35.6,33.7,32.7,33.7,35.6,37.1,37.6,37.2,null,33.8,32.2,32.2,33.8,35.9,37.2,37.8,38.0,38.0],"n":null}},{"type":"Feature","geometry":{"type":"LineString","coordinates":[[18.62286,53.01],[18.62174,53.01308]]},"properties":{"id":"miasto-e-059","route":null,"mode":"bus","stop_from":"Przystanek O3","stop_to":"Przystanek P3","plan_kmh":null,"kmh_p15":[null,null,null,null,null,null,null,null,null,null,null,null,null,null,null,null,null,null,null,null,null,null,null,null],"kmh_p50":[null,null,null,null,null,null,null,null,null,null,null,null,null,null,null,null,null,null,null,null,null,null,null,null],"kmh_p85":[null,null,null,null,null,null,null,null,null,null,null,null,null,null,null,null,null,null,null,null,null,null,null,null],"n":null}},{"type":"Feature","geometry":{"type":"LineString","coordinates":[[18.62174,53.01308],[18.6185,53.01586]]},"properties":{"id":"miasto-e-060","route":null,"mode":"bus","stop_from":"Przystanek P3","stop_to":"Przystanek Q3","plan_kmh":null,"kmh_p15":[null,null,null,null,null,null,null,null,null,null,null,null,null,null,null,null,null,null,null,null,null,null,null,null],"kmh_p50":[null,null,null,null,null,null,null,null,null,null,null,null,null,null,null,null,null,null,null,null,null,null,null,null],"kmh_p85":[null,null,null,null,null,null,null,null,null,null,null,null,null,null,null,null,null,null,null,null,null,null,null,null],"n":null}},{"type":"Feature","geometry":{"type":"LineString","coordinates":[[18.6185,53.01586],[18.61344,53.01807]]},"properties":{"id":"miasto-e-061","route":null,"mode":"bus","stop_from":"Przystanek Q3","stop_to":"Przystanek R3","plan_kmh":null,"kmh_p15":[null,null,null,null,null,null,null,null,null,null,null,null,null,null,null,null,null,null,null,null,null,null,null,null],"kmh_p50":[null,null,null,null,null,null,null,null,null,null,null,null,null,null,null,null,null,null,null,null,null,null,null,null],"kmh_p85":[null,null,null,null,null,null,null,null,null,null,null,null,null,null,null,null,null,null,null,null,null,null,null,null],"n":null}},{"type":"Feature","geometry":{"type":"LineString","coordinates":[[18.61344,53.01807],[18.60706,53.01948]]},"properties":{"id":"miasto-e-062","route":null,"mode":"bus","stop_from":"Przystanek R3","stop_to":"Przystanek S3","plan_kmh":null,"kmh_p15":[null,null,null,null,null,null,null,null,null,null,null,null,null,null,null,null,null,null,null,null,null,null,null,null],"kmh_p50":[null,null,null,null,null,null,null,null,null,null,null,null,null,null,null,null,null,null,null,null,null,null,null,null],"kmh_p85":[null,null,null,null,null,null,null,null,null,null,null,null,null,null,null,null,null,null,null,null,null,null,null,null],"n":null}},{"type":"Feature","geometry":{"type":"LineString","coordinates":[[18.6,53.01997],[18.59294,53.01948]]},"properties":{"id":"miasto-e-063","route":null,"mode":"bus","stop_from":"Przystanek T3","stop_to":"Przystanek U3","plan_kmh":16.3,"kmh_p15":[null,null,null,null,12.3,12.1,11.6,10.9,10.6,10.9,11.6,12.1,12.2,null,11.7,null,10.5,10.5,11.0,11.7,12.1,12.3,12.3,12.3],"kmh_p50":[null,null,null,null,15.4,15.1,14.5,13.7,13.3,13.7,14.5,15.1,15.3,null,14.6,null,13.1,13.1,13.7,14.6,15.1,15.4,15.4,15.4],"kmh_p85":[null,null,null,null,18.1,17.8,17.1,16.1,15.7,16.1,17.1,17.8,18.0,null,17.2,null,15.4,15.4,16.2,17.2,17.8,18.1,18.2,18.2],"n":null}},{"type":"Feature","geometry":{"type":"LineString","coordinates":[[18.59294,53.01948],[18.58656,53.01807]]},"properties":{"id":"miasto-e-064","route":null,"mode":"bus","stop_from":"Przystanek U3","stop_to":"Przystanek V3","plan_kmh":14.1,"kmh_p15":[null,10.7,10.7,null,10.6,10.4,10.0,9.4,9.2,9.4,10.0,10.4,10.5,10.4,10.1,9.5,9.0,9.0,9.5,10.1,null,10.6,10.6,10.7],"kmh_p50":[null,13.3,13.3,null,13.2,13.0,12.5,11.8,11.5,11.8,12.5,13.0,13.2,13.0,12.6,11.9,11.3,11.3,11.9,12.6,null,13.2,13.3,13.3],"kmh_p85":[null,15.7,15.7,null,15.6,15.4,14.7,13.9,13.5,13.9,14.7,15.3,15.5,15.4,14.8,14.0,13.3,13.3,14.0,14.8,null,15.6,15.7,15.7],"n":null}},{"type":"Feature","geometry":{"type":"LineString","coordinates":[[18.58656,53.01807],[18.5815,53.01586]]},"properties":{"id":"miasto-e-065","route":null,"mode":"bus","stop_from":"Przystanek V3","stop_to":"Przystanek W3","plan_kmh":null,"kmh_p15":[null,null,null,null,null,null,null,null,null,null,null,null,null,null,null,null,null,null,null,null,null,null,null,null],"kmh_p50":[null,null,null,null,null,null,null,null,null,null,null,null,null,null,null,null,null,null,null,null,null,null,null,null],"kmh_p85":[null,null,null,null,null,null,null,null,null,null,null,null,null,null,null,null,null,null,null,null,null,null,null,null],"n":null}},{"type":"Feature","geometry":{"type":"LineString","coordinates":[[18.5815,53.01586],[18.57826,53.01308]]},"properties":{"id":"miasto-e-066","route":null,"mode":"bus","stop_from":"Przystanek W3","stop_to":"Przystanek X3","plan_kmh":null,"kmh_p15":[null,null,null,null,null,null,null,null,null,null,null,null,null,null,null,null,null,null,null,null,null,null,null,null],"kmh_p50":[null,null,null,null,null,null,null,null,null,null,null,null,null,null,null,null,null,null,null,null,null,null,null,null],"kmh_p85":[null,null,null,null,null,null,null,null,null,null,null,null,null,null,null,null,null,null,null,null,null,null,null,null],"n":null}},{"type":"Feature","geometry":{"type":"LineString","coordinates":[[18.57714,53.01],[18.57826,53.00692]]},"properties":{"id":"miasto-e-067","route":null,"mode":"bus","stop_from":"Przystanek Y3","stop_to":"Przystanek Z3","plan_kmh":null,"kmh_p15":[null,null,null,null,null,null,null,null,null,null,null,null,null,null,null,null,null,null,null,null,null,null,null,null],"kmh_p50":[null,null,null,null,null,null,null,null,null,null,null,null,null,null,null,null,null,null,null,null,null,null,null,null],"kmh_p85":[null,null,null,null,null,null,null,null,null,null,null,null,null,null,null,null,null,null,null,null,null,null,null,null],"n":null}},{"type":"Feature","geometry":{"type":"LineString","coordinates":[[18.57826,53.00692],[18.5815,53.00414]]},"properties":{"id":"miasto-e-068","route":null,"mode":"bus","stop_from":"Przystanek Z3","stop_to":"Przystanek A4","plan_kmh":null,"kmh_p15":[null,null,null,null,null,null,null,null,null,null,null,null,null,null,null,null,null,null,null,null,null,null,null,null],"kmh_p50":[null,null,null,null,null,null,null,null,null,null,null,null,null,null,null,null,null,null,null,null,null,null,null,null],"kmh_p85":[null,null,null,null,null,null,null,null,null,null,null,null,null,null,null,null,null,null,null,null,null,null,null,null],"n":null}},{"type":"Feature","geometry":{"type":"LineString","coordinates":[[18.5815,53.00414],[18.58656,53.00193]]},"properties":{"id":"miasto-e-069","route":null,"mode":"bus","stop_from":"Przystanek A4","stop_to":"Przystanek B4","plan_kmh":null,"kmh_p15":[null,null,null,null,null,null,null,null,null,null,null,null,null,null,null,null,null,null,null,null,null,null,null,null],"kmh_p50":[null,null,null,null,null,null,null,null,null,null,null,null,null,null,null,null,null,null,null,null,null,null,null,null],"kmh_p85":[null,null,null,null,null,null,null,null,null,null,null,null,null,null,null,null,null,null,null,null,null,null,null,null],"n":null}},{"type":"Feature","geometry":{"type":"LineString","coordinates":[[18.58656,53.00193],[18.59294,53.00052]]},"properties":{"id":"miasto-e-070","route":null,"mode":"bus","stop_from":"Przystanek B4","stop_to":"Przystanek C4","plan_kmh":null,"kmh_p15":[null,null,null,null,null,null,null,null,null,null,null,null,null,null,null,null,null,null,null,null,null,null,null,null],"kmh_p50":[null,null,null,null,null,null,null,null,null,null,null,null,null,null,null,null,null,null,null,null,null,null,null,null],"kmh_p85":[null,null,null,null,null,null,null,null,null,null,null,null,null,null,null,null,null,null,null,null,null,null,null,null],"n":null}},{"type":"Feature","geometry":{"type":"LineString","coordinates":[[18.6,53.00003],[18.60706,53.00052]]},"properties":{"id":"miasto-e-071","route":null,"mode":"bus","stop_from":"Przystanek D4","stop_to":"Przystanek E4","plan_kmh":14.5,"kmh_p15":[null,null,null,null,10.9,10.7,10.3,9.7,9.4,9.7,10.3,10.7,10.8,10.7,10.3,9.8,9.3,9.3,9.8,10.3,10.7,10.9,null,11.0],"kmh_p50":[null,null,null,null,13.6,13.4,12.8,12.1,11.8,12.1,12.8,13.4,13.6,13.4,12.9,12.2,11.6,11.6,12.2,12.9,13.4,13.6,null,13.7],"kmh_p85":[null,null,null,null,16.1,15.8,15.2,14.3,13.9,14.3,15.2,15.8,16.0,15.8,15.3,14.4,13.7,13.7,14.4,15.3,15.8,16.1,null,16.2],"n":null}},{"type":"Feature","geometry":{"type":"LineString","coordinates":[[18.60706,53.00052],[18.61344,53.00193]]},"properties":{"id":"miasto-e-072","route":null,"mode":"bus","stop_from":"Przystanek E4","stop_to":"Przystanek F4","plan_kmh":null,"kmh_p15":[null,null,null,null,null,null,null,null,null,null,null,null,null,null,null,null,null,null,null,null,null,null,null,null],"kmh_p50":[null,null,null,null,null,null,null,null,null,null,null,null,null,null,null,null,null,null,null,null,null,null,null,null],"kmh_p85":[null,null,null,null,null,null,null,null,null,null,null,null,null,null,null,null,null,null,null,null,null,null,null,null],"n":null}},{"type":"Feature","geometry":{"type":"LineString","coordinates":[[18.61344,53.00193],[18.6185,53.00414]]},"properties":{"id":"miasto-e-073","route":null,"mode":"bus","stop_from":"Przystanek F4","stop_to":"Przystanek G4","plan_kmh":21.2,"kmh_p15":[null,null,null,16.0,15.9,15.6,15.0,14.2,13.8,14.2,15.0,15.6,15.8,15.7,null,14.2,null,13.5,14.2,15.1,15.7,15.9,null,16.0],"kmh_p50":[null,null,null,20.0,19.9,19.5,18.7,17.7,17.2,17.7,18.7,19.5,19.8,19.6,null,17.8,null,16.9,17.8,18.9,19.6,19.9,null,20.0],"kmh_p85":[null,null,null,23.6,23.5,23.1,22.1,20.9,20.3,20.9,22.1,23.0,23.3,23.1,null,21.0,null,20.0,21.0,22.3,23.1,23.5,null,23.6],"n":null}},{"type":"Feature","geometry":{"type":"LineString","coordinates":[[18.6185,53.00414],[18.62174,53.00692]]},"properties":{"id":"miasto-e-074","route":null,"mode":"bus","stop_from":"Przystanek G4","stop_to":"Przystanek H4","plan_kmh":15.4,"kmh_p15":[null,11.6,null,11.6,11.6,11.4,10.9,10.3,10.0,10.3,10.9,11.3,11.5,11.4,11.0,10.3,9.8,9.8,10.3,11.0,11.4,11.6,11.6,11.6],"kmh_p50":[null,14.5,null,14.5,14.5,14.2,13.6,12.9,12.5,12.9,13.6,14.2,14.4,14.2,13.7,12.9,12.3,12.3,12.9,13.7,14.2,14.5,14.5,14.5],"kmh_p85":[null,17.2,null,17.1,17.1,16.8,16.1,15.2,14.8,15.2,16.1,16.7,17.0,16.8,16.2,15.3,14.5,14.5,15.3,16.2,16.8,17.1,17.1,17.1],"n":null}},{"type":"Feature","geometry":{"type":"LineString","coordinates":[[18.64246,53.01],[18.64038,53.01572]]},"properties":{"id":"miasto-e-075","route":null,"mode":"bus","stop_from":"Przystanek J4","stop_to":"Przystanek K4","plan_kmh":null,"kmh_p15":[null,null,null,null,null,null,null,null,null,null,null,null,null,null,null,null,null,null,null,null,null,null,null,null],"kmh_p50":[null,null,null,null,null,null,null,null,null,null,null,null,null,null,null,null,null,null,null,null,null,null,null,null],"kmh_p85":[null,null,null,null,null,null,null,null,null,null,null,null,null,null,null,null,null,null,null,null,null,null,null,null],"n":null}},{"type":"Feature","geometry":{"type":"LineString","coordinates":[[18.64038,53.01572],[18.63435,53.02088]]},"properties":{"id":"miasto-e-076","route":null,"mode":"bus","stop_from":"Przystanek K4","stop_to":"Przystanek L4","plan_kmh":30.3,"kmh_p15":[null,null,null,null,22.8,22.4,21.4,20.3,19.7,20.3,21.4,22.3,22.6,22.4,21.6,20.4,19.4,19.4,20.4,21.6,22.4,22.8,22.9,null],"kmh_p50":[null,null,null,null,28.4,27.9,26.8,25.3,24.6,25.3,26.8,27.9,28.3,28.0,27.0,25.5,24.2,24.2,25.5,27.0,28.0,28.5,28.6,null],"kmh_p85":[null,null,null,null,33.6,33.0,31.6,29.9,29.0,29.9,31.6,32.9,33.4,33.0,31.9,30.0,28.6,28.6,30.0,31.9,33.1,33.6,33.7,null],"n":null}},{"type":"Feature","geometry":{"type":"LineString","coordinates":[[18.63435,53.02088],[18.62496,53.02498]]},"properties":{"id":"miasto-e-077","route":null,"mode":"bus","stop_from":"Przystanek L4","stop_to":"Przystanek M4","plan_kmh":null,"kmh_p15":[null,null,null,null,null,null,null,null,null,null,null,null,null,null,null,null,null,null,null,null,null,null,null,null],"kmh_p50":[null,null,null,null,null,null,null,null,null,null,null,null,null,null,null,null,null,null,null,null,null,null,null,null],"kmh_p85":[null,null,null,null,null,null,null,null,null,null,null,null,null,null,null,null,null,null,null,null,null,null,null,null],"n":null}},{"type":"Feature","geometry":{"type":"LineString","coordinates":[[18.62496,53.02498],[18.61312,53.02761]]},"properties":{"id":"miasto-e-078","route":null,"mode":"bus","stop_from":"Przystanek M4","stop_to":"Przystanek N4","plan_kmh":null,"kmh_p15":[null,null,null,null,null,null,null,null,null,null,null,null,null,null,null,null,null,null,null,null,null,null,null,null],"kmh_p50":[null,null,null,null,null,null,null,null,null,null,null,null,null,null,null,null,null,null,null,null,null,null,null,null],"kmh_p85":[null,null,null,null,null,null,null,null,null,null,null,null,null,null,null,null,null,null,null,null,null,null,null,null],"n":null}},{"type":"Feature","geometry":{"type":"LineString","coordinates":[[18.61312,53.02761],[18.6,53.02852]]},"properties":{"id":"miasto-e-079","route":null,"mode":"bus","stop_from":"Przystanek N4","stop_to":"Przystanek O4","plan_kmh":null,"kmh_p15":[null,null,null,null,null,null,null,null,null,null,null,null,null,null,null,null,null,null,null,null,null,null,null,null],"kmh_p50":[null,null,null,null,null,null,null,null,null,null,null,null,null,null,null,null,null,null,null,null,null,null,null,null],"kmh_p85":[null,null,null,null,null,null,null,null,null,null,null,null,null,null,null,null,null,null,null,null,null,null,null,null],"n":null}},{"type":"Feature","geometry":{"type":"LineString","coordinates":[[18.6,53.02852],[18.58688,53.02761]]},"properties":{"id":"miasto-e-080","route":null,"mode":"bus","stop_from":"Przystanek O4","stop_to":"Przystanek P4","plan_kmh":null,"kmh_p15":[null,null,null,null,null,null,null,null,null,null,null,null,null,null,null,null,null,null,null,null,null,null,null,null],"kmh_p50":[null,null,null,null,null,null,null,null,null,null,null,null,null,null,null,null,null,null,null,null,null,null,null,null],"kmh_p85":[null,null,null,null,null,null,null,null,null,null,null,null,null,null,null,null,null,null,null,null,null,null,null,null],"n":null}},{"type":"Feature","geometry":{"type":"LineString","coordinates":[[18.58688,53.02761],[18.57504,53.02498]]},"properties":{"id":"miasto-e-081","route":null,"mode":"bus","stop_from":"Przystanek P4","stop_to":"Przystanek Q4","plan_kmh":null,"kmh_p15":[null,null,null,null,null,null,null,null,null,null,null,null,null,null,null,null,null,null,null,null,null,null,null,null],"kmh_p50":[null,null,null,null,null,null,null,null,null,null,null,null,null,null,null,null,null,null,null,null,null,null,null,null],"kmh_p85":[null,null,null,null,null,null,null,null,null,null,null,null,null,null,null,null,null,null,null,null,null,null,null,null],"n":null}},{"type":"Feature","geometry":{"type":"LineString","coordinates":[[18.57504,53.02498],[18.56565,53.02088]]},"properties":{"id":"miasto-e-082","route":null,"mode":"bus","stop_from":"Przystanek Q4","stop_to":"Przystanek R4","plan_kmh":null,"kmh_p15":[null,null,null,null,null,null,null,null,null,null,null,null,null,null,null,null,null,null,null,null,null,null,null,null],"kmh_p50":[null,null,null,null,null,null,null,null,null,null,null,null,null,null,null,null,null,null,null,null,null,null,null,null],"kmh_p85":[null,null,null,null,null,null,null,null,null,null,null,null,null,null,null,null,null,null,null,null,null,null,null,null],"n":null}},{"type":"Feature","geometry":{"type":"LineString","coordinates":[[18.56565,53.02088],[18.55962,53.01572]]},"properties":{"id":"miasto-e-083","route":null,"mode":"bus","stop_from":"Przystanek R4","stop_to":"Przystanek S4","plan_kmh":null,"kmh_p15":[null,null,null,null,null,null,null,null,null,null,null,null,null,null,null,null,null,null,null,null,null,null,null,null],"kmh_p50":[null,null,null,null,null,null,null,null,null,null,null,null,null,null,null,null,null,null,null,null,null,null,null,null],"kmh_p85":[null,null,null,null,null,null,null,null,null,null,null,null,null,null,null,null,null,null,null,null,null,null,null,null],"n":null}},{"type":"Feature","geometry":{"type":"LineString","coordinates":[[18.55962,53.01572],[18.55754,53.01]]},"properties":{"id":"miasto-e-084","route":null,"mode":"bus","stop_from":"Przystanek S4","stop_to":"Przystanek T4","plan_kmh":29.7,"kmh_p15":[null,22.4,null,null,22.3,21.9,21.0,19.8,19.2,19.8,21.0,21.8,22.1,21.9,21.1,19.9,18.9,18.9,19.9,21.1,21.9,22.3,22.4,22.4],"kmh_p50":[null,28.0,null,null,27.8,27.3,26.2,24.8,24.1,24.8,26.2,27.3,27.7,27.4,26.4,24.9,23.7,23.7,24.9,26.4,27.4,27.8,27.9,28.0],"kmh_p85":[null,33.0,null,null,32.8,32.3,30.9,29.2,28.4,29.2,30.9,32.2,32.6,32.3,31.1,29.4,27.9,27.9,29.4,31.2,32.3,32.8,33.0,33.0],"n":null}},{"type":"Feature","geometry":{"type":"LineString","coordinates":[[18.55754,53.01],[18.55962,53.00428]]},"properties":{"id":"miasto-e-085","route":null,"mode":"bus","stop_from":"Przystanek T4","stop_to":"Przystanek U4","plan_kmh":null,"kmh_p15":[null,null,null,null,null,null,null,null,null,null,null,null,null,null,null,null,null,null,null,null,null,null,null,null],"kmh_p50":[null,null,null,null,null,null,null,null,null,null,null,null,null,null,null,null,null,null,null,null,null,null,null,null],"kmh_p85":[null,null,null,null,null,null,null,null,null,null,null,null,null,null,null,null,null,null,null,null,null,null,null,null],"n":null}},{"type":"Feature","geometry":{"type":"LineString","coordinates":[[18.55962,53.00428],[18.56565,52.99912]]},"properties":{"id":"miasto-e-086","route":null,"mode":"bus","stop_from":"Przystanek U4","stop_to":"Przystanek V4","plan_kmh":null,"kmh_p15":[null,null,null,null,null,null,null,null,null,null,null,null,null,null,null,null,null,null,null,null,null,null,null,null],"kmh_p50":[null,null,null,null,null,null,null,null,null,null,null,null,null,null,null,null,null,null,null,null,null,null,null,null],"kmh_p85":[null,null,null,null,null,null,null,null,null,null,null,null,null,null,null,null,null,null,null,null,null,null,null,null],"n":null}},{"type":"Feature","geometry":{"type":"LineString","coordinates":[[18.56565,52.99912],[18.57504,52.99502]]},"properties":{"id":"miasto-e-087","route":null,"mode":"bus","stop_from":"Przystanek V4","stop_to":"Przystanek W4","plan_kmh":null,"kmh_p15":[null,null,null,null,null,null,null,null,null,null,null,null,null,null,null,null,null,null,null,null,null,null,null,null],"kmh_p50":[null,null,null,null,null,null,null,null,null,null,null,null,null,null,null,null,null,null,null,null,null,null,null,null],"kmh_p85":[null,null,null,null,null,null,null,null,null,null,null,null,null,null,null,null,null,null,null,null,null,null,null,null],"n":null}},{"type":"Feature","geometry":{"type":"LineString","coordinates":[[18.57504,52.99502],[18.58688,52.99239]]},"properties":{"id":"miasto-e-088","route":null,"mode":"bus","stop_from":"Przystanek W4","stop_to":"Przystanek X4","plan_kmh":null,"kmh_p15":[null,null,null,null,null,null,null,null,null,null,null,null,null,null,null,null,null,null,null,null,null,null,null,null],"kmh_p50":[null,null,null,null,null,null,null,null,null,null,null,null,null,null,null,null,null,null,null,null,null,null,null,null],"kmh_p85":[null,null,null,null,null,null,null,null,null,null,null,null,null,null,null,null,null,null,null,null,null,null,null,null],"n":null}},{"type":"Feature","geometry":{"type":"LineString","coordinates":[[18.58688,52.99239],[18.6,52.99148]]},"properties":{"id":"miasto-e-089","route":null,"mode":"bus","stop_from":"Przystanek X4","stop_to":"Przystanek Y4","plan_kmh":null,"kmh_p15":[null,null,null,null,null,null,null,null,null,null,null,null,null,null,null,null,null,null,null,null,null,null,null,null],"kmh_p50":[null,null,null,null,null,null,null,null,null,null,null,null,null,null,null,null,null,null,null,null,null,null,null,null],"kmh_p85":[null,null,null,null,null,null,null,null,null,null,null,null,null,null,null,null,null,null,null,null,null,null,null,null],"n":null}},{"type":"Feature","geometry":{"type":"LineString","coordinates":[[18.6,52.99148],[18.61312,52.99239]]},"properties":{"id":"miasto-e-090","route":null,"mode":"bus","stop_from":"Przystanek Y4","stop_to":"Przystanek Z4","plan_kmh":null,"kmh_p15":[null,null,null,null,null,null,null,null,null,null,null,null,null,null,null,null,null,null,null,null,null,null,null,null],"kmh_p50":[null,null,null,null,null,null,null,null,null,null,null,null,null,null,null,null,null,null,null,null,null,null,null,null],"kmh_p85":[null,null,null,null,null,null,null,null,null,null,null,null,null,null,null,null,null,null,null,null,null,null,null,null],"n":null}},{"type":"Feature","geometry":{"type":"LineString","coordinates":[[18.61312,52.99239],[18.62496,52.99502]]},"properties":{"id":"miasto-e-091","route":null,"mode":"bus","stop_from":"Przystanek Z4","stop_to":"Przystanek A5","plan_kmh":22.5,"kmh_p15":[null,null,null,null,17.0,16.7,16.0,15.1,14.7,15.1,16.0,16.6,16.9,16.7,16.1,15.2,14.4,14.4,15.2,16.1,16.7,17.0,null,null],"kmh_p50":[null,null,null,null,21.2,20.8,20.0,18.9,18.3,18.9,20.0,20.8,21.1,20.9,20.1,19.0,18.0,18.0,19.0,20.1,20.9,21.2,null,null],"kmh_p85":[null,null,null,null,25.0,24.6,23.6,22.3,21.6,22.3,23.6,24.5,24.9,24.6,23.7,22.4,21.3,21.3,22.4,23.7,24.6,25.0,null,null],"n":null}},{"type":"Feature","geometry":{"type":"LineString","coordinates":[[18.62496,52.99502],[18.63435,52.99912]]},"properties":{"id":"miasto-e-092","route":null,"mode":"bus","stop_from":"Przystanek A5","stop_to":"Przystanek B5","plan_kmh":null,"kmh_p15":[null,null,null,null,null,null,null,null,null,null,null,null,null,null,null,null,null,null,null,null,null,null,null,null],"kmh_p50":[null,null,null,null,null,null,null,null,null,null,null,null,null,null,null,null,null,null,null,null,null,null,null,null],"kmh_p85":[null,null,null,null,null,null,null,null,null,null,null,null,null,null,null,null,null,null,null,null,null,null,null,null],"n":null}},{"type":"Feature","geometry":{"type":"LineString","coordinates":[[18.63435,52.99912],[18.64038,53.00428]]},"properties":{"id":"miasto-e-093","route":null,"mode":"bus","stop_from":"Przystanek B5","stop_to":"Przystanek C5","plan_kmh":null,"kmh_p15":[null,null,null,null,null,null,null,null,null,null,null,null,null,null,null,null,null,null,null,null,null,null,null,null],"kmh_p50":[null,null,null,null,null,null,null,null,null,null,null,null,null,null,null,null,null,null,null,null,null,null,null,null],"kmh_p85":[null,null,null,null,null,null,null,null,null,null,null,null,null,null,null,null,null,null,null,null,null,null,null,null],"n":null}},{"type":"Feature","geometry":{"type":"LineString","coordinates":[[18.64038,53.00428],[18.64246,53.01]]},"properties":{"id":"miasto-e-094","route":null,"mode":"bus","stop_from":"Przystanek C5","stop_to":"Przystanek D5","plan_kmh":null,"kmh_p15":[null,null,null,null,null,null,null,null,null,null,null,null,null,null,null,null,null,null,null,null,null,null,null,null],"kmh_p50":[null,null,null,null,null,null,null,null,null,null,null,null,null,null,null,null,null,null,null,null,null,null,null,null],"kmh_p85":[null,null,null,null,null,null,null,null,null,null,null,null,null,null,null,null,null,null,null,null,null,null,null,null],"n":null}}]}