{"type":"FeatureCollection","features":[{"type":"Feature","geometry":{"type":"LineString","coordinates":[[22.0,50.041],[22.00972,50.04031]]},"properties":{"id":"rzeszow-001","route":"11","mode":"tram","stop_from":"Przystanek A","stop_to":"Przystanek B","plan_kmh":8.4,"kmh_p15":[null,null,null,null,6.3,6.2,6.0,5.6,5.5,5.6,6.0,6.2,6.3,6.2,6.0,5.7,5.4,5.4,5.7,6.0,6.2,6.3,6.4,null],"kmh_p50":[null,null,null,null,7.9,7.8,7.4,7.0,6.8,7.0,7.4,7.8,7.9,7.8,7.5,7.1,6.7,6.7,7.1,7.5,7.8,7.9,7.9,null],"kmh_p85":[null,null,null,null,9.3,9.2,8.8,8.3,8.1,8.3,8.8,9.2,9.3,9.2,8.8,8.3,7.9,7.9,8.3,8.8,9.2,9.3,9.4,null],"n":null}},{"type":"Feature","geometry":{"type":"LineString","coordinates":[[22.00972,50.04031],[22.01935,50.03936]]},"properties":{"id":"rzeszow-002","route":"11","mode":"tram","stop_from":"Przystanek B","stop_to":"Przystanek C","plan_kmh":15.2,"kmh_p15":[null,null,null,null,11.4,11.2,10.7,10.1,9.8,10.1,10.7,11.2,11.3,11.2,10.8,10.2,9.7,9.7,10.2,10.8,11.2,11.4,11.4,11.4],"kmh_p50":[null,null,null,null,14.2,14.0,13.4,12.7,12.3,12.7,13.4,14.0,14.2,14.0,13.5,12.7,12.1,12.1,12.7,13.5,14.0,14.2,14.3,14.3],"kmh_p85":[null,null,null,null,16.8,16.5,15.8,15.0,14.5,15.0,15.8,16.5,16.7,16.5,15.9,15.0,14.3,14.3,15.0,15.9,16.5,16.8,16.9,16.9],"n":null}},{"type":"Feature","geometry":{"type":"LineString","coordinates":[[22.01935,50.03936],[22.02936,50.03964]]},"properties":{"id":"rzeszow-003","route":"11","mode":"tram","stop_from":"Przystanek C","stop_to":"Przystanek D","plan_kmh":21.3,"kmh_p15":[null,null,null,null,16.0,15.7,15.1,14.2,13.8,14.2,15.0,15.7,15.9,15.7,15.2,14.3,13.6,13.6,14.3,15.2,15.7,16.0,null,16.1],"kmh_p50":[null,null,null,null,20.0,19.6,18.8,17.8,17.3,17.8,18.8,19.6,19.9,19.6,18.9,17.9,17.0,17.0,17.9,18.9,19.7,20.0,null,20.1],"kmh_p85":[null,null,null,null,23.6,23.1,22.2,21.0,20.4,21.0,22.2,23.1,23.4,23.2,22.3,21.1,20.1,20.1,21.1,22.4,23.2,23.6,null,23.7],"n":null}},{"type":"Feature","geometry":{"type":"LineString","coordinates":[[22.02936,50.03964],[22.03917,50.03932]]},"properties":{"id":"rzeszow-004","route":"11","mode":"tram","stop_from":"Przystanek D","stop_to":"Przystanek E","plan_kmh":null,"kmh_p15":[null,null,null,null,null,null,null,null,null,null,null,null,null,null,null,null,null,null,null,null,null,null,null,null],"kmh_p50":[null,null,null,null,null,null,null,null,null,null,null,null,null,null,null,null,null,null,null,null,null,null,null,null],"kmh_p85":[null,null,null,null,null,null,null,null,null,null,null,null,null,null,null,null,null,null,null,null,null,null,null,null],"n":null}},{"type":"Feature","geometry":{"type":"LineString","coordinates":[[22.03917,50.03932],[22.04834,50.0368]]},"properties":{"id":"rzeszow-005","route":"11","mode":"tram","stop_from":"Przystanek E","stop_to":"Przystanek F","plan_kmh":25.2,"kmh_p15":[null,null,null,null,19.0,18.7,17.9,16.9,16.4,16.9,17.9,18.6,18.9,null,18.0,17.0,16.2,16.2,17.0,18.0,18.7,19.0,19.1,null],"kmh_p50":[null,null,null,null,23.7,23.3,22.4,21.1,20.5,21.1,22.4,23.3,23.6,null,22.5,21.2,20.2,20.2,21.2,22.5,23.4,23.7,23.8,null],"kmh_p85":[null,null,null,null,28.0,27.5,26.4,24.9,24.2,24.9,26.4,27.5,27.8,null,26.6,25.1,23.8,23.8,25.1,26.6,27.6,28.0,28.1,null],"n":null}},{"type":"Feature","geometry":{"type":"LineString","coordinates":[[22.04834,50.0368],[22.05829,50.03671]]},"properties":{"id":"rzeszow-006","route":"11","mode":"tram","stop_from":"Przystanek F","stop_to":"Przystanek G","plan_kmh":31.8,"kmh_p15":[null,null,null,24.0,23.9,23.5,22.5,21.3,20.7,21.3,22.5,23.4,23.7,23.5,22.7,21.4,20.3,20.3,21.4,22.7,23.5,23.9,24.0,24.0],"kmh_p50":[null,null,null,30.0,29.8,29.3,28.1,26.6,25.8,26.6,28.1,29.3,29.7,29.4,28.3,26.7,25.4,25.4,26.7,28.3,29.4,29.9,30.0,30.0],"kmh_p85":[null,null,null,35.4,35.2,34.6,33.2,31.4,30.5,31.4,33.2,34.6,35.0,34.7,33.4,31.5,30.0,30.0,31.5,33.4,34.7,35.2,35.4,35.4],"n":null}},{"type":"Feature","geometry":{"type":"LineString","coordinates":[[22.05829,50.03671],[22.06761,50.03496]]},"properties":{"id":"rzeszow-007","route":"11","mode":"tram","stop_from":"Przystanek G","stop_to":"Przystanek H","plan_kmh":30.1,"kmh_p15":[22.7,null,null,null,22.6,22.2,21.3,20.1,19.5,20.1,21.3,22.2,22.5,22.2,21.4,20.2,19.2,19.2,20.2,21.4,22.3,22.6,null,22.7],"kmh_p50":[28.4,null,null,null,28.2,27.8,26.6,25.2,24.4,25.2,26.6,27.7,28.1,27.8,26.8,25.3,24.0,24.0,25.3,26.8,27.8,28.3,null,28.4],"kmh_p85":[33.5,null,null,null,33.3,32.7,31.4,29.7,28.8,29.7,31.4,32.7,33.1,32.8,31.6,29.8,28.4,28.4,29.8,31.6,32.8,33.3,null,33.5],"n":null}},{"type":"Feature","geometry":{"type":"LineString","coordinates":[[22.06761,50.03496],[22.07826,50.03722]]},"properties":{"id":"rzeszow-008","route":"11","mode":"tram","stop_from":"Przystanek H","stop_to":"Przystanek I","plan_kmh":38.5,"kmh_p15":[null,null,null,29.1,28.9,28.4,27.3,25.8,25.0,25.8,27.3,28.4,28.8,28.5,27.5,25.9,24.6,24.6,25.9,27.5,28.5,28.9,29.1,null],"kmh_p50":[null,null,null,36.3,36.2,35.5,34.1,32.2,31.3,32.2,34.1,35.5,36.0,35.6,34.3,32.4,30.8,30.8,32.4,34.3,35.6,36.2,36.3,null],"kmh_p85":[null,null,null,42.9,42.7,41.9,40.2,38.0,36.9,38.0,40.2,41.9,42.4,42.0,40.5,38.2,36.3,36.3,38.2,40.5,42.0,42.7,42.9,null],"n":null}},{"type":"Feature","geometry":{"type":"LineString","coordinates":[[22.0,50.041],[22.0062,50.04387]]},"properties":{"id":"rzeszow-009","route":null,"mode":"bus","stop_from":"Przystanek J","stop_to":"Przystanek K","plan_kmh":14.1,"kmh_p15":[null,null,null,null,10.6,10.4,10.0,9.5,9.2,9.5,10.0,10.4,10.6,10.4,10.1,9.5,9.0,9.0,9.5,10.1,10.5,10.6,10.7,10.7],"kmh_p50":[null,null,null,null,13.3,13.0,12.5,11.8,11.5,11.8,12.5,13.0,13.2,13.1,12.6,11.9,11.3,11.3,11.9,12.6,13.1,13.3,13.3,13.3],"kmh_p85":[null,null,null,null,15.7,15.4,14.8,13.9,13.5,13.9,14.8,15.4,15.6,15.4,14.9,14.0,13.3,13.3,14.0,14.9,15.4,15.7,15.7,15.7],"n":null}},{"type":"Feature","geometry":{"type":"LineString","coordinates":[[22.0062,50.04387],[22.01269,50.0466]]},"properties":{"id":"rzeszow-010","route":null,"mode":"bus","stop_from":"Przystanek K","stop_to":"Przystanek L","plan_kmh":18.1,"kmh_p15":[null,null,null,null,13.7,13.4,12.9,12.2,11.8,12.2,12.9,13.4,13.6,13.5,13.0,12.2,11.6,11.6,12.2,13.0,13.5,13.7,null,null],"kmh_p50":[null,null,null,null,17.1,16.8,16.1,15.2,14.8,15.2,16.1,16.8,17.0,16.8,16.2,15.3,14.5,14.5,15.3,16.2,16.8,17.1,null,null],"kmh_p85":[null,null,null,null,20.2,19.8,19.0,18.0,17.4,18.0,19.0,19.8,20.1,19.8,19.1,18.0,17.2,17.2,18.1,19.1,19.9,20.2,null,null],"n":null}},{"type":"Feature","geometry":{"type":"LineString","coordinates":[[22.01269,50.0466],[22.01929,50.04927]]},"properties":{"id":"rzeszow-011","route":null,"mode":"bus","stop_from":"Przystanek L","stop_to":"Przystanek M","plan_kmh":12.5,"kmh_p15":[null,9.4,null,null,9.4,9.2,8.8,8.3,8.1,8.3,8.8,9.2,9.3,9.2,8.9,8.4,8.0,8.0,8.4,8.9,9.2,9.4,9.4,9.4],"kmh_p50":[null,11.8,null,null,11.7,11.5,11.0,10.4,10.1,10.4,11.0,11.5,11.6,11.5,11.1,10.5,10.0,10.0,10.5,11.1,11.5,11.7,11.7,11.8],"kmh_p85":[null,13.9,null,null,13.8,13.6,13.0,12.3,11.9,12.3,13.0,13.5,13.7,13.6,13.1,12.3,11.7,11.7,12.3,13.1,13.6,13.8,13.9,13.9],"n":null}},{"type":"Feature","geometry":{"type":"LineString","coordinates":[[22.01929,50.04927],[22.02701,50.05134]]},"properties":{"id":"rzeszow-012","route":null,"mode":"bus","stop_from":"Przystanek M","stop_to":"Przystanek N","plan_kmh":17.9,"kmh_p15":[null,null,13.5,null,13.4,13.2,12.6,11.9,11.6,11.9,12.6,13.2,13.3,13.2,12.7,12.0,null,null,12.0,12.7,13.2,13.4,13.5,null],"kmh_p50":[null,null,16.9,null,16.8,16.5,15.8,14.9,14.5,14.9,15.8,16.5,16.7,16.5,15.9,15.0,null,null,15.0,15.9,16.5,16.8,16.9,null],"kmh_p85":[null,null,19.9,null,19.8,19.4,18.7,17.6,17.1,17.6,18.7,19.4,19.7,19.5,18.8,17.7,null,null,17.7,18.8,19.5,19.8,19.9,null],"n":null}},{"type":"Feature","geometry":{"type":"LineString","coordinates":[[22.02701,50.05134],[22.03108,50.05531]]},"properties":{"id":"rzeszow-013","route":null,"mode":"bus","stop_from":"Przystanek N","stop_to":"Przystanek O","plan_kmh":23.9,"kmh_p15":[null,null,null,null,17.9,17.6,16.9,16.0,15.5,16.0,16.9,17.6,17.8,17.7,17.0,16.1,15.3,15.3,16.1,null,17.7,17.9,18.0,null],"kmh_p50":[null,null,null,null,22.4,22.0,21.1,20.0,19.4,20.0,21.1,22.0,22.3,22.1,21.3,20.1,19.1,19.1,20.1,null,22.1,22.4,22.5,null],"kmh_p85":[null,null,null,null,26.5,26.0,24.9,23.6,22.9,23.6,24.9,26.0,26.3,26.0,25.1,23.7,22.5,22.5,23.7,null,26.1,26.5,26.6,null],"n":null}},{"type":"Feature","geometry":{"type":"LineString","coordinates":[[22.03108,50.05531],[22.03825,50.05771]]},"properties":{"id":"rzeszow-014","route":null,"mode":"bus","stop_from":"Przystanek O","stop_to":"Przystanek P","plan_kmh":26.2,"kmh_p15":[19.8,null,null,null,19.6,19.3,18.5,17.5,17.0,17.5,18.5,19.3,19.5,19.3,18.6,17.6,16.7,16.7,17.6,18.6,19.3,19.6,19.7,19.8],"kmh_p50":[24.7,null,null,null,24.6,24.1,23.1,21.9,21.2,21.9,23.1,24.1,24.4,24.2,23.3,22.0,20.9,20.9,22.0,23.3,24.2,24.6,24.7,24.7],"kmh_p85":[29.1,null,null,null,29.0,28.5,27.3,25.8,25.1,25.8,27.3,28.4,28.8,28.5,27.5,25.9,24.7,24.7,25.9,27.5,28.5,29.0,29.1,29.1],"n":null}},{"type":"Feature","geometry":{"type":"LineString","coordinates":[[22.03825,50.05771],[22.04504,50.06029]]},"properties":{"id":"rzeszow-015","route":null,"mode":"bus","stop_from":"Przystanek P","stop_to":"Przystanek Q","plan_kmh":25.9,"kmh_p15":[19.5,null,null,null,19.4,19.0,18.3,17.3,16.8,17.3,18.3,19.0,19.3,19.1,18.4,17.3,16.5,16.5,17.3,18.4,19.1,19.4,19.5,null],"kmh_p50":[24.4,null,null,null,24.2,23.8,22.8,21.6,21.0,21.6,22.8,23.8,24.1,23.8,23.0,21.7,20.6,20.6,21.7,23.0,23.9,24.2,24.3,null],"kmh_p85":[28.8,null,null,null,28.6,28.1,26.9,25.5,24.7,25.5,26.9,28.1,28.4,28.1,27.1,25.6,24.3,24.3,25.6,27.1,28.2,28.6,28.7,null],"n":null}},{"type":"Feature","geometry":{"type":"LineString","coordinates":[[22.04504,50.06029],[22.05341,50.06202]]},"properties":{"id":"rzeszow-016","route":null,"mode":"bus","stop_from":"Przystanek Q","stop_to":"Przystanek R","plan_kmh":28.7,"kmh_p15":[null,null,null,null,21.6,21.2,20.3,19.2,18.7,19.2,20.3,21.2,21.5,21.2,20.5,19.3,18.4,18.4,19.3,20.5,21.2,21.6,21.7,null],"kmh_p50":[null,null,null,null,27.0,26.5,25.4,24.0,23.3,24.0,25.4,26.5,26.8,26.5,25.6,24.1,23.0,23.0,24.1,25.6,26.6,27.0,27.1,null],"kmh_p85":[null,null,null,null,31.8,31.3,30.0,28.3,27.5,28.3,30.0,31.2,31.6,31.3,30.2,28.5,27.1,27.1,28.5,30.2,31.3,31.8,32.0,null],"n":null}},{"type":"Feature","geometry":{"type":"LineString","coordinates":[[22.05341,50.06202],[22.05632,50.06658]]},"properties":{"id":"rzeszow-017","route":null,"mode":"bus","stop_from":"Przystanek R","stop_to":"Przystanek S","plan_kmh":null,"kmh_p15":[null,null,null,null,null,null,null,null,null,null,null,null,null,null,null,null,null,null,null,null,null,null,null,null],"kmh_p50":[null,null,null,null,null,null,null,null,null,null,null,null,null,null,null,null,null,null,null,null,null,null,null,null],"kmh_p85":[null,null,null,null,null,null,null,null,null,null,null,null,null,null,null,null,null,null,null,null,null,null,null,null],"n":null}},{"type":"Feature","geometry":{"type":"LineString","coordinates":[[22.0,50.041],[21.99986,50.04623]]},"properties":{"id":"rzeszow-018","route":null,"mode":"tram","stop_from":"Przystanek T","stop_to":"Przystanek U","plan_kmh":8.0,"kmh_p15":[null,null,null,null,6.0,5.9,5.6,5.3,5.2,5.3,5.6,5.8,5.9,5.9,5.7,5.3,5.1,5.1,5.3,5.7,5.9,6.0,null,6.0],"kmh_p50":[null,null,null,null,7.4,7.3,7.0,6.6,6.4,6.6,7.0,7.3,7.4,7.3,7.1,6.7,6.3,6.3,6.7,7.1,7.3,7.4,null,7.5],"kmh_p85":[null,null,null,null,8.8,8.6,8.3,7.8,7.6,7.8,8.3,8.6,8.7,8.6,8.3,7.9,7.5,7.5,7.9,8.3,8.7,8.8,null,8.8],"n":null}},{"type":"Feature","geometry":{"type":"LineString","coordinates":[[21.99986,50.04623],[21.99971,50.05146]]},"properties":{"id":"rzeszow-019","route":null,"mode":"tram","stop_from":"Przystanek U","stop_to":"Przystanek V","plan_kmh":21.2,"kmh_p15":[null,16.0,null,null,15.9,15.6,15.0,14.1,13.7,14.1,15.0,15.6,15.8,15.6,15.1,14.2,13.5,13.5,14.2,15.1,15.6,15.9,null,null],"kmh_p50":[null,20.0,null,null,19.9,19.5,18.7,17.7,17.2,17.7,18.7,19.5,19.7,19.5,18.8,17.8,16.9,16.9,17.8,18.8,19.6,19.9,null,null],"kmh_p85":[null,23.6,null,null,23.4,23.0,22.1,20.9,20.3,20.9,22.1,23.0,23.3,23.1,22.2,21.0,19.9,19.9,21.0,22.2,23.1,23.4,null,null],"n":null}},{"type":"Feature","geometry":{"type":"LineString","coordinates":[[21.99971,50.05146],[21.99834,50.05668]]},"properties":{"id":"rzeszow-020","route":null,"mode":"tram","stop_from":"Przystanek V","stop_to":"Przystanek W","plan_kmh":14.7,"kmh_p15":[11.2,null,11.1,null,11.1,10.9,10.4,9.9,9.6,9.9,10.4,10.9,11.0,10.9,10.5,9.9,9.4,9.4,9.9,10.5,10.9,11.1,11.1,11.1],"kmh_p50":[13.9,null,13.9,null,13.9,13.6,13.1,12.3,12.0,12.3,13.1,13.6,13.8,13.6,13.2,12.4,11.8,11.8,12.4,13.2,13.6,13.9,13.9,13.9],"kmh_p85":[16.4,null,16.4,null,16.4,16.1,15.4,14.6,14.1,14.6,15.4,16.1,16.3,16.1,15.5,14.6,13.9,13.9,14.6,15.5,16.1,16.4,16.4,16.4],"n":null}},{"type":"Feature","geometry":{"type":"LineString","coordinates":[[21.99834,50.05668],[21.99717,50.06189]]},"properties":{"id":"rzeszow-021","route":null,"mode":"tram","stop_from":"Przystanek W","stop_to":"Przystanek X","plan_kmh":25.5,"kmh_p15":[null,null,null,null,19.1,18.8,18.0,17.0,16.6,17.0,18.0,18.8,19.0,18.8,18.2,17.1,16.3,16.3,17.1,18.2,18.9,19.1,19.2,19.3],"kmh_p50":[null,null,null,null,23.9,23.5,22.6,21.3,20.7,21.3,22.5,23.5,23.8,23.5,22.7,21.4,20.4,20.4,21.4,22.7,23.6,23.9,24.0,24.1],"kmh_p85":[null,null,null,null,28.2,27.7,26.6,25.1,24.4,25.1,26.6,27.7,28.1,27.8,26.8,25.3,24.0,24.0,25.3,26.8,27.8,28.2,28.4,28.4],"n":null}},{"type":"Feature","geometry":{"type":"LineString","coordinates":[[21.99717,50.06189],[21.99971,50.06716]]},"properties":{"id":"rzeszow-022","route":null,"mode":"tram","stop_from":"Przystanek X","stop_to":"Przystanek Y","plan_kmh":24.7,"kmh_p15":[18.6,null,null,null,18.5,18.2,17.5,16.5,null,16.5,17.4,18.2,18.4,18.2,17.6,16.6,15.8,15.8,16.6,17.6,18.2,18.5,18.6,null],"kmh_p50":[23.3,null,null,null,23.1,22.7,21.8,20.6,null,20.6,21.8,22.7,23.0,22.8,22.0,20.7,19.7,19.7,20.7,22.0,22.8,23.1,23.3,null],"kmh_p85":[27.5,null,null,null,27.3,26.8,25.7,24.3,null,24.3,25.7,26.8,27.2,26.9,25.9,24.4,23.3,23.3,24.4,25.9,26.9,27.3,27.4,null],"n":null}},{"type":"Feature","geometry":{"type":"LineString","coordinates":[[21.99971,50.06716],[21.996,50.07234]]},"properties":{"id":"rzeszow-023","route":null,"mode":"tram","stop_from":"Przystanek Y","stop_to":"Przystanek Z","plan_kmh":35.2,"kmh_p15":[26.5,null,26.5,null,26.4,25.9,24.9,23.5,22.8,23.5,24.9,25.9,null,26.0,25.0,23.6,22.5,22.5,23.6,25.0,26.0,26.4,26.5,null],"kmh_p50":[33.2,null,33.2,null,33.0,32.4,31.1,29.4,28.5,29.4,31.1,32.4,null,32.5,31.3,29.5,28.1,28.1,29.5,31.3,32.5,33.0,33.1,null],"kmh_p85":[39.1,null,39.1,null,38.9,38.2,36.7,34.7,33.7,34.7,36.7,38.2,null,38.3,36.9,34.8,33.1,33.1,34.8,36.9,38.3,38.9,39.1,null],"n":null}},{"type":"Feature","geometry":{"type":"LineString","coordinates":[[21.996,50.07234],[21.99685,50.0776]]},"properties":{"id":"rzeszow-024","route":null,"mode":"tram","stop_from":"Przystanek Z","stop_to":"Przystanek A2","plan_kmh":31.6,"kmh_p15":[null,null,null,null,23.7,23.3,22.3,21.1,20.5,21.1,22.3,23.3,null,23.3,22.5,21.2,20.2,20.2,21.2,22.5,23.3,23.7,23.8,23.8],"kmh_p50":[null,null,null,null,29.6,29.1,27.9,26.4,25.6,26.4,27.9,29.1,null,29.1,28.1,26.5,25.2,25.2,26.5,28.1,29.2,29.6,29.8,29.8],"kmh_p85":[null,null,null,null,35.0,34.3,32.9,31.1,30.2,31.1,32.9,34.3,null,34.4,33.2,31.3,29.8,29.8,31.3,33.2,34.4,35.0,35.1,35.1],"n":null}},{"type":"Feature","geometry":{"type":"LineString","coordinates":[[22.0,50.041],[21.99407,50.04465]]},"properties":{"id":"rzeszow-025","route":null,"mode":"bus","stop_from":"Przystanek B2","stop_to":"Przystanek C2","plan_kmh":10.8,"kmh_p15":[null,null,null,null,8.2,8.0,7.7,7.3,7.1,7.3,7.7,8.0,8.1,8.1,7.8,7.3,7.0,7.0,7.3,7.8,8.1,8.2,null,null],"kmh_p50":[null,null,null,null,10.2,10.1,9.6,9.1,8.9,9.1,9.6,10.0,10.2,10.1,9.7,9.2,8.7,8.7,9.2,9.7,10.1,10.2,null,null],"kmh_p85":[null,null,null,null,12.1,11.9,11.4,10.8,10.4,10.8,11.4,11.9,12.0,11.9,11.5,10.8,10.3,10.3,10.8,11.5,11.9,12.1,null,null],"n":null}},{"type":"Feature","geometry":{"type":"LineString","coordinates":[[21.99407,50.04465],[21.98783,50.0482]]},"properties":{"id":"rzeszow-026","route":null,"mode":"bus","stop_from":"Przystanek C2","stop_to":"Przystanek D2","plan_kmh":15.3,"kmh_p15":[null,null,null,null,null,11.2,10.8,10.2,9.9,10.2,10.8,11.2,11.4,11.2,10.8,10.2,null,9.7,10.2,10.8,11.3,11.4,11.5,null],"kmh_p50":[null,null,null,null,null,14.0,13.5,12.7,12.4,12.7,13.5,14.0,14.2,14.1,13.6,12.8,null,12.2,12.8,13.6,14.1,14.3,14.4,null],"kmh_p85":[null,null,null,null,null,16.6,15.9,15.0,14.6,15.0,15.9,16.5,16.8,16.6,16.0,15.1,null,14.4,15.1,16.0,16.6,16.9,16.9,null],"n":null}},{"type":"Feature","geometry":{"type":"LineString","coordinates":[[21.98783,50.0482],[21.98117,50.05157]]},"properties":{"id":"rzeszow-027","route":null,"mode":"bus","stop_from":"Przystanek D2","stop_to":"Przystanek E2","plan_kmh":17.0,"kmh_p15":[null,null,12.8,null,12.7,12.5,12.0,11.3,11.0,11.3,12.0,12.5,12.6,12.5,12.1,11.4,10.8,10.8,11.4,12.1,12.5,12.7,null,12.8],"kmh_p50":[null,null,16.0,null,15.9,15.6,15.0,14.1,13.7,14.1,15.0,15.6,15.8,15.6,15.1,14.2,13.5,13.5,14.2,15.1,15.6,15.9,null,16.0],"kmh_p85":[null,null,18.8,null,18.7,18.4,17.7,16.7,16.2,16.7,17.7,18.4,18.6,18.4,17.8,16.8,16.0,16.0,16.8,17.8,18.5,18.7,null,18.8],"n":null}},{"type":"Feature","geometry":{"type":"LineString","coordinates":[[21.98117,50.05157],[21.97591,50.05548]]},"properties":{"id":"rzeszow-028","route":null,"mode":"bus","stop_from":"Przystanek E2","stop_to":"Przystanek F2","plan_kmh":23.2,"kmh_p15":[null,null,null,null,17.5,17.1,16.5,15.5,15.1,15.5,16.4,17.1,17.4,17.2,16.6,15.6,14.9,14.9,15.6,16.6,17.2,17.5,null,17.6],"kmh_p50":[null,null,null,null,21.8,21.4,20.6,19.4,18.9,19.4,20.6,21.4,21.7,21.5,20.7,19.5,18.6,18.6,19.5,20.7,21.5,21.8,null,21.9],"kmh_p85":[null,null,null,null,25.7,25.3,24.3,22.9,22.3,22.9,24.3,25.3,25.6,25.3,24.4,23.0,21.9,21.9,23.0,24.4,25.4,25.8,null,25.9],"n":null}},{"type":"Feature","geometry":{"type":"LineString","coordinates":[[21.97591,50.05548],[21.97094,50.05947]]},"properties":{"id":"rzeszow-029","route":null,"mode":"bus","stop_from":"Przystanek F2","stop_to":"Przystanek G2","plan_kmh":22.8,"kmh_p15":[null,null,17.2,null,17.1,16.8,16.1,15.2,14.8,15.2,16.1,16.8,17.0,16.8,16.2,15.3,14.6,14.6,15.3,16.2,16.8,17.1,null,17.2],"kmh_p50":[null,null,21.5,null,21.4,21.0,20.1,19.0,18.5,19.0,20.1,21.0,21.2,21.0,20.3,19.1,18.2,18.2,19.1,20.3,21.0,21.4,null,21.5],"kmh_p85":[null,null,25.4,null,25.2,24.8,23.8,22.4,21.8,22.4,23.8,24.7,25.1,24.8,23.9,22.6,21.5,21.5,22.6,23.9,24.8,25.2,null,25.4],"n":null}},{"type":"Feature","geometry":{"type":"LineString","coordinates":[[21.97094,50.05947],[21.96221,50.0621]]},"properties":{"id":"rzeszow-030","route":null,"mode":"bus","stop_from":"Przystanek G2","stop_to":"Przystanek H2","plan_kmh":29.8,"kmh_p15":[null,null,null,null,22.5,22.1,21.2,20.0,19.5,20.0,21.2,22.1,22.4,22.1,21.3,20.1,19.2,19.2,20.1,21.3,22.2,22.5,null,null],"kmh_p50":[null,null,null,null,28.1,27.6,26.5,25.0,24.3,25.0,26.5,27.6,28.0,27.7,26.7,25.2,23.9,23.9,25.2,26.7,27.7,28.1,null,null],"kmh_p85":[null,null,null,null,33.2,32.6,31.3,29.5,28.7,29.5,31.3,32.6,33.0,32.6,31.5,29.7,28.3,28.3,29.7,31.5,32.7,33.2,null,null],"n":null}},{"type":"Feature","geometry":{"type":"LineString","coordinates":[[21.96221,50.0621],[21.95561,50.0655]]},"properties":{"id":"rzeszow-031","route":null,"mode":"bus","stop_from":"Przystanek H2","stop_to":"Przystanek I2","plan_kmh":30.7,"kmh_p15":[null,null,null,null,23.1,22.7,21.8,20.6,20.0,20.6,21.8,22.7,23.0,22.7,21.9,20.7,19.7,19.7,20.7,21.9,22.7,23.1,null,23.2],"kmh_p50":[null,null,null,null,28.9,28.3,27.2,25.7,25.0,25.7,27.2,28.3,28.7,28.4,27.4,25.8,24.6,24.6,25.8,27.4,28.4,28.9,null,29.0],"kmh_p85":[null,null,null,null,34.0,33.4,32.1,30.3,29.4,30.3,32.1,33.4,33.9,33.5,32.3,30.5,29.0,29.0,30.5,32.3,33.5,34.1,null,34.2],"n":null}},{"type":"Feature","geometry":{"type":"LineString","coordinates":[[21.95561,50.0655],[21.94899,50.06889]]},"properties":{"id":"rzeszow-032","route":null,"mode":"bus","stop_from":"Przystanek I2","stop_to":"Przystanek J2","plan_kmh":36.0,"kmh_p15":[null,null,null,null,27.0,26.6,25.5,24.1,23.4,24.1,25.5,26.5,26.9,26.6,25.7,24.2,23.0,23.0,24.2,25.7,26.6,27.0,27.2,27.2],"kmh_p50":[null,null,null,null,33.8,33.2,31.8,30.1,29.2,30.1,31.8,33.2,33.6,33.2,32.1,30.2,28.8,28.8,30.2,32.1,33.3,33.8,34.0,34.0],"kmh_p85":[null,null,null,null,39.9,39.2,37.6,35.5,34.5,35.5,37.6,39.1,39.7,39.2,37.8,35.7,33.9,33.9,35.7,37.8,39.3,39.9,40.1,40.1],"n":null}},{"type":"Feature","geometry":{"type":"LineString","coordinates":[[22.0,50.041],[21.99128,50.04074]]},"properties":{"id":"rzeszow-033","route":null,"mode":"tram","stop_from":"Przystanek K2","stop_to":"Przystanek L2","plan_kmh":16.7,"kmh_p15":[12.7,null,12.7,null,12.6,12.4,11.9,11.2,10.9,11.2,11.9,12.4,12.5,12.4,11.9,11.3,null,10.7,11.3,12.0,12.4,12.6,null,12.7],"kmh_p50":[15.8,null,15.8,null,15.7,15.5,14.8,14.0,13.6,14.0,14.8,15.4,15.7,15.5,14.9,14.1,null,13.4,14.1,14.9,15.5,15.7,null,15.8],"kmh_p85":[18.7,null,18.7,null,18.6,18.2,17.5,16.5,16.1,16.5,17.5,18.2,18.5,18.3,17.6,16.6,null,15.8,16.6,17.6,18.3,18.6,null,18.7],"n":null}},{"type":"Feature","geometry":{"type":"LineString","coordinates":[[21.99128,50.04074],[21.98254,50.0406]]},"properties":{"id":"rzeszow-034","route":null,"mode":"tram","stop_from":"Przystanek L2","stop_to":"Przystanek M2","plan_kmh":18.6,"kmh_p15":[null,14.0,null,null,13.9,13.7,13.1,12.4,12.0,12.4,13.1,13.7,13.8,13.7,13.2,12.5,11.9,11.9,12.5,13.2,13.7,13.9,null,null],"kmh_p50":[null,17.5,null,null,17.4,17.1,16.4,15.5,15.0,15.5,16.4,17.1,17.3,17.1,16.5,15.6,14.8,14.8,15.6,16.5,17.1,17.4,null,null],"kmh_p85":[null,20.6,null,null,20.5,20.2,19.3,18.3,17.8,18.3,19.3,20.1,20.4,20.2,19.5,18.4,17.5,17.5,18.4,19.5,20.2,20.5,null,null],"n":null}},{"type":"Feature","geometry":{"type":"LineString","coordinates":[[21.98254,50.0406],[21.97381,50.0404]]},"properties":{"id":"rzeszow-035","route":null,"mode":"tram","stop_from":"Przystanek M2","stop_to":"Przystanek N2","plan_kmh":22.2,"kmh_p15":[null,null,null,16.7,16.7,16.4,15.7,14.8,14.4,14.8,15.7,16.4,16.6,16.4,15.8,14.9,14.2,14.2,14.9,15.8,16.4,16.7,16.7,16.8],"kmh_p50":[null,null,null,20.9,20.8,20.5,19.6,18.5,18.0,18.5,19.6,20.4,20.7,20.5,19.8,18.6,17.7,17.7,18.6,19.8,20.5,20.8,20.9,20.9],"kmh_p85":[null,null,null,24.7,24.6,24.1,23.2,21.9,21.3,21.9,23.2,24.1,24.4,24.2,23.3,22.0,20.9,20.9,22.0,23.3,24.2,24.6,24.7,24.7],"n":null}},{"type":"Feature","geometry":{"type":"LineString","coordinates":[[21.97381,50.0404],[21.96503,50.04082]]},"properties":{"id":"rzeszow-036","route":null,"mode":"tram","stop_from":"Przystanek N2","stop_to":"Przystanek O2","plan_kmh":19.7,"kmh_p15":[null,14.9,14.9,null,14.8,14.6,14.0,13.2,null,13.2,14.0,14.6,14.7,14.6,14.1,13.3,12.6,null,13.3,14.1,14.6,14.8,null,null],"kmh_p50":[null,18.6,18.6,null,18.5,18.2,17.5,16.5,null,16.5,17.5,18.2,18.4,18.2,17.6,16.6,15.8,null,16.6,17.6,18.3,18.5,null,null],"kmh_p85":[null,22.0,22.0,null,21.9,21.5,20.6,19.5,null,19.5,20.6,21.5,21.8,21.5,20.8,19.6,18.6,null,19.6,20.8,21.5,21.9,null,null],"n":null}},{"type":"Feature","geometry":{"type":"LineString","coordinates":[[21.96503,50.04082],[21.95636,50.03984]]},"properties":{"id":"rzeszow-037","route":null,"mode":"tram","stop_from":"Przystanek O2","stop_to":"Przystanek P2","plan_kmh":20.9,"kmh_p15":[null,null,null,null,15.7,15.4,14.8,13.9,13.5,13.9,14.8,15.4,15.6,15.4,14.9,14.0,13.3,13.3,14.0,14.9,15.4,15.7,15.7,null],"kmh_p50":[null,null,null,null,19.6,19.2,18.4,17.4,16.9,17.4,18.4,19.2,19.5,19.3,18.6,17.5,16.7,16.7,17.5,18.6,19.3,19.6,19.7,null],"kmh_p85":[null,null,null,null,23.1,22.7,21.8,20.6,20.0,20.6,21.8,22.7,23.0,22.7,21.9,20.7,19.7,19.7,20.7,21.9,22.7,23.1,23.2,null],"n":null}},{"type":"Feature","geometry":{"type":"LineString","coordinates":[[21.95636,50.03984],[21.94765,50.0395]]},"properties":{"id":"rzeszow-038","route":null,"mode":"tram","stop_from":"Przystanek P2","stop_to":"Przystanek Q2","plan_kmh":22.3,"kmh_p15":[null,null,null,null,16.7,16.4,15.7,14.9,14.4,14.9,15.7,16.4,16.6,16.4,15.8,14.9,14.2,14.2,14.9,15.8,16.4,16.7,16.8,16.8],"kmh_p50":[null,null,null,null,20.9,20.5,19.7,18.6,18.0,18.6,19.7,20.5,20.7,20.5,19.8,18.7,17.8,17.8,18.7,19.8,20.5,20.9,21.0,21.0],"kmh_p85":[null,null,null,null,24.6,24.2,23.2,21.9,21.3,21.9,23.2,24.2,24.5,24.2,23.4,22.0,21.0,21.0,22.0,23.4,24.2,24.6,24.7,24.7],"n":null}},{"type":"Feature","geometry":{"type":"LineString","coordinates":[[21.94765,50.0395],[21.93881,50.04075]]},"properties":{"id":"rzeszow-039","route":null,"mode":"tram","stop_from":"Przystanek Q2","stop_to":"Przystanek R2","plan_kmh":null,"kmh_p15":[null,null,null,null,null,null,null,null,null,null,null,null,null,null,null,null,null,null,null,null,null,null,null,null],"kmh_p50":[null,null,null,null,null,null,null,null,null,null,null,null,null,null,null,null,null,null,null,null,null,null,null,null],"kmh_p85":[null,null,null,null,null,null,null,null,null,null,null,null,null,null,null,null,null,null,null,null,null,null,null,null],"n":null}},{"type":"Feature","geometry":{"type":"LineString","coordinates":[[21.93881,50.04075],[21.93011,50.03979]]},"properties":{"id":"rzeszow-040","route":null,"mode":"tram","stop_from":"Przystanek R2","stop_to":"Przystanek S2","plan_kmh":35.5,"kmh_p15":[null,null,null,null,26.8,26.3,25.2,23.8,23.2,23.8,25.2,26.3,26.6,26.3,25.4,24.0,22.8,22.8,24.0,25.4,26.4,26.8,null,null],"kmh_p50":[null,null,null,null,33.5,32.9,31.5,29.8,28.9,29.8,31.5,32.8,33.3,32.9,31.8,30.0,28.5,28.5,30.0,31.8,33.0,33.5,null,null],"kmh_p85":[null,null,null,null,39.5,38.8,37.2,35.2,34.2,35.2,37.2,38.8,39.3,38.9,37.5,35.3,33.6,33.6,35.3,37.5,38.9,39.5,null,null],"n":null}},{"type":"Feature","geometry":{"type":"LineString","coordinates":[[21.93011,50.03979],[21.92136,50.0398]]},"properties":{"id":"rzeszow-041","route":null,"mode":"tram","stop_from":"Przystanek S2","stop_to":"Przystanek T2","plan_kmh":32.5,"kmh_p15":[null,24.6,null,null,24.5,24.0,23.0,21.8,21.1,21.8,23.0,24.0,24.3,24.1,23.2,21.9,20.8,20.8,21.9,23.2,24.1,24.5,24.6,24.6],"kmh_p50":[null,30.7,null,null,30.6,30.0,28.8,27.2,26.4,27.2,28.8,30.0,30.4,30.1,29.0,27.4,26.0,26.0,27.4,29.0,30.1,30.6,30.7,30.7],"kmh_p85":[null,36.3,null,null,36.1,35.4,34.0,32.1,31.2,32.1,34.0,35.4,35.9,35.5,34.2,32.3,30.7,30.7,32.3,34.2,35.5,36.1,36.2,36.3],"n":null}},{"type":"Feature","geometry":{"type":"LineString","coordinates":[[22.0,50.041],[21.99406,50.03735]]},"properties":{"id":"rzeszow-042","route":null,"mode":"bus","stop_from":"Przystanek U2","stop_to":"Przystanek V2","plan_kmh":16.7,"kmh_p15":[null,null,null,null,12.6,12.4,11.9,11.2,10.9,11.2,11.9,12.4,12.5,12.4,12.0,11.3,10.7,10.7,11.3,12.0,12.4,12.6,12.7,12.7],"kmh_p50":[null,null,null,null,15.7,15.5,14.8,14.0,13.6,14.0,14.8,15.5,15.7,15.5,14.9,14.1,13.4,13.4,14.1,14.9,15.5,15.7,15.8,15.8],"kmh_p85":[null,null,null,null,18.6,18.3,17.5,16.5,16.1,16.5,17.5,18.2,18.5,18.3,17.6,16.6,15.8,15.8,16.6,17.6,18.3,18.6,18.7,18.7],"n":null}},{"type":"Feature","geometry":{"type":"LineString","coordinates":[[21.99406,50.03735],[21.9883,50.03364]]},"properties":{"id":"rzeszow-043","route":null,"mode":"bus","stop_from":"Przystanek V2","stop_to":"Przystanek W2","plan_kmh":20.1,"kmh_p15":[null,null,null,15.2,15.1,14.8,14.2,13.4,13.1,13.4,14.2,14.8,15.0,14.9,14.3,13.5,12.9,12.9,13.5,14.3,14.9,15.1,15.2,null],"kmh_p50":[null,null,null,19.0,18.9,18.5,17.8,16.8,16.3,16.8,17.8,18.5,18.8,18.6,17.9,16.9,16.1,16.1,16.9,17.9,18.6,18.9,19.0,null],"kmh_p85":[null,null,null,22.4,22.3,21.9,21.0,19.8,19.3,19.8,21.0,21.9,22.2,21.9,21.1,19.9,19.0,19.0,19.9,21.1,21.9,22.3,22.4,null],"n":null}},{"type":"Feature","geometry":{"type":"LineString","coordinates":[[21.9883,50.03364],[21.98237,50.02999]]},"properties":{"id":"rzeszow-044","route":null,"mode":"bus","stop_from":"Przystanek W2","stop_to":"Przystanek X2","plan_kmh":23.5,"kmh_p15":[null,17.7,null,null,17.6,17.3,16.6,15.7,15.3,15.7,16.6,17.3,17.5,17.4,16.7,15.8,15.0,15.0,15.8,16.7,17.4,17.7,17.7,17.7],"kmh_p50":[null,22.2,null,null,22.1,21.7,20.8,19.6,19.1,19.6,20.8,21.6,21.9,21.7,20.9,19.7,18.8,18.8,19.7,20.9,21.7,22.1,22.2,22.2],"kmh_p85":[null,26.2,null,null,26.0,25.6,24.5,23.2,22.5,23.2,24.5,25.5,25.9,25.6,24.7,23.3,22.2,22.2,23.3,24.7,25.6,26.0,26.2,26.2],"n":null}},{"type":"Feature","geometry":{"type":"LineString","coordinates":[[21.98237,50.02999],[21.97512,50.02682]]},"properties":{"id":"rzeszow-045","route":null,"mode":"bus","stop_from":"Przystanek X2","stop_to":"Przystanek Y2","plan_kmh":20.4,"kmh_p15":[null,null,null,null,15.3,15.1,14.4,13.6,13.3,13.6,14.4,15.0,15.2,15.1,14.5,13.7,13.0,13.0,13.7,14.5,15.1,15.3,null,null],"kmh_p50":[null,null,null,null,19.1,18.8,18.0,17.1,16.6,17.1,18.0,18.8,19.0,18.8,18.2,17.1,16.3,16.3,17.1,18.2,18.9,19.2,null,null],"kmh_p85":[null,null,null,null,22.6,22.2,21.3,20.1,19.5,20.1,21.3,22.2,22.5,22.2,21.4,20.2,19.2,19.2,20.2,21.4,22.3,22.6,null,null],"n":null}},{"type":"Feature","geometry":{"type":"LineString","coordinates":[[21.97512,50.02682],[21.97092,50.02254]]},"properties":{"id":"rzeszow-046","route":null,"mode":"bus","stop_from":"Przystanek Y2","stop_to":"Przystanek Z2","plan_kmh":25.0,"kmh_p15":[null,null,null,null,18.9,18.5,17.8,16.8,16.3,16.8,17.8,18.5,18.8,18.6,17.9,16.9,16.1,16.1,16.9,17.9,18.6,18.9,null,null],"kmh_p50":[null,null,null,null,23.6,23.2,22.2,21.0,20.4,21.0,22.2,23.1,23.4,23.2,22.4,21.1,20.1,20.1,21.1,22.4,23.2,23.6,null,null],"kmh_p85":[null,null,null,null,27.8,27.3,26.2,24.8,24.1,24.8,26.2,27.3,27.7,27.4,26.4,24.9,23.7,23.7,24.9,26.4,27.4,27.8,null,null],"n":null}},{"type":"Feature","geometry":{"type":"LineString","coordinates":[[21.97092,50.02254],[21.96375,50.01932]]},"properties":{"id":"rzeszow-047","route":null,"mode":"bus","stop_from":"Przystanek Z2","stop_to":"Przystanek A3","plan_kmh":24.7,"kmh_p15":[null,null,null,null,18.5,18.2,17.4,16.5,16.0,16.5,17.4,18.2,18.4,18.2,17.6,16.6,15.7,15.7,16.6,17.6,18.2,18.5,18.6,18.6],"kmh_p50":[null,null,null,null,23.1,22.7,21.8,20.6,20.0,20.6,21.8,22.7,23.0,22.8,21.9,20.7,19.7,19.7,20.7,21.9,22.8,23.1,23.2,23.3],"kmh_p85":[null,null,null,null,27.3,26.8,25.7,24.3,23.6,24.3,25.7,26.8,27.1,26.8,25.9,24.4,23.2,23.2,24.4,25.9,26.9,27.3,27.4,27.4],"n":null}},{"type":"Feature","geometry":{"type":"LineString","coordinates":[[21.96375,50.01932],[21.95535,50.0166]]},"properties":{"id":"rzeszow-048","route":null,"mode":"bus","stop_from":"Przystanek A3","stop_to":"Przystanek B3","plan_kmh":null,"kmh_p15":[null,null,null,null,null,null,null,null,null,null,null,null,null,null,null,null,null,null,null,null,null,null,null,null],"kmh_p50":[null,null,null,null,null,null,null,null,null,null,null,null,null,null,null,null,null,null,null,null,null,null,null,null],"kmh_p85":[null,null,null,null,null,null,null,null,null,null,null,null,null,null,null,null,null,null,null,null,null,null,null,null],"n":null}},{"type":"Feature","geometry":{"type":"LineString","coordinates":[[21.95535,50.0166],[21.94859,50.01327]]},"properties":{"id":"rzeszow-049","route":null,"mode":"bus","stop_from":"Przystanek B3","stop_to":"Przystanek C3","plan_kmh":37.4,"kmh_p15":[null,null,null,null,28.1,27.6,26.5,25.0,24.3,25.0,26.5,27.6,27.9,27.6,26.7,25.1,23.9,23.9,25.1,26.7,27.7,28.1,28.2,null],"kmh_p50":[null,null,null,null,35.1,34.5,33.1,31.3,30.4,31.3,33.1,34.5,34.9,34.5,33.3,31.4,29.9,29.9,31.4,33.3,34.6,35.1,35.3,null],"kmh_p85":[null,null,null,null,41.4,40.7,39.0,36.9,35.8,36.9,39.0,40.7,41.2,40.8,39.3,37.1,35.3,35.3,37.1,39.3,40.8,41.4,41.6,null],"n":null}},{"type":"Feature","geometry":{"type":"LineString","coordinates":[[22.0,50.041],[21.9989,50.03645]]},"properties":{"id":"rzeszow-050","route":null,"mode":"tram","stop_from":"Przystanek D3","stop_to":"Przystanek E3","plan_kmh":11.7,"kmh_p15":[null,null,null,null,8.7,8.6,8.2,7.8,7.6,7.8,8.2,8.6,8.7,8.6,8.3,7.8,7.4,7.4,7.8,8.3,8.6,8.7,null,8.8],"kmh_p50":[null,null,null,null,10.9,10.7,10.3,9.7,9.5,9.7,10.3,10.7,10.9,10.8,10.4,9.8,9.3,9.3,9.8,10.4,10.8,10.9,null,11.0],"kmh_p85":[null,null,null,null,12.9,12.7,12.2,11.5,11.2,11.5,12.2,12.7,12.8,12.7,12.2,11.5,11.0,11.0,11.5,12.2,12.7,12.9,null,13.0],"n":null}},{"type":"Feature","geometry":{"type":"LineString","coordinates":[[21.9989,50.03645],[21.99705,50.03195]]},"properties":{"id":"rzeszow-051","route":null,"mode":"tram","stop_from":"Przystanek E3","stop_to":"Przystanek F3","plan_kmh":null,"kmh_p15":[null,null,null,null,null,null,null,null,null,null,null,null,null,null,null,null,null,null,null,null,null,null,null,null],"kmh_p50":[null,null,null,null,null,null,null,null,null,null,null,null,null,null,null,null,null,null,null,null,null,null,null,null],"kmh_p85":[null,null,null,null,null,null,null,null,null,null,null,null,null,null,null,null,null,null,null,null,null,null,null,null],"n":null}},{"type":"Feature","geometry":{"type":"LineString","coordinates":[[21.99705,50.03195],[21.99726,50.02732]]},"properties":{"id":"rzeszow-052","route":null,"mode":"tram","stop_from":"Przystanek F3","stop_to":"Przystanek G3","plan_kmh":20.2,"kmh_p15":[null,null,null,null,15.2,14.9,14.3,13.5,13.2,13.5,14.3,14.9,15.1,15.0,14.4,13.6,12.9,12.9,13.6,null,15.0,15.2,null,15.3],"kmh_p50":[null,null,null,null,19.0,18.7,17.9,16.9,16.4,16.9,17.9,18.7,18.9,18.7,18.0,17.0,16.2,16.2,17.0,null,18.7,19.0,null,19.1],"kmh_p85":[null,null,null,null,22.4,22.0,21.1,20.0,19.4,20.0,21.1,22.0,22.3,22.1,21.3,20.1,19.1,19.1,20.1,null,22.1,22.4,null,22.6],"n":null}},{"type":"Feature","geometry":{"type":"LineString","coordinates":[[21.99726,50.02732],[21.99526,50.02282]]},"properties":{"id":"rzeszow-053","route":null,"mode":"tram","stop_from":"Przystanek G3","stop_to":"Przystanek H3","plan_kmh":23.7,"kmh_p15":[17.9,null,null,null,17.8,17.5,16.8,15.8,15.4,15.8,16.8,17.4,17.7,17.5,16.9,15.9,15.1,15.1,15.9,16.9,17.5,17.8,null,17.9],"kmh_p50":[22.4,null,null,null,22.2,21.8,20.9,19.8,19.2,19.8,20.9,21.8,22.1,21.9,21.1,19.9,18.9,18.9,19.9,21.1,21.9,22.2,null,22.3],"kmh_p85":[26.4,null,null,null,26.2,25.8,24.7,23.4,22.7,23.4,24.7,25.7,26.1,25.8,24.9,23.5,22.3,22.3,23.5,24.9,25.8,26.2,null,26.4],"n":null}},{"type":"Feature","geometry":{"type":"LineString","coordinates":[[21.99526,50.02282],[21.9962,50.01818]]},"properties":{"id":"rzeszow-054","route":null,"mode":"tram","stop_from":"Przystanek H3","stop_to":"Przystanek I3","plan_kmh":26.7,"kmh_p15":[null,null,null,null,20.1,19.7,18.9,17.9,17.4,17.9,18.9,19.7,20.0,19.8,19.0,18.0,17.1,17.1,18.0,19.0,19.8,20.1,null,20.2],"kmh_p50":[null,null,null,null,25.1,24.7,23.6,22.3,21.7,22.3,23.6,24.6,25.0,24.7,23.8,22.5,21.4,21.4,22.5,23.8,24.7,25.1,null,25.2],"kmh_p85":[null,null,null,null,29.6,29.1,27.9,26.4,25.6,26.4,27.9,29.1,29.4,29.1,28.1,26.5,25.2,25.2,26.5,28.1,29.2,29.6,null,29.8],"n":null}},{"type":"Feature","geometry":{"type":"LineString","coordinates":[[21.9962,50.01818],[21.99288,50.01373]]},"properties":{"id":"rzeszow-055","route":null,"mode":"tram","stop_from":"Przystanek I3","stop_to":"Przystanek J3","plan_kmh":null,"kmh_p15":[null,null,null,null,null,null,null,null,null,null,null,null,null,null,null,null,null,null,null,null,null,null,null,null],"kmh_p50":[null,null,null,null,null,null,null,null,null,null,null,null,null,null,null,null,null,null,null,null,null,null,null,null],"kmh_p85":[null,null,null,null,null,null,null,null,null,null,null,null,null,null,null,null,null,null,null,null,null,null,null,null],"n":null}},{"type":"Feature","geometry":{"type":"LineString","coordinates":[[21.99288,50.01373],[21.99068,50.00925]]},"properties":{"id":"rzeszow-056","route":null,"mode":"tram","stop_from":"Przystanek J3","stop_to":"Przystanek K3","plan_kmh":28.6,"kmh_p15":[null,null,null,null,21.5,21.1,20.3,19.2,18.6,19.2,20.3,21.1,21.4,null,20.4,19.3,18.3,18.3,19.3,20.4,21.2,21.5,21.6,null],"kmh_p50":[null,null,null,null,26.9,26.4,25.3,23.9,23.3,23.9,25.3,26.4,26.7,null,25.5,24.1,22.9,22.9,24.1,25.5,26.5,26.9,27.0,null],"kmh_p85":[null,null,null,null,31.7,31.2,29.9,28.3,27.4,28.3,29.9,31.1,31.6,null,30.1,28.4,27.0,27.0,28.4,30.1,31.2,31.7,31.9,null],"n":null}},{"type":"Feature","geometry":{"type":"LineString","coordinates":[[21.99068,50.00925],[21.9941,50.00447]]},"properties":{"id":"rzeszow-057","route":null,"mode":"tram","stop_from":"Przystanek K3","stop_to":"Przystanek L3","plan_kmh":39.2,"kmh_p15":[null,null,null,null,29.4,28.9,27.7,26.2,25.5,26.2,27.7,28.9,29.3,29.0,27.9,26.3,25.1,25.1,26.3,27.9,29.0,29.4,null,29.6],"kmh_p50":[null,null,null,null,36.8,36.1,34.7,32.8,31.8,32.8,34.7,36.1,36.6,36.2,34.9,32.9,31.3,31.3,32.9,34.9,36.2,36.8,null,37.0],"kmh_p85":[null,null,null,null,43.4,42.6,40.9,38.6,37.5,38.6,40.9,42.6,43.2,42.7,41.2,38.9,37.0,37.0,38.9,41.2,42.7,43.4,null,43.6],"n":null}},{"type":"Feature","geometry":{"type":"LineString","coordinates":[[22.0,50.041],[22.00604,50.03739]]},"properties":{"id":"rzeszow-058","route":null,"mode":"bus","stop_from":"Przystanek M3","stop_to":"Przystanek N3","plan_kmh":15.2,"kmh_p15":[null,11.4,null,null,11.4,11.2,10.7,10.1,9.8,10.1,10.7,11.2,11.3,11.2,10.8,10.2,9.7,9.7,10.2,10.8,11.2,11.4,11.4,null],"kmh_p50":[null,14.3,null,null,14.2,14.0,13.4,12.6,12.3,12.6,13.4,13.9,14.1,14.0,13.5,12.7,12.1,12.1,12.7,13.5,14.0,14.2,14.3,null],"kmh_p85":[null,16.9,null,null,16.8,16.5,15.8,14.9,14.5,14.9,15.8,16.4,16.7,16.5,15.9,15.0,14.3,14.3,15.0,15.9,16.5,16.8,16.8,null],"n":null}},{"type":"Feature","geometry":{"type":"LineString","coordinates":[[22.00604,50.03739],[22.01238,50.03388]]},"properties":{"id":"rzeszow-059","route":null,"mode":"bus","stop_from":"Przystanek N3","stop_to":"Przystanek O3","plan_kmh":10.5,"kmh_p15":[null,null,7.9,null,7.9,7.7,7.4,7.0,6.8,7.0,7.4,7.7,null,7.8,7.5,7.1,6.7,6.7,7.1,7.5,7.8,7.9,7.9,null],"kmh_p50":[null,null,9.9,null,9.9,9.7,9.3,8.8,8.5,8.8,9.3,9.7,null,9.7,9.4,8.8,8.4,8.4,8.8,9.4,9.7,9.9,9.9,null],"kmh_p85":[null,null,11.7,null,11.6,11.4,11.0,10.4,10.1,10.4,11.0,11.4,null,11.4,11.0,10.4,9.9,9.9,10.4,11.0,11.5,11.6,11.7,null],"n":null}},{"type":"Feature","geometry":{"type":"LineString","coordinates":[[22.01238,50.03388],[22.01853,50.03031]]},"properties":{"id":"rzeszow-060","route":null,"mode":"bus","stop_from":"Przystanek O3","stop_to":"Przystanek P3","plan_kmh":23.4,"kmh_p15":[null,null,null,null,17.6,17.3,16.6,15.7,15.2,15.7,16.6,17.3,17.5,17.3,16.7,15.7,15.0,15.0,15.7,16.7,17.3,17.6,17.7,null],"kmh_p50":[null,null,null,null,22.0,21.6,20.7,19.6,19.0,19.6,20.7,21.6,21.9,21.6,20.9,19.7,18.7,18.7,19.7,20.9,21.7,22.0,22.1,null],"kmh_p85":[null,null,null,null,26.0,25.5,24.5,23.1,22.4,23.1,24.5,25.5,25.8,25.5,24.6,23.2,22.1,22.1,23.2,24.6,25.6,26.0,26.1,null],"n":null}},{"type":"Feature","geometry":{"type":"LineString","coordinates":[[22.01853,50.03031],[22.02402,50.0265]]},"properties":{"id":"rzeszow-061","route":null,"mode":"bus","stop_from":"Przystanek P3","stop_to":"Przystanek Q3","plan_kmh":17.7,"kmh_p15":[null,null,null,null,13.3,13.1,12.5,11.8,11.5,11.8,12.5,13.0,13.2,13.1,12.6,11.9,11.3,11.3,11.9,12.6,13.1,null,null,13.4],"kmh_p50":[null,null,null,null,16.6,16.3,15.7,14.8,14.4,14.8,15.7,16.3,16.5,16.4,15.8,14.9,14.1,14.1,14.9,15.8,16.4,null,null,16.7],"kmh_p85":[null,null,null,null,19.6,19.3,18.5,17.5,17.0,17.5,18.5,19.2,19.5,19.3,18.6,17.6,16.7,16.7,17.6,18.6,19.3,null,null,19.7],"n":null}},{"type":"Feature","geometry":{"type":"LineString","coordinates":[[22.02402,50.0265],[22.02823,50.02226]]},"properties":{"id":"rzeszow-062","route":null,"mode":"bus","stop_from":"Przystanek Q3","stop_to":"Przystanek R3","plan_kmh":27.1,"kmh_p15":[null,null,20.4,null,20.3,20.0,19.2,18.1,17.6,18.1,19.2,19.9,20.2,20.0,19.3,18.2,17.3,17.3,18.2,19.3,20.0,20.3,null,null],"kmh_p50":[null,null,25.6,null,25.4,25.0,23.9,22.6,22.0,22.6,23.9,24.9,25.3,25.0,24.1,22.7,21.6,21.6,22.7,24.1,25.0,25.4,null,null],"kmh_p85":[null,null,30.2,null,30.0,29.5,28.3,26.7,25.9,26.7,28.3,29.4,29.8,29.5,28.4,26.8,25.5,25.5,26.8,28.5,29.5,30.0,null,null],"n":null}},{"type":"Feature","geometry":{"type":"LineString","coordinates":[[22.02823,50.02226],[22.03663,50.01946]]},"properties":{"id":"rzeszow-063","route":null,"mode":"bus","stop_from":"Przystanek R3","stop_to":"Przystanek S3","plan_kmh":23.9,"kmh_p15":[null,null,18.0,null,17.9,17.6,16.9,16.0,15.5,16.0,16.9,17.6,17.8,17.6,17.0,16.0,15.3,15.3,16.0,17.0,17.6,17.9,null,18.0],"kmh_p50":[null,null,22.5,null,22.4,22.0,21.1,19.9,19.4,19.9,21.1,22.0,22.3,22.0,21.2,20.0,19.1,19.1,20.0,21.2,22.1,22.4,null,22.5],"kmh_p85":[null,null,26.6,null,26.4,26.0,24.9,23.5,22.9,23.5,24.9,25.9,26.3,26.0,25.1,23.7,22.5,22.5,23.7,25.1,26.0,26.4,null,26.6],"n":null}},{"type":"Feature","geometry":{"type":"LineString","coordinates":[[22.03663,50.01946],[22.04365,50.01622]]},"properties":{"id":"rzeszow-064","route":null,"mode":"bus","stop_from":"Przystanek S3","stop_to":"Przystanek T3","plan_kmh":33.1,"kmh_p15":[null,null,25.0,null,24.9,24.4,23.4,22.1,21.5,22.1,23.4,24.4,24.7,24.5,23.6,22.2,21.2,21.2,22.2,23.6,24.5,24.9,null,25.0],"kmh_p50":[null,null,31.2,null,31.1,30.5,29.3,27.7,26.9,27.7,29.3,30.5,30.9,30.6,29.5,27.8,26.4,26.4,27.8,29.5,30.6,31.1,null,31.2],"kmh_p85":[null,null,36.9,null,36.7,36.0,34.5,32.6,31.7,32.6,34.5,36.0,36.5,36.1,34.8,32.8,31.2,31.2,32.8,34.8,36.1,36.7,null,36.9],"n":null}},{"type":"Feature","geometry":{"type":"LineString","coordinates":[[22.04365,50.01622],[22.04622,50.01136]]},"properties":{"id":"rzeszow-065","route":null,"mode":"bus","stop_from":"Przystanek T3","stop_to":"Przystanek U3","plan_kmh":34.2,"kmh_p15":[null,null,null,null,25.7,25.3,24.2,22.9,22.2,22.9,24.2,25.2,25.6,25.3,24.4,23.0,21.9,21.9,23.0,24.4,25.3,25.7,25.8,null],"kmh_p50":[null,null,null,null,32.2,31.6,30.3,28.6,27.8,28.6,30.3,31.6,32.0,31.6,30.5,28.8,27.4,27.4,28.8,30.5,31.7,32.2,32.3,null],"kmh_p85":[null,null,null,null,37.9,37.3,35.8,33.8,32.8,33.8,35.8,37.2,37.7,37.3,36.0,34.0,32.3,32.3,34.0,36.0,37.4,37.9,38.1,null],"n":null}},{"type":"Feature","geometry":{"type":"LineString","coordinates":[[22.02754,50.041],[22.02619,50.04496]]},"properties":{"id":"rzeszow-066","route":null,"mode":"bus","stop_from":"Przystanek V3","stop_to":"Przystanek W3","plan_kmh":18.3,"kmh_p15":[13.9,null,null,null,13.8,13.5,13.0,12.3,11.9,12.3,13.0,13.5,13.7,13.6,13.1,12.3,11.7,11.7,12.3,13.1,13.6,13.8,13.8,13.9],"kmh_p50":[17.3,null,null,null,17.2,16.9,16.2,15.3,14.9,15.3,16.2,16.9,17.1,16.9,16.3,15.4,14.7,14.7,15.4,16.3,17.0,17.2,17.3,17.3],"kmh_p85":[20.4,null,null,null,20.3,20.0,19.2,18.1,17.6,18.1,19.1,19.9,20.2,20.0,19.3,18.2,17.3,17.3,18.2,19.3,20.0,20.3,20.4,20.4],"n":null}},{"type":"Feature","geometry":{"type":"LineString","coordinates":[[22.02619,50.04496],[22.02228,50.04854]]},"properties":{"id":"rzeszow-067","route":null,"mode":"bus","stop_from":"Przystanek W3","stop_to":"Przystanek X3","plan_kmh":16.2,"kmh_p15":[null,null,null,12.3,12.2,12.0,11.5,10.9,10.5,10.9,11.5,12.0,12.1,12.0,11.6,10.9,10.4,10.4,10.9,11.6,12.0,12.2,12.3,null],"kmh_p50":[null,null,null,15.3,15.2,15.0,14.4,13.6,13.2,13.6,14.4,15.0,15.2,15.0,14.5,13.6,13.0,13.0,13.6,14.5,15.0,15.2,15.3,null],"kmh_p85":[null,null,null,18.1,18.0,17.7,17.0,16.0,15.6,16.0,16.9,17.7,17.9,17.7,17.1,16.1,15.3,15.3,16.1,17.1,17.7,18.0,18.1,null],"n":null}},{"type":"Feature","geometry":{"type":"LineString","coordinates":[[22.02228,50.04854],[22.01619,50.05137]]},"properties":{"id":"rzeszow-068","route":null,"mode":"bus","stop_from":"Przystanek X3","stop_to":"Przystanek Y3","plan_kmh":14.8,"kmh_p15":[null,11.2,null,null,11.2,11.0,10.5,9.9,9.7,9.9,10.5,11.0,11.1,11.0,10.6,10.0,9.5,9.5,10.0,null,11.0,11.2,null,11.2],"kmh_p50":[null,14.0,null,null,14.0,13.7,13.1,12.4,12.1,12.4,13.1,13.7,13.9,13.7,13.2,12.5,11.9,11.9,12.5,null,13.7,14.0,null,14.0],"kmh_p85":[null,16.6,null,null,16.5,16.2,15.5,14.7,14.2,14.7,15.5,16.2,16.4,16.2,15.6,14.7,14.0,14.0,14.7,null,16.2,16.5,null,16.6],"n":null}},{"type":"Feature","geometry":{"type":"LineString","coordinates":[[22.01619,50.05137],[22.00851,50.05319]]},"properties":{"id":"rzeszow-069","route":null,"mode":"bus","stop_from":"Przystanek Y3","stop_to":"Przystanek Z3","plan_kmh":16.2,"kmh_p15":[null,null,null,null,12.1,11.9,11.4,10.8,10.5,10.8,11.4,11.9,12.1,11.9,11.5,10.9,10.3,10.3,10.9,11.5,12.0,12.1,null,12.2],"kmh_p50":[null,null,null,null,15.2,14.9,14.3,13.5,13.1,13.5,14.3,14.9,15.1,14.9,14.4,13.6,12.9,12.9,13.6,14.4,14.9,15.2,null,15.3],"kmh_p85":[null,null,null,null,17.9,17.6,16.9,15.9,15.5,15.9,16.9,17.6,17.8,17.6,17.0,16.0,15.2,15.2,16.0,17.0,17.6,17.9,null,18.0],"n":null}},{"type":"Feature","geometry":{"type":"LineString","coordinates":[[22.0,50.05382],[21.99149,50.05319]]},"properties":{"id":"rzeszow-070","route":null,"mode":"bus","stop_from":"Przystanek A4","stop_to":"Przystanek B4","plan_kmh":17.6,"kmh_p15":[null,null,null,null,13.2,13.0,12.4,11.8,11.4,11.8,12.4,13.0,13.1,13.0,12.5,11.8,11.2,11.2,11.8,12.5,13.0,13.2,13.3,13.3],"kmh_p50":[null,null,null,null,16.5,16.2,15.6,14.7,14.3,14.7,15.6,16.2,16.4,16.2,15.7,14.8,14.1,14.1,14.8,15.7,16.3,16.5,16.6,16.6],"kmh_p85":[null,null,null,null,19.5,19.1,18.4,17.3,16.9,17.3,18.4,19.1,19.4,19.2,18.5,17.4,16.6,16.6,17.4,18.5,19.2,19.5,19.6,19.6],"n":null}},{"type":"Feature","geometry":{"type":"LineString","coordinates":[[21.99149,50.05319],[21.98381,50.05137]]},"properties":{"id":"rzeszow-071","route":null,"mode":"bus","stop_from":"Przystanek B4","stop_to":"Przystanek C4","plan_kmh":20.0,"kmh_p15":[null,null,null,null,15.1,14.8,14.2,13.4,13.0,13.4,14.2,14.8,15.0,14.8,14.3,13.5,12.8,12.8,13.5,14.3,14.8,15.1,15.1,15.1],"kmh_p50":[null,null,null,null,18.8,18.5,17.7,16.8,16.3,16.8,17.7,18.5,18.7,18.5,17.9,16.8,16.0,16.0,16.8,17.9,18.5,18.8,18.9,18.9],"kmh_p85":[null,null,null,null,22.2,21.8,20.9,19.8,19.2,19.8,20.9,21.8,22.1,21.8,21.1,19.9,18.9,18.9,19.9,21.1,21.9,22.2,22.3,22.3],"n":null}},{"type":"Feature","geometry":{"type":"LineString","coordinates":[[21.98381,50.05137],[21.97772,50.04854]]},"properties":{"id":"rzeszow-072","route":null,"mode":"bus","stop_from":"Przystanek C4","stop_to":"Przystanek D4","plan_kmh":22.6,"kmh_p15":[null,null,null,null,16.9,16.6,16.0,15.1,14.7,15.1,16.0,16.6,16.9,16.7,16.1,15.2,14.4,14.4,15.2,16.1,16.7,null,17.0,17.0],"kmh_p50":[null,null,null,null,21.2,20.8,20.0,18.9,18.3,18.9,20.0,20.8,21.1,20.8,20.1,19.0,18.0,18.0,19.0,20.1,20.9,null,21.3,21.3],"kmh_p85":[null,null,null,null,25.0,24.6,23.6,22.3,21.6,22.3,23.6,24.5,24.9,24.6,23.7,22.4,21.3,21.3,22.4,23.7,24.6,null,25.1,25.1],"n":null}},{"type":"Feature","geometry":{"type":"LineString","coordinates":[[21.97772,50.04854],[21.97381,50.04496]]},"properties":{"id":"rzeszow-073","route":null,"mode":"bus","stop_from":"Przystanek D4","stop_to":"Przystanek E4","plan_kmh":19.4,"kmh_p15":[null,null,null,14.6,14.5,14.3,null,13.0,12.6,13.0,13.7,14.3,14.5,14.3,13.8,13.0,12.4,12.4,13.0,13.8,14.3,14.5,14.6,14.6],"kmh_p50":[null,null,null,18.3,18.2,17.9,null,16.2,15.7,16.2,17.1,17.8,18.1,17.9,17.3,16.3,15.5,15.5,16.3,17.3,17.9,18.2,18.3,18.3],"kmh_p85":[null,null,null,21.6,21.5,21.1,null,19.1,18.6,19.1,20.2,21.1,21.3,21.1,20.4,19.2,18.3,18.3,19.2,20.4,21.1,21.5,21.6,21.6],"n":null}},{"type":"Feature","geometry":{"type":"LineString","coordinates":[[21.97246,50.041],[21.97381,50.03704]]},"properties":{"id":"rzeszow-074","route":null,"mode":"bus","stop_from":"Przystanek F4","stop_to":"Przystanek G4","plan_kmh":null,"kmh_p15":[null,null,null,null,null,null,null,null,null,null,null,null,null,null,null,null,null,null,null,null,null,null,null,null],"kmh_p50":[null,null,null,null,null,null,null,null,null,null,null,null,null,null,null,null,null,null,null,null,null,null,null,null],"kmh_p85":[null,null,null,null,null,null,null,null,null,null,null,null,null,null,null,null,null,null,null,null,null,null,null,null],"n":null}},{"type":"Feature","geometry":{"type":"LineString","coordinates":[[21.97381,50.03704],[21.97772,50.03346]]},"properties":{"id":"rzeszow-075","route":null,"mode":"bus","stop_from":"Przystanek G4","stop_to":"Przystanek H4","plan_kmh":15.7,"kmh_p15":[null,null,null,null,11.8,11.6,11.1,10.5,10.2,10.5,11.1,11.6,11.7,11.6,11.2,10.6,10.1,10.1,10.6,11.2,11.6,11.8,11.9,null],"kmh_p50":[null,null,null,null,14.8,14.5,13.9,13.1,12.8,13.1,13.9,14.5,14.7,14.5,14.0,13.2,12.6,12.6,13.2,14.0,14.5,14.8,14.8,null],"kmh_p85":[null,null,null,null,17.4,17.1,16.4,15.5,15.1,15.5,16.4,17.1,17.3,17.1,16.5,15.6,14.8,14.8,15.6,16.5,17.1,17.4,17.5,null],"n":null}},{"type":"Feature","geometry":{"type":"LineString","coordinates":[[21.97772,50.03346],[21.98381,50.03063]]},"properties":{"id":"rzeszow-076","route":null,"mode":"bus","stop_from":"Przystanek H4","stop_to":"Przystanek I4","plan_kmh":20.6,"kmh_p15":[15.5,null,null,null,15.4,15.1,14.5,13.7,null,13.7,14.5,15.1,15.3,15.2,14.6,13.8,13.1,13.1,13.8,14.6,15.2,15.4,15.5,15.5],"kmh_p50":[19.4,null,null,null,19.2,18.9,18.1,17.1,null,17.1,18.1,18.9,19.1,18.9,18.3,17.2,16.4,16.4,17.2,18.3,19.0,19.3,19.3,19.4],"kmh_p85":[22.8,null,null,null,22.7,22.3,21.4,20.2,null,20.2,21.4,22.3,22.6,22.3,21.6,20.3,19.3,19.3,20.3,21.6,22.4,22.7,22.8,22.8],"n":null}},{"type":"Feature","geometry":{"type":"LineString","coordinates":[[21.98381,50.03063],[21.99149,50.02881]]},"properties":{"id":"rzeszow-077","route":null,"mode":"bus","stop_from":"Przystanek I4","stop_to":"Przystanek J4","plan_kmh":22.7,"kmh_p15":[null,null,null,null,17.0,16.7,16.1,15.2,null,15.2,16.1,16.7,16.9,16.8,16.2,15.2,14.5,14.5,15.2,16.2,16.8,17.0,null,17.1],"kmh_p50":[null,null,null,null,21.3,20.9,20.1,19.0,null,19.0,20.1,20.9,21.2,21.0,20.2,19.1,18.1,18.1,19.1,20.2,21.0,21.3,null,21.4],"kmh_p85":[null,null,null,null,25.1,24.7,23.7,22.4,null,22.4,23.7,24.7,25.0,24.7,23.8,22.5,21.4,21.4,22.5,23.8,24.7,25.1,null,25.3],"n":null}},{"type":"Feature","geometry":{"type":"LineString","coordinates":[[22.0,50.02818],[22.00851,50.02881]]},"properties":{"id":"rzeszow-078","route":null,"mode":"bus","stop_from":"Przystanek K4","stop_to":"Przystanek L4","plan_kmh":19.0,"kmh_p15":[null,null,null,null,14.2,14.0,13.4,12.7,12.3,12.7,13.4,14.0,14.2,14.0,13.5,12.8,12.1,12.1,12.8,13.5,14.0,14.3,null,14.3],"kmh_p50":[null,null,null,null,17.8,17.5,16.8,15.9,15.4,15.9,16.8,17.5,17.7,17.5,16.9,15.9,15.2,15.2,15.9,16.9,17.5,17.8,null,17.9],"kmh_p85":[null,null,null,null,21.0,20.6,19.8,18.7,18.2,18.7,19.8,20.6,20.9,20.7,19.9,18.8,17.9,17.9,18.8,19.9,20.7,21.0,null,21.1],"n":null}},{"type":"Feature","geometry":{"type":"LineString","coordinates":[[22.00851,50.02881],[22.01619,50.03063]]},"properties":{"id":"rzeszow-079","route":null,"mode":"bus","stop_from":"Przystanek L4","stop_to":"Przystanek M4","plan_kmh":12.8,"kmh_p15":[null,null,null,null,9.6,9.4,9.1,8.6,8.3,8.6,9.1,9.4,9.6,9.5,9.1,8.6,8.2,8.2,8.6,9.1,9.5,null,null,9.7],"kmh_p50":[null,null,null,null,12.0,11.8,11.3,10.7,10.4,10.7,11.3,11.8,11.9,11.8,11.4,10.8,10.2,10.2,10.8,11.4,11.8,null,null,12.1],"kmh_p85":[null,null,null,null,14.2,13.9,13.4,12.6,12.3,12.6,13.4,13.9,14.1,13.9,13.4,12.7,12.1,12.1,12.7,13.5,14.0,null,null,14.3],"n":null}},{"type":"Feature","geometry":{"type":"LineString","coordinates":[[22.01619,50.03063],[22.02228,50.03346]]},"properties":{"id":"rzeszow-080","route":null,"mode":"bus","stop_from":"Przystanek M4","stop_to":"Przystanek N4","plan_kmh":22.4,"kmh_p15":[null,null,null,null,16.8,16.5,15.8,14.9,14.5,14.9,15.8,16.5,16.7,16.5,15.9,15.0,14.3,14.3,15.0,15.9,16.5,16.8,null,16.9],"kmh_p50":[null,null,null,null,21.0,20.6,19.8,18.7,18.1,18.7,19.7,20.6,20.8,20.6,19.9,18.8,17.8,17.8,18.8,19.9,20.6,21.0,null,21.1],"kmh_p85":[null,null,null,null,24.7,24.3,23.3,22.0,21.4,22.0,23.3,24.3,24.6,24.3,23.5,22.1,21.1,21.1,22.1,23.5,24.4,24.7,null,24.9],"n":null}},{"type":"Feature","geometry":{"type":"LineString","coordinates":[[22.02228,50.03346],[22.02619,50.03704]]},"properties":{"id":"rzeszow-081","route":null,"mode":"bus","stop_from":"Przystanek N4","stop_to":"Przystanek O4","plan_kmh":null,"kmh_p15":[null,null,null,null,null,null,null,null,null,null,null,null,null,null,null,null,null,null,null,null,null,null,null,null],"kmh_p50":[null,null,null,null,null,null,null,null,null,null,null,null,null,null,null,null,null,null,null,null,null,null,null,null],"kmh_p85":[null,null,null,null,null,null,null,null,null,null,null,null,null,null,null,null,null,null,null,null,null,null,null,null],"n":null}},{"type":"Feature","geometry":{"type":"LineString","coordinates":[[22.05114,50.041],[22.04864,50.04836]]},"properties":{"id":"rzeszow-082","route":null,"mode":"bus","stop_from":"Przystanek Q4","stop_to":"Przystanek R4","plan_kmh":27.3,"kmh_p15":[null,null,20.7,20.7,20.6,20.2,19.4,18.3,17.8,18.3,19.4,null,20.4,20.2,19.5,18.4,17.5,17.5,18.4,19.5,20.2,20.6,20.7,20.7],"kmh_p50":[null,null,25.8,25.8,25.7,25.2,24.2,22.9,22.2,22.9,24.2,null,25.6,25.3,24.4,23.0,21.9,21.9,23.0,24.4,25.3,25.7,25.8,25.8],"kmh_p85":[null,null,30.5,30.5,30.3,29.8,28.6,27.0,26.2,27.0,28.6,null,30.2,29.8,28.8,27.1,25.8,25.8,27.1,28.8,29.9,30.3,30.5,30.5],"n":null}},{"type":"Feature","geometry":{"type":"LineString","coordinates":[[22.04864,50.04836],[22.04137,50.05499]]},"properties":{"id":"rzeszow-083","route":null,"mode":"bus","stop_from":"Przystanek R4","stop_to":"Przystanek S4","plan_kmh":21.0,"kmh_p15":[15.8,null,null,null,15.7,15.4,14.8,14.0,13.6,14.0,14.8,15.4,15.6,15.5,14.9,14.1,13.4,13.4,14.1,14.9,15.5,15.7,15.8,15.8],"kmh_p50":[19.8,null,null,null,19.6,19.3,18.5,17.5,17.0,17.5,18.5,19.3,19.5,19.3,18.6,17.6,16.7,16.7,17.6,18.6,19.3,19.6,19.7,19.8],"kmh_p85":[23.3,null,null,null,23.2,22.8,21.8,20.6,20.0,20.6,21.8,22.7,23.0,22.8,22.0,20.7,19.7,19.7,20.7,22.0,22.8,23.2,23.3,23.3],"n":null}},{"type":"Feature","geometry":{"type":"LineString","coordinates":[[22.04137,50.05499],[22.03006,50.06026]]},"properties":{"id":"rzeszow-084","route":null,"mode":"bus","stop_from":"Przystanek S4","stop_to":"Przystanek T4","plan_kmh":22.8,"kmh_p15":[17.2,null,null,null,17.1,16.8,16.1,15.2,14.8,15.2,16.1,16.8,17.0,16.8,16.2,15.3,14.6,14.6,15.3,16.2,16.8,17.1,17.2,17.2],"kmh_p50":[21.5,null,null,null,21.4,21.0,20.2,19.0,18.5,19.0,20.1,21.0,21.3,21.0,20.3,19.1,18.2,18.2,19.1,20.3,21.1,21.4,21.5,21.5],"kmh_p85":[25.4,null,null,null,25.2,24.8,23.8,22.5,21.8,22.5,23.8,24.8,25.1,24.8,23.9,22.6,21.5,21.5,22.6,23.9,24.8,25.2,25.4,25.4],"n":null}},{"type":"Feature","geometry":{"type":"LineString","coordinates":[[22.03006,50.06026],[22.0158,50.06364]]},"properties":{"id":"rzeszow-085","route":null,"mode":"bus","stop_from":"Przystanek T4","stop_to":"Przystanek U4","plan_kmh":21.7,"kmh_p15":[null,null,null,null,16.3,16.0,15.4,14.5,14.1,14.5,15.4,16.0,16.2,16.0,15.5,14.6,13.9,13.9,14.6,15.5,16.0,16.3,null,16.4],"kmh_p50":[null,null,null,null,20.4,20.0,19.2,18.1,17.6,18.1,19.2,20.0,20.3,20.0,19.3,18.2,17.3,17.3,18.2,19.3,20.1,20.4,null,20.5],"kmh_p85":[null,null,null,null,24.0,23.6,22.7,21.4,20.8,21.4,22.7,23.6,23.9,23.7,22.8,21.5,20.5,20.5,21.5,22.8,23.7,24.0,null,24.2],"n":null}},{"type":"Feature","geometry":{"type":"LineString","coordinates":[[22.0158,50.06364],[22.0,50.06481]]},"properties":{"id":"rzeszow-086","route":null,"mode":"bus","stop_from":"Przystanek U4","stop_to":"Przystanek V4","plan_kmh":26.3,"kmh_p15":[null,null,null,null,19.7,19.4,18.6,17.6,17.0,17.6,18.6,19.3,19.6,19.4,18.7,17.6,16.8,16.8,17.6,18.7,19.4,19.7,19.8,19.8],"kmh_p50":[null,null,null,null,24.6,24.2,23.2,21.9,21.3,21.9,23.2,24.2,24.5,24.2,23.4,22.1,21.0,21.0,22.1,23.4,24.3,24.6,24.8,24.8],"kmh_p85":[null,null,null,null,29.1,28.6,27.4,25.9,25.1,25.9,27.4,28.5,28.9,28.6,27.6,26.0,24.8,24.8,26.0,27.6,28.6,29.1,29.2,29.2],"n":null}},{"type":"Feature","geometry":{"type":"LineString","coordinates":[[22.0,50.06481],[21.9842,50.06364]]},"properties":{"id":"rzeszow-087","route":null,"mode":"bus","stop_from":"Przystanek V4","stop_to":"Przystanek W4","plan_kmh":29.4,"kmh_p15":[null,null,22.2,null,22.0,21.7,20.8,19.6,19.1,19.6,20.8,21.6,21.9,21.7,20.9,19.7,18.8,18.8,19.7,20.9,21.7,22.0,null,22.2],"kmh_p50":[null,null,27.7,null,27.6,27.1,26.0,24.5,23.8,24.5,26.0,27.0,27.4,27.1,26.1,24.7,23.5,23.5,24.7,26.1,27.1,27.6,null,27.7],"kmh_p85":[null,null,32.7,null,32.5,31.9,30.6,29.0,28.1,29.0,30.6,31.9,32.3,32.0,30.9,29.1,27.7,27.7,29.1,30.9,32.0,32.5,null,32.7],"n":null}},{"type":"Feature","geometry":{"type":"LineString","coordinates":[[21.9842,50.06364],[21.96994,50.06026]]},"properties":{"id":"rzeszow-088","route":null,"mode":"bus","stop_from":"Przystanek W4","stop_to":"Przystanek X4","plan_kmh":29.8,"kmh_p15":[null,null,null,null,22.4,22.0,21.1,19.9,19.4,19.9,21.1,22.0,22.3,22.0,21.2,20.0,19.1,19.1,20.0,null,22.0,22.4,22.5,22.5],"kmh_p50":[null,null,null,null,28.0,27.5,26.4,24.9,24.2,24.9,26.4,27.5,27.8,27.5,26.6,25.1,23.8,23.8,25.1,null,27.6,28.0,28.1,28.1],"kmh_p85":[null,null,null,null,33.0,32.4,31.1,29.4,28.6,29.4,31.1,32.4,32.8,32.5,31.3,29.6,28.1,28.1,29.6,null,32.5,33.0,33.2,33.2],"n":null}},{"type":"Feature","geometry":{"type":"LineString","coordinates":[[21.96994,50.06026],[21.95863,50.05499]]},"properties":{"id":"rzeszow-089","route":null,"mode":"bus","stop_from":"Przystanek X4","stop_to":"Przystanek Y4","plan_kmh":27.1,"kmh_p15":[null,null,null,null,20.5,20.1,19.3,18.2,17.7,18.2,19.3,20.1,20.4,20.1,19.4,18.3,17.4,17.4,18.3,19.4,20.2,20.5,null,null],"kmh_p50":[null,null,null,null,25.6,25.1,24.1,22.8,22.1,22.8,24.1,25.1,25.4,25.2,24.3,22.9,21.8,21.8,22.9,24.3,25.2,25.6,null,null],"kmh_p85":[null,null,null,null,30.2,29.7,28.5,26.9,26.1,26.9,28.5,29.6,30.0,29.7,28.6,27.0,25.7,25.7,27.0,28.7,29.7,30.2,null,null],"n":null}},{"type":"Feature","geometry":{"type":"LineString","coordinates":[[21.95863,50.05499],[21.95136,50.04836]]},"properties":{"id":"rzeszow-090","route":null,"mode":"bus","stop_from":"Przystanek Y4","stop_to":"Przystanek Z4","plan_kmh":24.7,"kmh_p15":[null,null,null,null,18.7,18.3,17.6,16.6,16.2,16.6,17.6,18.3,18.6,18.4,17.7,16.7,15.9,15.9,16.7,17.7,18.4,18.7,null,null],"kmh_p50":[null,null,null,null,23.3,22.9,22.0,20.8,20.2,20.8,22.0,22.9,23.2,23.0,22.2,20.9,19.9,19.9,20.9,22.2,23.0,23.3,null,null],"kmh_p85":[null,null,null,null,27.5,27.1,26.0,24.5,23.8,24.5,26.0,27.0,27.4,27.1,26.1,24.7,23.5,23.5,24.7,26.1,27.1,27.6,null,null],"n":null}},{"type":"Feature","geometry":{"type":"LineString","coordinates":[[21.95136,50.04836],[21.94886,50.041]]},"properties":{"id":"rzeszow-091","route":null,"mode":"bus","stop_from":"Przystanek Z4","stop_to":"Przystanek A5","plan_kmh":30.2,"kmh_p15":[null,22.8,null,22.8,22.7,22.3,21.4,20.2,19.6,20.2,21.4,22.2,22.5,22.3,21.5,20.3,19.3,19.3,20.3,21.5,22.3,22.7,null,22.8],"kmh_p50":[null,28.5,null,28.5,28.3,27.8,26.7,25.2,24.5,25.2,26.7,27.8,28.2,27.9,26.9,25.4,24.1,24.1,25.4,26.9,27.9,28.3,null,28.5],"kmh_p85":[null,33.6,null,33.6,33.4,32.8,31.5,29.8,28.9,29.8,31.5,32.8,33.2,32.9,31.7,29.9,28.5,28.5,29.9,31.7,32.9,33.4,null,33.6],"n":null}},{"type":"Feature","geometry":{"type":"LineString","coordinates":[[21.94886,50.041],[21.95136,50.03364]]},"properties":{"id":"rzeszow-092","route":null,"mode":"bus","stop_from":"Przystanek A5","stop_to":"Przystanek B5","plan_kmh":23.3,"kmh_p15":[null,null,17.6,null,17.5,17.2,16.5,15.6,15.1,15.6,16.5,17.2,17.4,17.2,16.6,15.7,14.9,14.9,15.7,16.6,17.2,17.5,null,null],"kmh_p50":[null,null,22.0,null,21.9,21.5,20.6,19.5,18.9,19.5,20.6,21.5,21.7,21.5,20.7,19.6,18.6,18.6,19.6,20.8,21.5,21.9,null,null],"kmh_p85":[null,null,26.0,null,25.8,25.4,24.3,23.0,22.3,23.0,24.3,25.3,25.7,25.4,24.5,23.1,22.0,22.0,23.1,24.5,25.4,25.8,null,null],"n":null}},{"type":"Feature","geometry":{"type":"LineString","coordinates":[[21.95136,50.03364],[21.95863,50.02701]]},"properties":{"id":"rzeszow-093","route":null,"mode":"bus","stop_from":"Przystanek B5","stop_to":"Przystanek C5","plan_kmh":29.7,"kmh_p15":[null,null,null,null,22.3,21.9,21.0,19.8,19.2,19.8,21.0,21.8,22.1,21.9,21.1,19.9,18.9,18.9,19.9,21.1,21.9,22.3,22.4,22.4],"kmh_p50":[null,null,null,null,27.8,27.3,26.2,24.8,24.1,24.8,26.2,27.3,27.7,27.4,26.4,24.9,23.7,23.7,24.9,26.4,27.4,27.8,27.9,28.0],"kmh_p85":[null,null,null,null,32.8,32.2,30.9,29.2,28.4,29.2,30.9,32.2,32.6,32.3,31.1,29.4,27.9,27.9,29.4,31.1,32.3,32.8,33.0,33.0],"n":null}},{"type":"Feature","geometry":{"type":"LineString","coordinates":[[21.95863,50.02701],[21.96994,50.02174]]},"properties":{"id":"rzeszow-094","route":null,"mode":"bus","stop_from":"Przystanek C5","stop_to":"Przystanek D5","plan_kmh":null,"kmh_p15":[null,null,null,null,null,null,null,null,null,null,null,null,null,null,null,null,null,null,null,null,null,null,null,null],"kmh_p50":[null,null,null,null,null,null,null,null,null,null,null,null,null,null,null,null,null,null,null,null,null,null,null,null],"kmh_p85":[null,null,null,null,null,null,null,null,null,null,null,null,null,null,null,null,null,null,null,null,null,null,null,null],"n":null}},{"type":"Feature","geometry":{"type":"LineString","coordinates":[[21.96994,50.02174],[21.9842,50.01836]]},"properties":{"id":"rzeszow-095","route":null,"mode":"bus","stop_from":"Przystanek D5","stop_to":"Przystanek E5","plan_kmh":30.1,"kmh_p15":[null,null,null,22.7,22.6,22.2,21.3,20.1,null,20.1,21.3,22.2,22.5,22.2,21.5,20.2,19.3,19.3,20.2,21.5,22.3,22.6,22.7,null],"kmh_p50":[null,null,null,28.4,28.3,27.8,26.6,25.2,null,25.2,26.6,27.7,28.1,27.8,26.8,25.3,24.1,24.1,25.3,26.8,27.8,28.3,28.4,null],"kmh_p85":[null,null,null,33.5,33.4,32.8,31.4,29.7,null,29.7,31.4,32.7,33.2,32.8,31.6,29.9,28.4,28.4,29.9,31.7,32.8,33.4,33.5,null],"n":null}},{"type":"Feature","geometry":{"type":"LineString","coordinates":[[21.9842,50.01836],[22.0,50.01719]]},"properties":{"id":"rzeszow-096","route":null,"mode":"bus","stop_from":"Przystanek E5","stop_to":"Przystanek F5","plan_kmh":25.0,"kmh_p15":[null,null,18.9,null,18.8,18.4,17.7,16.7,16.2,16.7,17.7,18.4,18.7,18.5,17.8,16.8,16.0,16.0,16.8,17.8,18.5,18.8,18.9,null],"kmh_p50":[null,null,23.6,null,23.5,23.1,22.1,20.9,20.3,20.9,22.1,23.0,23.3,23.1,22.3,21.0,20.0,20.0,21.0,22.3,23.1,23.5,23.6,null],"kmh_p85":[null,null,27.8,null,27.7,27.2,26.1,24.7,24.0,24.7,26.1,27.2,27.5,27.2,26.3,24.8,23.6,23.6,24.8,26.3,27.3,27.7,27.8,null],"n":null}},{"type":"Feature","geometry":{"type":"LineString","coordinates":[[22.0,50.01719],[22.0158,50.01836]]},"properties":{"id":"rzeszow-097","route":null,"mode":"bus","stop_from":"Przystanek F5","stop_to":"Przystanek G5","plan_kmh":24.2,"kmh_p15":[null,null,null,null,18.1,17.8,17.1,16.1,15.7,16.1,17.1,17.8,18.0,17.8,17.2,16.2,15.4,15.4,16.2,17.2,17.9,18.1,null,18.2],"kmh_p50":[null,null,null,null,22.7,22.3,21.4,20.2,19.6,20.2,21.4,22.2,22.5,22.3,21.5,20.3,19.3,19.3,20.3,21.5,22.3,22.7,null,22.8],"kmh_p85":[null,null,null,null,26.7,26.3,25.2,23.8,23.1,23.8,25.2,26.2,26.6,26.3,25.4,23.9,22.8,22.8,23.9,25.4,26.3,26.7,null,26.9],"n":null}},{"type":"Feature","geometry":{"type":"LineString","coordinates":[[22.0158,50.01836],[22.03006,50.02174]]},"properties":{"id":"rzeszow-098","route":null,"mode":"bus","stop_from":"Przystanek G5","stop_to":"Przystanek H5","plan_kmh":21.0,"kmh_p15":[15.9,null,null,null,15.8,15.5,14.9,14.0,13.6,14.0,14.9,15.5,15.7,15.5,15.0,14.1,13.4,13.4,14.1,15.0,15.5,15.8,null,15.9],"kmh_p50":[19.8,null,null,null,19.7,19.4,18.6,17.6,17.0,17.6,18.6,19.3,19.6,19.4,18.7,17.6,16.8,16.8,17.6,18.7,19.4,19.7,null,19.8],"kmh_p85":[23.4,null,null,null,23.3,22.9,21.9,20.7,20.1,20.7,21.9,22.8,23.1,22.9,22.1,20.8,19.8,19.8,20.8,22.1,22.9,23.3,null,23.4],"n":null}},{"type":"Feature","geometry":{"type":"LineString","coordinates":[[22.03006,50.02174],[22.04137,50.02701]]},"properties":{"id":"rzeszow-099","route":null,"mode":"bus","stop_from":"Przystanek H5","stop_to":"Przystanek I5","plan_kmh":21.6,"kmh_p15":[null,null,null,null,16.3,16.1,15.4,14.6,14.1,14.6,15.4,16.0,16.3,16.1,15.5,14.6,13.9,13.9,14.6,15.5,16.1,16.4,null,null],"kmh_p50":[null,null,null,null,20.4,20.1,19.3,18.2,17.7,18.2,19.3,20.1,20.3,20.1,19.4,18.3,17.4,17.4,18.3,19.4,20.1,20.4,null,null],"kmh_p85":[null,null,null,null,24.1,23.7,22.7,21.5,20.9,21.5,22.7,23.7,24.0,23.7,22.9,21.6,20.5,20.5,21.6,22.9,23.7,24.1,null,null],"n":null}},{"type":"Feature","geometry":{"type":"LineString","coordinates":[[22.04137,50.02701],[22.04864,50.03364]]},"properties":{"id":"rzeszow-100","route":null,"mode":"bus","stop_from":"Przystanek I5","stop_to":"Przystanek J5","plan_kmh":26.0,"kmh_p15":[null,null,19.6,null,19.5,19.1,18.3,17.3,16.8,17.3,18.3,19.1,19.3,19.1,18.5,17.4,16.6,16.6,17.4,18.5,19.2,19.5,null,19.6],"kmh_p50":[null,null,24.5,null,24.3,23.9,22.9,21.7,21.0,21.7,22.9,23.9,24.2,23.9,23.1,21.8,20.7,20.7,21.8,23.1,24.0,24.3,null,24.5],"kmh_p85":[null,null,28.9,null,28.7,28.2,27.0,25.6,24.8,25.6,27.0,28.2,28.5,28.2,27.2,25.7,24.4,24.4,25.7,27.2,28.3,28.7,null,28.9],"n":null}},{"type":"Feature","geometry":{"type":"LineString","coordinates":[[22.04864,50.03364],[22.05114,50.041]]},"properties":{"id":"rzeszow-101","route":null,"mode":"bus","stop_from":"Przystanek J5","stop_to":"Przystanek K5","plan_kmh":20.6,"kmh_p15":[null,null,null,null,15.5,15.2,14.6,13.8,13.4,13.8,14.6,15.2,15.4,15.2,14.7,13.8,13.2,13.2,13.8,14.7,15.2,15.5,15.5,null],"kmh_p50":[null,null,null,null,19.3,19.0,18.2,17.2,16.7,17.2,18.2,19.0,19.2,19.0,18.3,17.3,16.5,16.5,17.3,18.3,19.0,19.3,19.4,null],"kmh_p85":[null,null,null,null,22.8,22.4,21.5,20.3,19.7,20.3,21.5,22.4,22.7,22.4,21.6,20.4,19.4,19.4,20.4,21.6,22.5,22.8,22.9,null],"n":null}}]}