{"type":"FeatureCollection","features":[{"type":"Feature","geometry":{"type":"LineString","coordinates":[[21.012,52.23],[21.02828,52.23027]]},"properties":{"id":"warszawa-001","route":"11","mode":"tram","stop_from":"Przystanek A","stop_to":"Przystanek B","plan_kmh":10.4,"kmh_p15":[7.8,null,null,null,7.8,7.6,7.3,6.9,6.7,6.9,7.3,7.6,7.7,7.6,7.4,6.9,6.6,6.6,6.9,7.4,7.6,7.8,7.8,7.8],"kmh_p50":[9.8,null,null,null,9.7,9.5,9.1,8.6,8.4,8.6,9.1,9.5,9.6,9.5,9.2,8.7,8.3,8.3,8.7,9.2,9.6,9.7,9.7,9.8],"kmh_p85":[11.5,null,null,null,11.4,11.2,10.8,10.2,9.9,10.2,10.8,11.2,11.4,11.3,10.9,10.2,9.7,9.7,10.2,10.9,11.3,11.4,11.5,11.5],"n":null}},{"type":"Feature","geometry":{"type":"LineString","coordinates":[[21.02828,52.23027],[21.04453,52.2309]]},"properties":{"id":"warszawa-002","route":"11","mode":"tram","stop_from":"Przystanek B","stop_to":"Przystanek C","plan_kmh":14.8,"kmh_p15":[null,null,null,null,11.1,10.9,10.5,9.9,9.6,9.9,10.5,10.9,11.1,10.9,10.6,10.0,9.5,9.5,10.0,10.6,11.0,11.1,11.2,11.2],"kmh_p50":[null,null,null,null,13.9,13.7,13.1,12.4,12.0,12.4,13.1,13.6,13.8,13.7,13.2,12.4,11.8,11.8,12.4,13.2,13.7,13.9,14.0,14.0],"kmh_p85":[null,null,null,null,16.4,16.1,15.5,14.6,14.2,14.6,15.5,16.1,16.3,16.1,15.6,14.7,14.0,14.0,14.7,15.6,16.2,16.4,16.5,16.5],"n":null}},{"type":"Feature","geometry":{"type":"LineString","coordinates":[[21.04453,52.2309],[21.06087,52.23056]]},"properties":{"id":"warszawa-003","route":"11","mode":"tram","stop_from":"Przystanek C","stop_to":"Przystanek D","plan_kmh":12.4,"kmh_p15":[null,9.4,null,9.4,9.3,9.2,8.8,8.3,8.1,8.3,8.8,9.2,9.3,9.2,8.9,8.4,7.9,7.9,8.4,8.9,9.2,9.3,9.4,9.4],"kmh_p50":[null,11.7,null,11.7,11.7,11.5,11.0,10.4,10.1,10.4,11.0,11.5,11.6,11.5,11.1,10.4,9.9,9.9,10.4,11.1,11.5,11.7,11.7,11.7],"kmh_p85":[null,13.9,null,13.8,13.8,13.5,13.0,12.3,11.9,12.3,13.0,13.5,13.7,13.6,13.1,12.3,11.7,11.7,12.3,13.1,13.6,13.8,13.8,13.8],"n":null}},{"type":"Feature","geometry":{"type":"LineString","coordinates":[[21.06087,52.23056],[21.07713,52.23123]]},"properties":{"id":"warszawa-004","route":"11","mode":"tram","stop_from":"Przystanek D","stop_to":"Przystanek E","plan_kmh":24.0,"kmh_p15":[null,18.1,null,null,18.0,17.6,16.9,16.0,15.5,16.0,16.9,17.6,17.9,null,17.0,16.1,15.3,15.3,16.1,17.0,17.7,18.0,null,18.1],"kmh_p50":[null,22.6,null,null,22.4,22.0,21.1,20.0,19.4,20.0,21.1,22.0,22.3,null,21.3,20.1,19.1,19.1,20.1,21.3,22.1,22.4,null,22.6],"kmh_p85":[null,26.6,null,null,26.5,26.0,25.0,23.6,22.9,23.6,25.0,26.0,26.3,null,25.1,23.7,22.5,22.5,23.7,25.1,26.1,26.5,null,26.6],"n":null}},{"type":"Feature","geometry":{"type":"LineString","coordinates":[[21.07713,52.23123],[21.09343,52.23125]]},"properties":{"id":"warszawa-005","route":"11","mode":"tram","stop_from":"Przystanek E","stop_to":"Przystanek F","plan_kmh":19.6,"kmh_p15":[null,null,null,null,14.7,14.4,13.8,13.1,12.7,13.1,13.8,14.4,14.6,14.4,13.9,13.1,12.5,12.5,13.1,13.9,14.5,14.7,14.7,14.8],"kmh_p50":[null,null,null,null,18.3,18.0,17.3,16.3,15.9,16.3,17.3,18.0,18.2,18.1,17.4,16.4,15.6,15.6,16.4,17.4,18.1,18.4,18.4,18.5],"kmh_p85":[null,null,null,null,21.7,21.3,20.4,19.3,18.7,19.3,20.4,21.3,21.5,21.3,20.5,19.4,18.4,18.4,19.4,20.5,21.3,21.7,21.8,21.8],"n":null}},{"type":"Feature","geometry":{"type":"LineString","coordinates":[[21.09343,52.23125],[21.10955,52.23294]]},"properties":{"id":"warszawa-006","route":"11","mode":"tram","stop_from":"Przystanek F","stop_to":"Przystanek G","plan_kmh":23.1,"kmh_p15":[null,null,null,null,17.3,17.0,16.3,15.4,15.0,15.4,16.3,17.0,17.2,17.1,16.4,15.5,14.8,14.8,15.5,16.4,17.1,17.3,17.4,null],"kmh_p50":[null,null,null,null,21.7,21.3,20.4,19.3,18.7,19.3,20.4,21.3,21.5,21.3,20.6,19.4,18.4,18.4,19.4,20.6,21.3,21.7,21.8,null],"kmh_p85":[null,null,null,null,25.6,25.1,24.1,22.8,22.1,22.8,24.1,25.1,25.4,25.2,24.3,22.9,21.8,21.8,22.9,24.3,25.2,25.6,25.7,null],"n":null}},{"type":"Feature","geometry":{"type":"LineString","coordinates":[[21.10955,52.23294],[21.12604,52.23117]]},"properties":{"id":"warszawa-007","route":"11","mode":"tram","stop_from":"Przystanek G","stop_to":"Przystanek H","plan_kmh":33.7,"kmh_p15":[null,null,null,null,25.3,24.9,23.9,22.5,21.9,22.5,null,24.9,25.2,24.9,24.0,22.7,21.6,21.6,22.7,24.0,24.9,25.3,25.4,25.5],"kmh_p50":[null,null,null,null,31.7,31.1,29.8,28.2,27.4,28.2,null,31.1,31.5,31.1,30.0,28.3,26.9,26.9,28.3,30.0,31.2,31.7,31.8,31.8],"kmh_p85":[null,null,null,null,37.3,36.7,35.2,33.3,32.3,33.3,null,36.7,37.1,36.7,35.4,33.4,31.8,31.8,33.4,35.4,36.8,37.4,37.5,37.6],"n":null}},{"type":"Feature","geometry":{"type":"LineString","coordinates":[[21.12604,52.23117],[21.14194,52.23466]]},"properties":{"id":"warszawa-008","route":"11","mode":"tram","stop_from":"Przystanek H","stop_to":"Przystanek I","plan_kmh":32.1,"kmh_p15":[null,null,null,null,24.1,23.7,22.7,21.5,20.9,21.5,22.7,23.7,24.0,23.7,22.9,21.6,20.5,20.5,null,22.9,23.7,24.1,24.2,null],"kmh_p50":[null,null,null,null,30.1,29.6,28.4,26.8,26.1,26.8,28.4,29.6,30.0,29.6,28.6,27.0,25.7,25.7,null,28.6,29.7,30.1,30.3,null],"kmh_p85":[null,null,null,null,35.6,34.9,33.5,31.7,30.8,31.7,33.5,34.9,35.4,35.0,33.7,31.8,30.3,30.3,null,33.7,35.0,35.6,35.7,null],"n":null}},{"type":"Feature","geometry":{"type":"LineString","coordinates":[[21.14194,52.23466],[21.15857,52.23238]]},"properties":{"id":"warszawa-009","route":"11","mode":"tram","stop_from":"Przystanek I","stop_to":"Przystanek J","plan_kmh":34.9,"kmh_p15":[26.3,null,null,null,26.1,25.7,24.6,23.3,22.6,23.3,24.6,25.6,26.0,25.7,24.8,23.4,22.2,22.2,23.4,24.8,25.7,26.1,null,26.3],"kmh_p50":[32.9,null,null,null,32.7,32.1,30.8,29.1,28.3,29.1,30.8,32.1,32.5,32.1,31.0,29.2,27.8,27.8,29.2,31.0,32.2,32.7,null,32.8],"kmh_p85":[38.8,null,null,null,38.5,37.9,36.3,34.3,33.3,34.3,36.3,37.8,38.3,37.9,36.6,34.5,32.8,32.8,34.5,36.6,38.0,38.6,null,38.8],"n":null}},{"type":"Feature","geometry":{"type":"LineString","coordinates":[[21.012,52.23],[21.02286,52.23656]]},"properties":{"id":"warszawa-010","route":null,"mode":"bus","stop_from":"Przystanek K","stop_to":"Przystanek L","plan_kmh":16.3,"kmh_p15":[null,null,null,null,12.3,12.1,11.6,10.9,10.6,10.9,11.6,12.1,12.2,12.1,11.7,11.0,10.5,10.5,11.0,11.7,12.1,12.3,12.4,null],"kmh_p50":[null,null,null,null,15.4,15.1,14.5,13.7,13.3,13.7,14.5,15.1,15.3,15.1,14.6,13.8,13.1,13.1,13.8,14.6,15.1,15.4,15.4,null],"kmh_p85":[null,null,null,null,18.1,17.8,17.1,16.2,15.7,16.2,17.1,17.8,18.0,17.8,17.2,16.2,15.4,15.4,16.2,17.2,17.9,18.1,18.2,null],"n":null}},{"type":"Feature","geometry":{"type":"LineString","coordinates":[[21.02286,52.23656],[21.03551,52.24249]]},"properties":{"id":"warszawa-011","route":null,"mode":"bus","stop_from":"Przystanek L","stop_to":"Przystanek M","plan_kmh":null,"kmh_p15":[null,null,null,null,null,null,null,null,null,null,null,null,null,null,null,null,null,null,null,null,null,null,null,null],"kmh_p50":[null,null,null,null,null,null,null,null,null,null,null,null,null,null,null,null,null,null,null,null,null,null,null,null],"kmh_p85":[null,null,null,null,null,null,null,null,null,null,null,null,null,null,null,null,null,null,null,null,null,null,null,null],"n":null}},{"type":"Feature","geometry":{"type":"LineString","coordinates":[[21.03551,52.24249],[21.04671,52.24894]]},"properties":{"id":"warszawa-012","route":null,"mode":"bus","stop_from":"Przystanek M","stop_to":"Przystanek N","plan_kmh":16.1,"kmh_p15":[null,12.1,null,null,12.1,11.9,11.4,10.8,10.4,10.8,11.4,11.9,null,11.9,11.5,10.8,10.3,10.3,10.8,11.5,11.9,12.1,12.1,12.1],"kmh_p50":[null,15.2,null,null,15.1,14.8,14.2,13.4,13.1,13.4,14.2,14.8,null,14.9,14.3,13.5,12.9,12.9,13.5,14.3,14.9,15.1,15.2,15.2],"kmh_p85":[null,17.9,null,null,17.8,17.5,16.8,15.9,15.4,15.9,16.8,17.5,null,17.5,16.9,16.0,15.2,15.2,16.0,16.9,17.5,17.8,17.9,17.9],"n":null}},{"type":"Feature","geometry":{"type":"LineString","coordinates":[[21.04671,52.24894],[21.05871,52.2551]]},"properties":{"id":"warszawa-013","route":null,"mode":"bus","stop_from":"Przystanek N","stop_to":"Przystanek O","plan_kmh":23.1,"kmh_p15":[null,null,null,null,17.3,17.0,16.3,15.4,15.0,15.4,16.3,17.0,17.2,17.0,16.4,15.5,14.7,14.7,15.5,16.4,null,17.3,17.4,17.4],"kmh_p50":[null,null,null,null,21.6,21.3,20.4,19.3,18.7,19.3,20.4,21.2,21.5,21.3,20.5,19.4,18.4,18.4,19.4,20.5,null,21.6,21.7,21.8],"kmh_p85":[null,null,null,null,25.5,25.1,24.1,22.7,22.1,22.7,24.1,25.1,25.4,25.1,24.2,22.8,21.7,21.7,22.8,24.2,null,25.5,25.6,25.7],"n":null}},{"type":"Feature","geometry":{"type":"LineString","coordinates":[[21.05871,52.2551],[21.06911,52.26183]]},"properties":{"id":"warszawa-014","route":null,"mode":"bus","stop_from":"Przystanek O","stop_to":"Przystanek P","plan_kmh":24.9,"kmh_p15":[null,null,null,null,18.7,18.4,17.7,16.7,16.2,16.7,17.7,18.4,18.6,18.4,17.8,16.8,15.9,null,16.8,17.8,18.4,18.7,18.8,18.8],"kmh_p50":[null,null,null,null,23.4,23.0,22.1,20.8,20.3,20.8,22.1,23.0,23.3,23.0,22.2,21.0,19.9,null,21.0,22.2,23.1,23.4,23.5,23.5],"kmh_p85":[null,null,null,null,27.6,27.1,26.0,24.6,23.9,24.6,26.0,27.1,27.5,27.2,26.2,24.7,23.5,null,24.7,26.2,27.2,27.6,27.8,27.8],"n":null}},{"type":"Feature","geometry":{"type":"LineString","coordinates":[[21.06911,52.26183],[21.07936,52.26861]]},"properties":{"id":"warszawa-015","route":null,"mode":"bus","stop_from":"Przystanek P","stop_to":"Przystanek Q","plan_kmh":28.3,"kmh_p15":[null,21.4,21.4,null,21.3,20.9,20.0,18.9,18.4,18.9,20.0,20.9,21.1,20.9,20.2,19.0,18.1,18.1,19.0,20.2,20.9,21.3,21.4,21.4],"kmh_p50":[null,26.7,26.7,null,26.6,26.1,25.0,23.7,23.0,23.7,25.0,26.1,26.4,26.1,25.2,23.8,22.6,22.6,23.8,25.2,26.2,26.6,26.7,26.7],"kmh_p85":[null,31.5,31.5,null,31.4,30.8,29.5,27.9,27.1,27.9,29.5,30.8,31.2,30.8,29.7,28.1,26.7,26.7,28.1,29.8,30.9,31.4,31.5,31.5],"n":null}},{"type":"Feature","geometry":{"type":"LineString","coordinates":[[21.07936,52.26861],[21.08789,52.27595]]},"properties":{"id":"warszawa-016","route":null,"mode":"bus","stop_from":"Przystanek Q","stop_to":"Przystanek R","plan_kmh":30.8,"kmh_p15":[null,null,null,null,23.3,22.9,21.9,20.7,20.1,20.7,21.9,22.8,23.1,22.9,22.1,20.8,19.8,19.8,20.8,22.1,22.9,23.3,null,null],"kmh_p50":[null,null,null,null,29.1,28.6,27.4,25.9,25.2,25.9,27.4,28.5,28.9,28.6,27.6,26.0,24.8,24.8,26.0,27.6,28.6,29.1,null,null],"kmh_p85":[null,null,null,null,34.3,33.7,32.3,30.6,29.7,30.6,32.3,33.7,34.1,33.8,32.6,30.7,29.2,29.2,30.7,32.6,33.8,34.3,null,null],"n":null}},{"type":"Feature","geometry":{"type":"LineString","coordinates":[[21.08789,52.27595],[21.09806,52.28273]]},"properties":{"id":"warszawa-017","route":null,"mode":"bus","stop_from":"Przystanek R","stop_to":"Przystanek S","plan_kmh":37.5,"kmh_p15":[null,null,null,null,28.3,27.8,26.7,25.2,24.5,25.2,26.7,27.8,28.1,27.8,26.8,25.3,24.1,24.1,25.3,26.8,27.9,28.3,null,null],"kmh_p50":[null,null,null,null,35.4,34.7,33.3,31.5,30.6,31.5,33.3,34.7,35.2,34.8,33.5,31.6,30.1,30.1,31.6,33.6,34.8,35.4,null,null],"kmh_p85":[null,null,null,null,41.7,41.0,39.3,37.2,36.1,37.2,39.3,40.9,41.5,41.0,39.6,37.3,35.5,35.5,37.3,39.6,41.1,41.7,null,null],"n":null}},{"type":"Feature","geometry":{"type":"LineString","coordinates":[[21.012,52.23],[21.01047,52.2372]]},"properties":{"id":"warszawa-018","route":null,"mode":"tram","stop_from":"Przystanek T","stop_to":"Przystanek U","plan_kmh":14.0,"kmh_p15":[null,null,null,null,10.5,10.3,9.9,null,9.1,9.3,9.9,10.3,10.4,10.3,9.9,9.4,8.9,8.9,9.4,10.0,10.3,10.5,null,10.5],"kmh_p50":[null,null,null,null,13.1,12.9,12.4,null,11.3,11.7,12.4,12.9,13.0,12.9,12.4,11.7,11.2,11.2,11.7,12.4,12.9,13.1,null,13.2],"kmh_p85":[null,null,null,null,15.5,15.2,14.6,null,13.4,13.8,14.6,15.2,15.4,15.2,14.7,13.8,13.2,13.2,13.8,14.7,15.2,15.5,null,15.6],"n":null}},{"type":"Feature","geometry":{"type":"LineString","coordinates":[[21.01047,52.2372],[21.00883,52.2444]]},"properties":{"id":"warszawa-019","route":null,"mode":"tram","stop_from":"Przystanek U","stop_to":"Przystanek V","plan_kmh":16.7,"kmh_p15":[null,null,null,null,12.6,12.4,11.9,11.2,10.9,11.2,11.9,12.4,12.5,12.4,12.0,11.3,10.7,10.7,11.3,12.0,12.4,12.6,12.7,12.7],"kmh_p50":[null,null,null,null,15.8,15.5,14.9,14.0,13.6,14.0,14.8,15.5,15.7,15.5,15.0,14.1,13.4,13.4,14.1,15.0,15.5,15.8,15.8,15.8],"kmh_p85":[null,null,null,null,18.6,18.3,17.5,16.6,16.1,16.6,17.5,18.2,18.5,18.3,17.6,16.6,15.8,15.8,16.6,17.6,18.3,18.6,18.7,18.7],"n":null}},{"type":"Feature","geometry":{"type":"LineString","coordinates":[[21.00883,52.2444],[21.00646,52.25157]]},"properties":{"id":"warszawa-020","route":null,"mode":"tram","stop_from":"Przystanek V","stop_to":"Przystanek W","plan_kmh":19.8,"kmh_p15":[null,null,null,15.0,14.9,14.6,14.0,13.3,12.9,13.3,14.0,14.6,14.8,14.7,14.1,13.3,12.7,12.7,13.3,14.1,14.7,14.9,15.0,15.0],"kmh_p50":[null,null,null,18.7,18.6,18.3,17.6,16.6,16.1,16.6,17.6,18.3,18.5,18.3,17.7,16.7,15.9,15.9,16.7,17.7,18.3,18.6,18.7,18.7],"kmh_p85":[null,null,null,22.1,22.0,21.6,20.7,19.6,19.0,19.6,20.7,21.6,21.9,21.6,20.9,19.7,18.7,18.7,19.7,20.9,21.6,22.0,22.1,22.1],"n":null}},{"type":"Feature","geometry":{"type":"LineString","coordinates":[[21.00646,52.25157],[21.00066,52.2585]]},"properties":{"id":"warszawa-021","route":null,"mode":"tram","stop_from":"Przystanek W","stop_to":"Przystanek X","plan_kmh":null,"kmh_p15":[null,null,null,null,null,null,null,null,null,null,null,null,null,null,null,null,null,null,null,null,null,null,null,null],"kmh_p50":[null,null,null,null,null,null,null,null,null,null,null,null,null,null,null,null,null,null,null,null,null,null,null,null],"kmh_p85":[null,null,null,null,null,null,null,null,null,null,null,null,null,null,null,null,null,null,null,null,null,null,null,null],"n":null}},{"type":"Feature","geometry":{"type":"LineString","coordinates":[[21.00066,52.2585],[21.00379,52.26599]]},"properties":{"id":"warszawa-022","route":null,"mode":"tram","stop_from":"Przystanek X","stop_to":"Przystanek Y","plan_kmh":26.7,"kmh_p15":[null,null,20.1,null,20.0,19.7,18.9,17.8,17.3,17.8,18.9,19.7,19.9,19.7,19.0,17.9,17.1,17.1,17.9,19.0,19.7,20.0,null,20.1],"kmh_p50":[null,null,25.2,null,25.0,24.6,23.6,22.3,21.7,22.3,23.6,24.6,24.9,24.6,23.8,22.4,21.3,21.3,22.4,23.8,24.7,25.0,null,25.2],"kmh_p85":[null,null,29.7,null,29.5,29.0,27.8,26.3,25.6,26.3,27.8,29.0,29.4,29.1,28.0,26.4,25.2,25.2,26.4,28.0,29.1,29.6,null,29.7],"n":null}},{"type":"Feature","geometry":{"type":"LineString","coordinates":[[21.00379,52.26599],[20.99515,52.27276]]},"properties":{"id":"warszawa-023","route":null,"mode":"tram","stop_from":"Przystanek Y","stop_to":"Przystanek Z","plan_kmh":22.0,"kmh_p15":[null,null,null,null,16.5,16.2,15.6,14.7,14.3,14.7,15.6,16.2,16.4,16.3,15.7,14.8,14.1,14.1,14.8,15.7,16.3,16.5,16.6,null],"kmh_p50":[null,null,null,null,20.7,20.3,19.5,18.4,17.9,18.4,19.5,20.3,20.5,20.3,19.6,18.5,17.6,17.6,18.5,19.6,20.3,20.7,20.8,null],"kmh_p85":[null,null,null,null,24.4,23.9,23.0,21.7,21.1,21.7,23.0,23.9,24.2,24.0,23.1,21.8,20.7,20.7,21.8,23.1,24.0,24.4,24.5,null],"n":null}},{"type":"Feature","geometry":{"type":"LineString","coordinates":[[20.99515,52.27276],[20.99753,52.28024]]},"properties":{"id":"warszawa-024","route":null,"mode":"tram","stop_from":"Przystanek Z","stop_to":"Przystanek A2","plan_kmh":24.4,"kmh_p15":[null,null,null,null,18.3,18.0,17.3,16.3,15.8,16.3,17.3,18.0,18.2,18.0,17.4,16.4,15.6,15.6,16.4,17.4,18.0,18.3,null,18.4],"kmh_p50":[null,null,null,null,22.9,22.5,21.6,20.4,19.8,20.4,21.6,22.5,22.8,22.5,21.7,20.5,19.5,19.5,20.5,21.7,22.6,22.9,null,23.0],"kmh_p85":[null,null,null,null,27.0,26.6,25.5,24.1,23.4,24.1,25.5,26.5,26.9,26.6,25.6,24.2,23.0,23.0,24.2,25.6,26.6,27.0,null,27.2],"n":null}},{"type":"Feature","geometry":{"type":"LineString","coordinates":[[20.99753,52.28024],[21.00049,52.28766]]},"properties":{"id":"warszawa-025","route":null,"mode":"tram","stop_from":"Przystanek A2","stop_to":"Przystanek B2","plan_kmh":30.7,"kmh_p15":[23.2,null,null,null,23.1,22.7,21.7,20.5,19.9,20.5,21.7,22.6,22.9,22.7,21.9,20.6,19.6,19.6,20.6,21.9,22.7,23.1,23.2,23.2],"kmh_p50":[29.0,null,null,null,28.8,28.3,27.2,25.7,24.9,25.7,27.2,28.3,28.7,28.4,27.3,25.8,24.5,24.5,25.8,27.4,28.4,28.8,29.0,29.0],"kmh_p85":[34.2,null,null,null,34.0,33.4,32.1,30.3,29.4,30.3,32.0,33.4,33.8,33.5,32.3,30.4,29.0,29.0,30.4,32.3,33.5,34.0,34.2,34.2],"n":null}},{"type":"Feature","geometry":{"type":"LineString","coordinates":[[21.00049,52.28766],[20.9939,52.29462]]},"properties":{"id":"warszawa-026","route":null,"mode":"tram","stop_from":"Przystanek B2","stop_to":"Przystanek C2","plan_kmh":37.2,"kmh_p15":[null,28.1,null,null,27.9,27.5,26.3,24.9,24.2,24.9,26.3,27.4,27.8,27.5,26.5,25.0,23.8,23.8,25.0,null,27.5,27.9,28.1,28.1],"kmh_p50":[null,35.1,null,null,34.9,34.3,32.9,31.1,30.2,31.1,32.9,34.3,34.7,34.4,33.1,31.3,29.7,29.7,31.3,null,34.4,34.9,35.1,35.1],"kmh_p85":[null,41.4,null,null,41.2,40.5,38.8,36.7,35.6,36.7,38.8,40.4,41.0,40.5,39.1,36.9,35.1,35.1,36.9,null,40.6,41.2,41.4,41.4],"n":null}},{"type":"Feature","geometry":{"type":"LineString","coordinates":[[21.012,52.23],[20.99824,52.23701]]},"properties":{"id":"warszawa-027","route":null,"mode":"bus","stop_from":"Przystanek D2","stop_to":"Przystanek E2","plan_kmh":10.9,"kmh_p15":[8.2,null,null,null,8.2,8.0,7.7,7.3,7.1,7.3,7.7,8.0,null,8.0,7.7,7.3,6.9,6.9,7.3,7.7,8.0,8.2,8.2,8.2],"kmh_p50":[10.3,null,null,null,10.2,10.0,9.6,9.1,8.8,9.1,9.6,10.0,null,10.0,9.7,9.1,8.7,8.7,9.1,9.7,10.0,10.2,10.3,10.3],"kmh_p85":[12.1,null,null,null,12.0,11.8,11.3,10.7,10.4,10.7,11.3,11.8,null,11.8,11.4,10.8,10.3,10.3,10.8,11.4,11.9,12.0,12.1,12.1],"n":null}},{"type":"Feature","geometry":{"type":"LineString","coordinates":[[20.99824,52.23701],[20.98249,52.24321]]},"properties":{"id":"warszawa-028","route":null,"mode":"bus","stop_from":"Przystanek E2","stop_to":"Przystanek F2","plan_kmh":14.9,"kmh_p15":[null,null,null,null,11.2,11.0,10.6,10.0,null,10.0,10.6,11.0,11.1,11.0,10.6,10.0,9.5,9.5,10.0,10.6,11.0,11.2,11.3,11.3],"kmh_p50":[null,null,null,null,14.0,13.8,13.2,12.5,null,12.5,13.2,13.7,13.9,13.8,13.3,12.5,11.9,11.9,12.5,13.3,13.8,14.0,14.1,14.1],"kmh_p85":[null,null,null,null,16.5,16.2,15.6,14.7,null,14.7,15.6,16.2,16.4,16.3,15.7,14.8,14.1,14.1,14.8,15.7,16.3,16.5,16.6,16.6],"n":null}},{"type":"Feature","geometry":{"type":"LineString","coordinates":[[20.98249,52.24321],[20.96891,52.25032]]},"properties":{"id":"warszawa-029","route":null,"mode":"bus","stop_from":"Przystanek F2","stop_to":"Przystanek G2","plan_kmh":20.0,"kmh_p15":[15.1,15.1,null,15.1,15.0,14.8,14.2,null,13.0,13.4,14.2,14.7,14.9,14.8,14.3,13.5,12.8,12.8,13.5,14.3,14.8,15.0,null,null],"kmh_p50":[18.9,18.9,null,18.9,18.8,18.5,17.7,null,16.2,16.7,17.7,18.4,18.7,18.5,17.8,16.8,16.0,16.0,16.8,17.8,18.5,18.8,null,null],"kmh_p85":[22.3,22.3,null,22.3,22.2,21.8,20.9,null,19.2,19.7,20.9,21.8,22.0,21.8,21.0,19.8,18.9,18.9,19.8,21.0,21.8,22.2,null,null],"n":null}},{"type":"Feature","geometry":{"type":"LineString","coordinates":[[20.96891,52.25032],[20.95646,52.25786]]},"properties":{"id":"warszawa-030","route":null,"mode":"bus","stop_from":"Przystanek G2","stop_to":"Przystanek H2","plan_kmh":25.1,"kmh_p15":[null,null,null,null,18.9,18.6,17.9,16.9,16.4,16.9,17.8,18.6,18.8,18.6,18.0,17.0,16.1,16.1,17.0,18.0,18.7,18.9,null,null],"kmh_p50":[null,null,null,null,23.7,23.3,22.3,21.1,20.5,21.1,22.3,23.2,23.5,23.3,22.5,21.2,20.2,20.2,21.2,22.5,23.3,23.7,null,null],"kmh_p85":[null,null,null,null,27.9,27.4,26.3,24.9,24.2,24.9,26.3,27.4,27.8,27.5,26.5,25.0,23.8,23.8,25.0,26.5,27.5,27.9,null,null],"n":null}},{"type":"Feature","geometry":{"type":"LineString","coordinates":[[20.95646,52.25786],[20.93814,52.26299]]},"properties":{"id":"warszawa-031","route":null,"mode":"bus","stop_from":"Przystanek H2","stop_to":"Przystanek I2","plan_kmh":26.2,"kmh_p15":[null,null,null,null,19.7,19.3,18.5,17.5,17.0,17.5,18.5,19.3,19.5,19.3,18.7,17.6,16.7,16.7,17.6,18.7,19.4,19.7,19.7,19.8],"kmh_p50":[null,null,null,null,24.6,24.1,23.2,21.9,21.3,21.9,23.2,24.1,24.4,24.2,23.3,22.0,20.9,20.9,22.0,23.3,24.2,24.6,24.7,24.7],"kmh_p85":[null,null,null,null,29.0,28.5,27.3,25.8,25.1,25.8,27.3,28.5,28.8,28.5,27.5,26.0,24.7,24.7,26.0,27.5,28.6,29.0,29.1,29.2],"n":null}},{"type":"Feature","geometry":{"type":"LineString","coordinates":[[20.93814,52.26299],[20.93128,52.27279]]},"properties":{"id":"warszawa-032","route":null,"mode":"bus","stop_from":"Przystanek I2","stop_to":"Przystanek J2","plan_kmh":31.6,"kmh_p15":[null,null,null,null,23.8,23.4,22.5,null,20.6,21.2,22.5,23.4,23.7,23.5,22.6,21.3,20.3,20.3,21.3,22.6,23.5,23.8,null,null],"kmh_p50":[null,null,null,null,29.8,29.3,28.1,null,25.8,26.5,28.1,29.2,29.6,29.3,28.3,26.7,25.4,25.4,26.7,28.3,29.3,29.8,null,null],"kmh_p85":[null,null,null,null,35.2,34.5,33.1,null,30.4,31.3,33.1,34.5,35.0,34.6,33.4,31.5,29.9,29.9,31.5,33.4,34.6,35.2,null,null],"n":null}},{"type":"Feature","geometry":{"type":"LineString","coordinates":[[20.93128,52.27279],[20.91234,52.27777]]},"properties":{"id":"warszawa-033","route":null,"mode":"bus","stop_from":"Przystanek J2","stop_to":"Przystanek K2","plan_kmh":null,"kmh_p15":[null,null,null,null,null,null,null,null,null,null,null,null,null,null,null,null,null,null,null,null,null,null,null,null],"kmh_p50":[null,null,null,null,null,null,null,null,null,null,null,null,null,null,null,null,null,null,null,null,null,null,null,null],"kmh_p85":[null,null,null,null,null,null,null,null,null,null,null,null,null,null,null,null,null,null,null,null,null,null,null,null],"n":null}},{"type":"Feature","geometry":{"type":"LineString","coordinates":[[21.012,52.23],[20.9958,52.23077]]},"properties":{"id":"warszawa-034","route":null,"mode":"tram","stop_from":"Przystanek L2","stop_to":"Przystanek M2","plan_kmh":17.0,"kmh_p15":[null,null,null,null,12.7,12.5,12.0,11.3,11.0,11.3,12.0,12.5,12.7,12.5,12.1,11.4,10.9,10.9,11.4,12.1,12.6,12.7,12.8,12.8],"kmh_p50":[null,null,null,null,15.9,15.7,15.0,14.2,13.8,14.2,15.0,15.6,15.8,15.7,15.1,14.3,13.6,13.6,14.3,15.1,15.7,15.9,16.0,16.0],"kmh_p85":[null,null,null,null,18.8,18.5,17.7,16.7,16.3,16.7,17.7,18.4,18.7,18.5,17.8,16.8,16.0,16.0,16.8,17.8,18.5,18.8,18.9,18.9],"n":null}},{"type":"Feature","geometry":{"type":"LineString","coordinates":[[20.9958,52.23077],[20.97948,52.23098]]},"properties":{"id":"warszawa-035","route":null,"mode":"tram","stop_from":"Przystanek M2","stop_to":"Przystanek N2","plan_kmh":17.2,"kmh_p15":[null,null,null,null,12.9,12.6,12.1,11.4,11.1,11.4,12.1,12.6,12.8,12.6,12.2,11.5,10.9,null,11.5,12.2,12.7,12.9,12.9,12.9],"kmh_p50":[null,null,null,null,16.1,15.8,15.1,14.3,13.9,14.3,15.1,15.8,16.0,15.8,15.2,14.4,13.7,null,14.4,15.2,15.8,16.1,16.1,16.2],"kmh_p85":[null,null,null,null,19.0,18.6,17.9,16.9,16.4,16.9,17.9,18.6,18.9,18.7,18.0,17.0,16.1,null,17.0,18.0,18.7,19.0,19.1,19.1],"n":null}},{"type":"Feature","geometry":{"type":"LineString","coordinates":[[20.97948,52.23098],[20.9632,52.23134]]},"properties":{"id":"warszawa-036","route":null,"mode":"tram","stop_from":"Przystanek N2","stop_to":"Przystanek O2","plan_kmh":13.5,"kmh_p15":[null,null,null,10.1,10.1,9.9,9.5,9.0,8.7,9.0,9.5,9.9,10.0,9.9,9.6,9.0,8.6,null,9.0,9.6,9.9,10.1,10.1,10.1],"kmh_p50":[null,null,null,12.7,12.6,12.4,11.9,11.2,10.9,11.2,11.9,12.4,12.5,12.4,12.0,11.3,10.7,null,11.3,12.0,12.4,12.6,12.7,12.7],"kmh_p85":[null,null,null,15.0,14.9,14.6,14.0,13.3,12.9,13.3,14.0,14.6,14.8,14.6,14.1,13.3,12.7,null,13.3,14.1,14.7,14.9,15.0,15.0],"n":null}},{"type":"Feature","geometry":{"type":"LineString","coordinates":[[20.9632,52.23134],[20.94692,52.23163]]},"properties":{"id":"warszawa-037","route":null,"mode":"tram","stop_from":"Przystanek O2","stop_to":"Przystanek P2","plan_kmh":18.7,"kmh_p15":[null,null,null,null,14.0,13.7,13.2,12.4,12.1,12.4,13.2,13.7,13.9,13.8,13.3,12.5,11.9,11.9,12.5,13.3,13.8,14.0,null,14.1],"kmh_p50":[null,null,null,null,17.5,17.2,16.5,15.6,15.1,15.6,16.5,17.2,17.4,17.2,16.6,15.6,14.9,14.9,15.6,16.6,17.2,17.5,null,17.6],"kmh_p85":[null,null,null,null,20.6,20.3,19.4,18.4,17.8,18.4,19.4,20.2,20.5,20.3,19.6,18.5,17.6,17.6,18.5,19.6,20.3,20.6,null,20.7],"n":null}},{"type":"Feature","geometry":{"type":"LineString","coordinates":[[20.94692,52.23163],[20.93116,52.23451]]},"properties":{"id":"warszawa-038","route":null,"mode":"tram","stop_from":"Przystanek P2","stop_to":"Przystanek Q2","plan_kmh":18.0,"kmh_p15":[null,null,null,null,13.5,13.3,12.8,12.0,11.7,12.0,12.8,13.3,13.5,13.3,12.8,12.1,11.5,11.5,12.1,12.8,13.3,13.5,null,13.6],"kmh_p50":[null,null,null,null,16.9,16.6,15.9,15.1,14.6,15.1,15.9,16.6,16.8,16.6,16.0,15.1,14.4,14.4,15.1,16.1,16.7,16.9,null,17.0],"kmh_p85":[null,null,null,null,20.0,19.6,18.8,17.8,17.3,17.8,18.8,19.6,19.8,19.6,18.9,17.9,17.0,17.0,17.9,18.9,19.7,20.0,null,20.1],"n":null}},{"type":"Feature","geometry":{"type":"LineString","coordinates":[[20.93116,52.23451],[20.91435,52.2322]]},"properties":{"id":"warszawa-039","route":null,"mode":"tram","stop_from":"Przystanek Q2","stop_to":"Przystanek R2","plan_kmh":28.0,"kmh_p15":[null,null,null,null,21.0,20.6,19.8,18.7,null,18.7,19.8,20.6,20.9,20.6,19.9,18.8,17.9,17.9,18.8,19.9,20.7,21.0,21.1,21.1],"kmh_p50":[null,null,null,null,26.2,25.8,24.7,23.4,null,23.4,24.7,25.7,26.1,25.8,24.9,23.5,22.3,22.3,23.5,24.9,25.8,26.2,26.4,26.4],"kmh_p85":[null,null,null,null,31.0,30.4,29.2,27.6,null,27.6,29.2,30.4,30.8,30.5,29.4,27.7,26.4,26.4,27.7,29.4,30.5,31.0,31.1,31.1],"n":null}},{"type":"Feature","geometry":{"type":"LineString","coordinates":[[20.91435,52.2322],[20.89848,52.23497]]},"properties":{"id":"warszawa-040","route":null,"mode":"tram","stop_from":"Przystanek R2","stop_to":"Przystanek S2","plan_kmh":null,"kmh_p15":[null,null,null,null,null,null,null,null,null,null,null,null,null,null,null,null,null,null,null,null,null,null,null,null],"kmh_p50":[null,null,null,null,null,null,null,null,null,null,null,null,null,null,null,null,null,null,null,null,null,null,null,null],"kmh_p85":[null,null,null,null,null,null,null,null,null,null,null,null,null,null,null,null,null,null,null,null,null,null,null,null],"n":null}},{"type":"Feature","geometry":{"type":"LineString","coordinates":[[20.89848,52.23497],[20.88229,52.2358]]},"properties":{"id":"warszawa-041","route":null,"mode":"tram","stop_from":"Przystanek S2","stop_to":"Przystanek T2","plan_kmh":34.5,"kmh_p15":[null,null,null,null,25.8,25.4,24.3,23.0,22.3,23.0,24.3,25.3,25.7,25.4,24.5,23.1,22.0,22.0,23.1,24.5,25.4,25.8,25.9,26.0],"kmh_p50":[null,null,null,null,32.3,31.7,30.4,28.7,27.9,28.7,30.4,31.7,32.1,31.8,30.6,28.9,27.5,27.5,28.9,30.6,31.8,32.3,32.4,32.5],"kmh_p85":[null,null,null,null,38.1,37.4,35.9,33.9,32.9,33.9,35.9,37.4,37.9,37.5,36.1,34.1,32.4,32.4,34.1,36.1,37.5,38.1,38.3,38.3],"n":null}},{"type":"Feature","geometry":{"type":"LineString","coordinates":[[20.88229,52.2358],[20.86658,52.23848]]},"properties":{"id":"warszawa-042","route":null,"mode":"tram","stop_from":"Przystanek T2","stop_to":"Przystanek U2","plan_kmh":38.1,"kmh_p15":[null,null,null,null,28.5,28.0,26.9,25.4,24.7,25.4,26.9,28.0,28.4,28.1,27.1,25.5,24.3,24.3,25.5,27.1,28.1,28.5,28.7,28.7],"kmh_p50":[null,null,null,null,35.7,35.0,33.6,31.8,30.9,31.8,33.6,35.0,35.5,35.1,33.8,31.9,30.4,30.4,31.9,33.9,35.1,35.7,35.8,35.9],"kmh_p85":[null,null,null,null,42.1,41.4,39.7,37.5,36.4,37.5,39.7,41.3,41.9,41.4,39.9,37.7,35.8,35.8,37.7,39.9,41.5,42.1,42.3,42.3],"n":null}},{"type":"Feature","geometry":{"type":"LineString","coordinates":[[21.012,52.23],[20.999,52.22564]]},"properties":{"id":"warszawa-043","route":null,"mode":"bus","stop_from":"Przystanek V2","stop_to":"Przystanek W2","plan_kmh":13.2,"kmh_p15":[null,null,null,null,10.0,9.8,9.4,8.9,8.6,8.9,9.4,9.8,9.9,9.8,9.5,8.9,8.5,8.5,8.9,null,9.8,10.0,10.0,null],"kmh_p50":[null,null,null,null,12.5,12.3,11.8,11.1,10.8,11.1,11.8,12.2,12.4,12.3,11.8,11.2,10.6,10.6,11.2,null,12.3,12.5,12.5,null],"kmh_p85":[null,null,null,null,14.7,14.5,13.9,13.1,12.7,13.1,13.9,14.4,14.6,14.5,14.0,13.2,12.5,12.5,13.2,null,14.5,14.7,14.8,null],"n":null}},{"type":"Feature","geometry":{"type":"LineString","coordinates":[[20.999,52.22564],[20.98579,52.2214]]},"properties":{"id":"warszawa-044","route":null,"mode":"bus","stop_from":"Przystanek W2","stop_to":"Przystanek X2","plan_kmh":18.0,"kmh_p15":[null,null,null,null,13.5,13.3,12.7,12.0,11.7,12.0,12.7,13.3,13.4,13.3,12.8,12.1,11.5,11.5,12.1,12.8,13.3,13.5,13.6,null],"kmh_p50":[null,null,null,null,16.9,16.6,15.9,15.0,14.6,15.0,15.9,16.6,16.8,16.6,16.0,15.1,14.4,14.4,15.1,16.0,16.6,16.9,17.0,null],"kmh_p85":[null,null,null,null,19.9,19.6,18.8,17.8,17.2,17.8,18.8,19.6,19.8,19.6,18.9,17.8,17.0,17.0,17.8,18.9,19.6,19.9,20.0,null],"n":null}},{"type":"Feature","geometry":{"type":"LineString","coordinates":[[20.98579,52.2214],[20.9726,52.21715]]},"properties":{"id":"warszawa-045","route":null,"mode":"bus","stop_from":"Przystanek X2","stop_to":"Przystanek Y2","plan_kmh":12.6,"kmh_p15":[null,null,null,null,9.5,9.4,9.0,8.5,8.2,8.5,9.0,9.4,9.5,9.4,9.0,8.5,8.1,8.1,8.5,9.0,9.4,9.5,null,null],"kmh_p50":[null,null,null,null,11.9,11.7,11.2,10.6,10.3,10.6,11.2,11.7,11.8,11.7,11.3,10.7,10.1,10.1,10.7,11.3,11.7,11.9,null,null],"kmh_p85":[null,null,null,null,14.1,13.8,13.2,12.5,12.2,12.5,13.2,13.8,14.0,13.8,13.3,12.6,12.0,12.0,12.6,13.3,13.8,14.1,null,null],"n":null}},{"type":"Feature","geometry":{"type":"LineString","coordinates":[[20.9726,52.21715],[20.95852,52.21345]]},"properties":{"id":"warszawa-046","route":null,"mode":"bus","stop_from":"Przystanek Y2","stop_to":"Przystanek Z2","plan_kmh":16.1,"kmh_p15":[null,null,null,null,12.1,11.9,11.4,10.8,10.4,10.8,11.4,11.9,12.0,11.9,11.5,10.8,10.3,10.3,10.8,11.5,11.9,12.1,12.1,null],"kmh_p50":[null,null,null,null,15.1,14.8,14.2,13.4,13.1,13.4,14.2,14.8,15.0,14.9,14.3,13.5,12.9,12.9,13.5,14.3,14.9,15.1,15.2,null],"kmh_p85":[null,null,null,null,17.8,17.5,16.8,15.9,15.4,15.9,16.8,17.5,17.7,17.5,16.9,15.9,15.2,15.2,15.9,16.9,17.5,17.8,17.9,null],"n":null}},{"type":"Feature","geometry":{"type":"LineString","coordinates":[[20.95852,52.21345],[20.94726,52.20803]]},"properties":{"id":"warszawa-047","route":null,"mode":"bus","stop_from":"Przystanek Z2","stop_to":"Przystanek A3","plan_kmh":24.5,"kmh_p15":[null,null,null,null,18.4,18.1,17.3,16.4,15.9,16.4,17.3,18.1,18.3,18.1,null,16.5,15.7,15.7,16.5,17.5,18.1,18.4,null,18.5],"kmh_p50":[null,null,null,null,23.0,22.6,21.7,20.5,19.9,20.5,21.7,22.6,22.9,22.6,null,20.6,19.6,19.6,20.6,21.8,22.6,23.0,null,23.1],"kmh_p85":[null,null,null,null,27.1,26.7,25.6,24.2,23.5,24.2,25.6,26.6,27.0,26.7,null,24.3,23.1,23.1,24.3,25.7,26.7,27.1,null,27.3],"n":null}},{"type":"Feature","geometry":{"type":"LineString","coordinates":[[20.94726,52.20803],[20.93604,52.20267]]},"properties":{"id":"warszawa-048","route":null,"mode":"bus","stop_from":"Przystanek A3","stop_to":"Przystanek B3","plan_kmh":29.2,"kmh_p15":[null,null,null,null,21.9,21.5,20.6,19.5,18.9,19.5,20.6,21.5,21.7,21.5,20.7,19.6,18.6,18.6,19.6,20.7,21.5,21.9,22.0,22.0],"kmh_p50":[null,null,null,null,27.3,26.8,25.8,24.3,23.6,24.3,25.7,26.8,27.2,26.9,25.9,24.5,23.3,23.3,24.5,25.9,26.9,27.3,27.5,27.5],"kmh_p85":[null,null,null,null,32.2,31.7,30.4,28.7,27.9,28.7,30.4,31.6,32.1,31.7,30.6,28.9,27.5,27.5,28.9,30.6,31.8,32.2,32.4,32.4],"n":null}},{"type":"Feature","geometry":{"type":"LineString","coordinates":[[20.93604,52.20267],[20.92129,52.19929]]},"properties":{"id":"warszawa-049","route":null,"mode":"bus","stop_from":"Przystanek B3","stop_to":"Przystanek C3","plan_kmh":32.2,"kmh_p15":[null,null,null,null,24.2,23.8,22.8,21.6,20.9,21.6,22.8,23.8,24.1,23.8,23.0,21.7,20.6,20.6,21.7,23.0,23.8,24.2,24.3,null],"kmh_p50":[null,null,null,null,30.3,29.7,28.5,26.9,26.2,26.9,28.5,29.7,30.1,29.8,28.7,27.1,25.8,25.8,27.1,28.7,29.8,30.3,30.4,null],"kmh_p85":[null,null,null,null,35.7,35.1,33.7,31.8,30.9,31.8,33.6,35.0,35.5,35.1,33.9,32.0,30.4,30.4,32.0,33.9,35.2,35.7,35.9,null],"n":null}},{"type":"Feature","geometry":{"type":"LineString","coordinates":[[20.92129,52.19929],[20.90699,52.1957]]},"properties":{"id":"warszawa-050","route":null,"mode":"bus","stop_from":"Przystanek C3","stop_to":"Przystanek D3","plan_kmh":35.8,"kmh_p15":[null,null,27.0,27.0,26.9,26.4,25.3,null,23.2,23.9,25.3,26.4,26.7,26.4,null,24.1,null,22.9,24.1,25.5,null,26.9,27.0,null],"kmh_p50":[null,null,33.8,33.8,33.6,33.0,31.7,null,29.1,29.9,31.7,33.0,33.4,33.1,null,30.1,null,28.6,30.1,31.9,null,33.6,33.8,null],"kmh_p85":[null,null,39.9,39.8,39.6,39.0,37.4,null,34.3,35.3,37.4,38.9,39.4,39.0,null,35.5,null,33.8,35.5,37.6,null,39.7,39.8,null],"n":null}},{"type":"Feature","geometry":{"type":"LineString","coordinates":[[20.90699,52.1957],[20.89821,52.18892]]},"properties":{"id":"warszawa-051","route":null,"mode":"bus","stop_from":"Przystanek D3","stop_to":"Przystanek E3","plan_kmh":37.1,"kmh_p15":[null,null,null,null,28.0,27.5,26.4,24.9,24.2,24.9,26.4,27.5,27.8,27.5,26.6,25.1,23.8,23.8,25.1,26.6,27.6,28.0,null,null],"kmh_p50":[null,null,null,null,35.0,34.4,33.0,31.2,30.3,31.2,33.0,34.3,34.8,34.4,33.2,31.3,29.8,29.8,31.3,33.2,34.5,35.0,null,null],"kmh_p85":[null,null,null,null,41.3,40.6,38.9,36.8,35.7,36.8,38.9,40.5,41.1,40.6,39.2,37.0,35.2,35.2,37.0,39.2,40.7,41.3,null,null],"n":null}},{"type":"Feature","geometry":{"type":"LineString","coordinates":[[21.012,52.23],[21.00976,52.22075]]},"properties":{"id":"warszawa-052","route":null,"mode":"tram","stop_from":"Przystanek F3","stop_to":"Przystanek G3","plan_kmh":15.4,"kmh_p15":[11.6,null,null,null,11.5,11.3,10.8,10.2,9.9,10.2,10.8,11.3,11.4,11.3,10.9,10.3,9.8,9.8,10.3,10.9,11.3,11.5,11.5,11.6],"kmh_p50":[14.5,null,null,null,14.4,14.1,13.5,12.8,12.4,12.8,13.5,14.1,14.3,14.1,13.6,12.9,12.2,12.2,12.9,13.6,14.2,14.4,14.4,14.4],"kmh_p85":[17.1,null,null,null,17.0,16.7,16.0,15.1,14.7,15.1,16.0,16.6,16.9,16.7,16.1,15.2,14.4,14.4,15.2,16.1,16.7,17.0,17.0,17.1],"n":null}},{"type":"Feature","geometry":{"type":"LineString","coordinates":[[21.00976,52.22075],[21.00705,52.21153]]},"properties":{"id":"warszawa-053","route":null,"mode":"tram","stop_from":"Przystanek G3","stop_to":"Przystanek H3","plan_kmh":null,"kmh_p15":[null,null,null,null,null,null,null,null,null,null,null,null,null,null,null,null,null,null,null,null,null,null,null,null],"kmh_p50":[null,null,null,null,null,null,null,null,null,null,null,null,null,null,null,null,null,null,null,null,null,null,null,null],"kmh_p85":[null,null,null,null,null,null,null,null,null,null,null,null,null,null,null,null,null,null,null,null,null,null,null,null],"n":null}},{"type":"Feature","geometry":{"type":"LineString","coordinates":[[21.00705,52.21153],[21.00415,52.20231]]},"properties":{"id":"warszawa-054","route":null,"mode":"tram","stop_from":"Przystanek H3","stop_to":"Przystanek I3","plan_kmh":23.5,"kmh_p15":[null,null,null,null,17.7,17.4,16.7,15.7,15.3,15.7,16.7,17.4,17.6,17.4,16.8,15.8,15.1,15.1,15.8,16.8,17.4,17.7,17.8,17.8],"kmh_p50":[null,null,null,null,22.1,21.7,20.8,19.7,19.1,19.7,20.8,21.7,22.0,21.7,21.0,19.8,18.8,18.8,19.8,21.0,21.8,22.1,22.2,22.2],"kmh_p85":[null,null,null,null,26.1,25.6,24.6,23.2,22.6,23.2,24.6,25.6,25.9,25.7,24.8,23.3,22.2,22.2,23.3,24.8,25.7,26.1,26.2,26.2],"n":null}},{"type":"Feature","geometry":{"type":"LineString","coordinates":[[21.00415,52.20231],[21.00432,52.19295]]},"properties":{"id":"warszawa-055","route":null,"mode":"tram","stop_from":"Przystanek I3","stop_to":"Przystanek J3","plan_kmh":25.8,"kmh_p15":[null,null,19.4,19.4,19.3,19.0,18.2,17.2,16.7,17.2,18.2,19.0,19.2,19.0,18.3,17.3,16.5,16.5,17.3,18.3,19.0,19.3,null,null],"kmh_p50":[null,null,24.3,24.3,24.2,23.7,22.8,21.5,20.9,21.5,22.8,23.7,24.0,23.8,22.9,21.6,20.6,20.6,21.6,22.9,23.8,24.2,null,null],"kmh_p85":[null,null,28.7,28.6,28.5,28.0,26.9,25.4,24.7,25.4,26.9,28.0,28.3,28.0,27.0,25.5,24.3,24.3,25.5,27.1,28.1,28.5,null,null],"n":null}},{"type":"Feature","geometry":{"type":"LineString","coordinates":[[21.00432,52.19295],[21.00177,52.18371]]},"properties":{"id":"warszawa-056","route":null,"mode":"tram","stop_from":"Przystanek J3","stop_to":"Przystanek K3","plan_kmh":31.6,"kmh_p15":[null,null,23.8,null,23.7,23.3,22.3,21.1,20.5,21.1,22.3,23.3,23.6,23.3,22.5,21.2,20.2,20.2,21.2,22.5,23.3,23.7,null,23.8],"kmh_p50":[null,null,29.8,null,29.6,29.1,27.9,26.4,25.6,26.4,27.9,29.1,29.5,29.2,28.1,26.5,25.2,25.2,26.5,28.1,29.2,29.6,null,29.8],"kmh_p85":[null,null,35.2,null,35.0,34.4,33.0,31.1,30.2,31.1,33.0,34.3,34.8,34.4,33.2,31.3,29.8,29.8,31.3,33.2,34.4,35.0,null,35.2],"n":null}},{"type":"Feature","geometry":{"type":"LineString","coordinates":[[21.00177,52.18371],[20.99711,52.17458]]},"properties":{"id":"warszawa-057","route":null,"mode":"tram","stop_from":"Przystanek K3","stop_to":"Przystanek L3","plan_kmh":30.8,"kmh_p15":[null,null,null,null,23.2,22.8,21.8,20.6,20.0,20.6,21.8,22.7,23.0,22.8,null,20.7,19.7,19.7,20.7,22.0,22.8,23.2,null,23.3],"kmh_p50":[null,null,null,null,29.0,28.5,27.3,25.8,25.1,25.8,27.3,28.4,28.8,28.5,null,25.9,24.7,24.7,25.9,27.5,28.5,29.0,null,29.1],"kmh_p85":[null,null,null,null,34.2,33.6,32.2,30.4,29.6,30.4,32.2,33.5,34.0,33.6,null,30.6,29.1,29.1,30.6,32.4,33.7,34.2,null,34.4],"n":null}},{"type":"Feature","geometry":{"type":"LineString","coordinates":[[20.99711,52.17458],[21.00452,52.16497]]},"properties":{"id":"warszawa-058","route":null,"mode":"tram","stop_from":"Przystanek L3","stop_to":"Przystanek M3","plan_kmh":29.4,"kmh_p15":[null,22.2,null,null,22.1,21.7,20.8,19.7,19.1,19.7,20.8,21.7,22.0,21.7,20.9,19.8,18.8,18.8,19.8,20.9,21.7,22.1,22.2,null],"kmh_p50":[null,27.7,null,null,27.6,27.1,26.0,24.6,23.9,24.6,26.0,27.1,27.4,27.1,26.2,24.7,23.5,23.5,24.7,26.2,27.2,27.6,27.7,null],"kmh_p85":[null,32.7,null,null,32.6,32.0,30.7,29.0,28.2,29.0,30.7,32.0,32.4,32.0,30.9,29.1,27.7,27.7,29.1,30.9,32.1,32.6,32.7,null],"n":null}},{"type":"Feature","geometry":{"type":"LineString","coordinates":[[21.012,52.23],[21.02293,52.22347]]},"properties":{"id":"warszawa-059","route":null,"mode":"bus","stop_from":"Przystanek N3","stop_to":"Przystanek O3","plan_kmh":7.5,"kmh_p15":[5.7,null,null,null,5.7,5.6,5.3,5.0,4.9,5.0,5.3,5.6,5.6,5.6,5.4,5.1,4.8,4.8,5.1,5.4,5.6,5.7,null,null],"kmh_p50":[7.1,null,null,null,7.1,7.0,6.7,6.3,6.1,6.3,6.7,7.0,7.0,7.0,6.7,6.3,6.0,6.0,6.3,6.7,7.0,7.1,null,null],"kmh_p85":[8.4,null,null,null,8.4,8.2,7.9,7.4,7.2,7.4,7.9,8.2,8.3,8.2,7.9,7.5,7.1,7.1,7.5,7.9,8.2,8.4,null,null],"n":null}},{"type":"Feature","geometry":{"type":"LineString","coordinates":[[21.02293,52.22347],[21.03554,52.21752]]},"properties":{"id":"warszawa-060","route":null,"mode":"bus","stop_from":"Przystanek O3","stop_to":"Przystanek P3","plan_kmh":19.5,"kmh_p15":[null,null,null,null,14.7,14.4,13.8,13.1,12.7,13.1,13.8,14.4,14.6,null,13.9,13.1,12.5,12.5,13.1,13.9,14.4,14.7,14.7,null],"kmh_p50":[null,null,null,null,18.3,18.0,17.3,16.3,15.8,16.3,17.3,18.0,18.2,null,17.4,16.4,15.6,15.6,16.4,17.4,18.0,18.3,18.4,null],"kmh_p85":[null,null,null,null,21.6,21.2,20.4,19.3,18.7,19.3,20.4,21.2,21.5,null,20.5,19.4,18.4,18.4,19.4,20.5,21.3,21.6,21.7,null],"n":null}},{"type":"Feature","geometry":{"type":"LineString","coordinates":[[21.03554,52.21752],[21.0469,52.21113]]},"properties":{"id":"warszawa-061","route":null,"mode":"bus","stop_from":"Przystanek P3","stop_to":"Przystanek Q3","plan_kmh":22.6,"kmh_p15":[null,null,null,null,17.0,16.7,16.0,15.1,14.7,15.1,16.0,16.6,16.9,16.7,16.1,15.2,14.4,null,15.2,16.1,16.7,17.0,null,17.1],"kmh_p50":[null,null,null,null,21.2,20.8,20.0,18.9,18.3,18.9,20.0,20.8,21.1,20.9,20.1,19.0,18.1,null,19.0,20.1,20.9,21.2,null,21.3],"kmh_p85":[null,null,null,null,25.0,24.6,23.6,22.3,21.6,22.3,23.6,24.6,24.9,24.6,23.7,22.4,21.3,null,22.4,23.7,24.6,25.0,null,25.2],"n":null}},{"type":"Feature","geometry":{"type":"LineString","coordinates":[[21.0469,52.21113],[21.05836,52.20477]]},"properties":{"id":"warszawa-062","route":null,"mode":"bus","stop_from":"Przystanek Q3","stop_to":"Przystanek R3","plan_kmh":22.2,"kmh_p15":[null,null,null,16.7,16.6,16.3,15.6,14.8,14.3,14.8,15.6,16.3,16.5,16.3,15.7,14.8,14.1,14.1,null,15.7,16.3,16.6,null,16.7],"kmh_p50":[null,null,null,20.8,20.7,20.4,19.5,18.5,17.9,18.5,19.5,20.3,20.6,20.4,19.7,18.6,17.7,17.7,null,19.7,20.4,20.7,null,20.9],"kmh_p85":[null,null,null,24.6,24.5,24.0,23.1,21.8,21.2,21.8,23.1,24.0,24.3,24.1,23.2,21.9,20.8,20.8,null,23.2,24.1,24.5,null,24.6],"n":null}},{"type":"Feature","geometry":{"type":"LineString","coordinates":[[21.05836,52.20477],[21.06547,52.19694]]},"properties":{"id":"warszawa-063","route":null,"mode":"bus","stop_from":"Przystanek R3","stop_to":"Przystanek S3","plan_kmh":21.4,"kmh_p15":[null,16.2,null,null,16.1,15.8,15.2,14.3,13.9,14.3,15.2,15.8,16.0,15.8,15.3,14.4,13.7,13.7,14.4,15.3,15.9,16.1,null,16.2],"kmh_p50":[null,20.2,null,null,20.1,19.8,19.0,17.9,17.4,17.9,19.0,19.8,20.0,19.8,19.1,18.0,17.1,17.1,18.0,19.1,19.8,20.1,null,20.2],"kmh_p85":[null,23.9,null,null,23.7,23.3,22.4,21.1,20.5,21.1,22.4,23.3,23.6,23.4,22.5,21.3,20.2,20.2,21.3,22.5,23.4,23.8,null,23.9],"n":null}},{"type":"Feature","geometry":{"type":"LineString","coordinates":[[21.06547,52.19694],[21.08115,52.19202]]},"properties":{"id":"warszawa-064","route":null,"mode":"bus","stop_from":"Przystanek S3","stop_to":"Przystanek T3","plan_kmh":32.6,"kmh_p15":[null,null,null,null,24.5,24.1,23.1,21.8,21.2,21.8,23.1,24.0,24.4,24.1,23.2,21.9,20.9,20.9,21.9,23.2,24.1,24.5,24.6,null],"kmh_p50":[null,null,null,null,30.6,30.1,28.9,27.3,26.5,27.3,28.8,30.0,30.4,30.1,29.0,27.4,26.1,26.1,27.4,29.0,30.1,30.6,30.8,null],"kmh_p85":[null,null,null,null,36.1,35.5,34.0,32.2,31.2,32.2,34.0,35.5,35.9,35.5,34.3,32.3,30.8,30.8,32.3,34.3,35.6,36.1,36.3,null],"n":null}},{"type":"Feature","geometry":{"type":"LineString","coordinates":[[21.08115,52.19202],[21.0901,52.18479]]},"properties":{"id":"warszawa-065","route":null,"mode":"bus","stop_from":"Przystanek T3","stop_to":"Przystanek U3","plan_kmh":34.6,"kmh_p15":[null,null,null,null,26.1,25.6,24.6,23.2,22.5,23.2,24.6,25.6,25.9,25.6,24.7,23.3,22.2,22.2,23.3,24.7,25.7,26.1,null,null],"kmh_p50":[null,null,null,null,32.6,32.0,30.7,29.0,28.2,29.0,30.7,32.0,32.4,32.1,30.9,29.2,27.7,27.7,29.2,30.9,32.1,32.6,null,null],"kmh_p85":[null,null,null,null,38.5,37.8,36.2,34.2,33.3,34.2,36.2,37.7,38.2,37.8,36.5,34.4,32.7,32.7,34.4,36.5,37.9,38.5,null,null],"n":null}},{"type":"Feature","geometry":{"type":"LineString","coordinates":[[21.0901,52.18479],[21.10581,52.17994]]},"properties":{"id":"warszawa-066","route":null,"mode":"bus","stop_from":"Przystanek U3","stop_to":"Przystanek V3","plan_kmh":34.9,"kmh_p15":[null,null,null,null,26.2,25.7,24.7,23.3,22.6,23.3,24.7,25.7,26.0,25.7,24.8,23.4,22.3,22.3,23.4,24.8,25.8,26.2,26.3,null],"kmh_p50":[null,null,null,null,32.7,32.1,30.8,29.1,28.3,29.1,30.8,32.1,32.5,32.2,31.0,29.3,27.8,27.8,29.3,31.0,32.2,32.7,32.9,null],"kmh_p85":[null,null,null,null,38.6,37.9,36.4,34.4,33.4,34.4,36.4,37.9,38.4,38.0,36.6,34.5,32.9,32.9,34.5,36.6,38.0,38.6,38.8,null],"n":null}},{"type":"Feature","geometry":{"type":"LineString","coordinates":[[21.06333,52.23],[21.06082,52.23704]]},"properties":{"id":"warszawa-067","route":null,"mode":"bus","stop_from":"Przystanek W3","stop_to":"Przystanek X3","plan_kmh":null,"kmh_p15":[null,null,null,null,null,null,null,null,null,null,null,null,null,null,null,null,null,null,null,null,null,null,null,null],"kmh_p50":[null,null,null,null,null,null,null,null,null,null,null,null,null,null,null,null,null,null,null,null,null,null,null,null],"kmh_p85":[null,null,null,null,null,null,null,null,null,null,null,null,null,null,null,null,null,null,null,null,null,null,null,null],"n":null}},{"type":"Feature","geometry":{"type":"LineString","coordinates":[[21.06082,52.23704],[21.05353,52.2434]]},"properties":{"id":"warszawa-068","route":null,"mode":"bus","stop_from":"Przystanek X3","stop_to":"Przystanek Y3","plan_kmh":13.6,"kmh_p15":[null,10.2,null,10.2,10.2,10.0,9.6,9.1,8.8,9.1,9.6,10.0,10.1,10.0,9.7,9.1,8.7,8.7,9.1,9.7,10.0,10.2,10.2,10.2],"kmh_p50":[null,12.8,null,12.8,12.7,12.5,12.0,11.3,11.0,11.3,12.0,12.5,12.7,12.5,12.1,11.4,10.8,10.8,11.4,12.1,12.5,12.7,12.8,12.8],"kmh_p85":[null,15.1,null,15.1,15.0,14.7,14.1,13.4,13.0,13.4,14.1,14.7,14.9,14.8,14.2,13.4,12.8,12.8,13.4,14.2,14.8,15.0,15.1,15.1],"n":null}},{"type":"Feature","geometry":{"type":"LineString","coordinates":[[21.05353,52.2434],[21.04217,52.24844]]},"properties":{"id":"warszawa-069","route":null,"mode":"bus","stop_from":"Przystanek Y3","stop_to":"Przystanek Z3","plan_kmh":22.0,"kmh_p15":[null,null,null,16.6,16.5,null,15.6,14.7,14.3,14.7,15.6,16.2,16.4,16.3,15.7,14.8,14.1,14.1,14.8,15.7,16.3,16.5,null,16.6],"kmh_p50":[null,null,null,20.8,20.7,null,19.5,18.4,17.9,18.4,19.5,20.3,20.6,20.3,19.6,18.5,17.6,17.6,18.5,19.6,20.4,20.7,null,20.8],"kmh_p85":[null,null,null,24.5,24.4,null,23.0,21.7,21.1,21.7,23.0,23.9,24.3,24.0,23.1,21.8,20.8,20.8,21.8,23.1,24.0,24.4,null,24.5],"n":null}},{"type":"Feature","geometry":{"type":"LineString","coordinates":[[21.04217,52.24844],[21.02786,52.25168]]},"properties":{"id":"warszawa-070","route":null,"mode":"bus","stop_from":"Przystanek Z3","stop_to":"Przystanek A4","plan_kmh":20.5,"kmh_p15":[15.4,null,15.4,null,15.3,15.1,14.4,13.6,13.3,13.6,14.4,15.0,15.2,15.1,14.5,13.7,13.0,13.0,13.7,14.5,15.1,15.3,15.4,15.4],"kmh_p50":[19.3,null,19.3,null,19.2,18.8,18.1,17.1,16.6,17.1,18.0,18.8,19.0,18.8,18.2,17.1,16.3,16.3,17.1,18.2,18.9,19.2,19.2,19.3],"kmh_p85":[22.7,null,22.7,null,22.6,22.2,21.3,20.1,19.5,20.1,21.3,22.2,22.5,22.2,21.4,20.2,19.2,19.2,20.2,21.4,22.3,22.6,22.7,22.7],"n":null}},{"type":"Feature","geometry":{"type":"LineString","coordinates":[[21.012,52.25279],[20.99614,52.25168]]},"properties":{"id":"warszawa-071","route":null,"mode":"bus","stop_from":"Przystanek B4","stop_to":"Przystanek C4","plan_kmh":12.9,"kmh_p15":[null,9.7,null,null,9.7,9.5,9.1,8.6,8.4,8.6,9.1,9.5,9.6,9.5,9.2,8.7,8.2,8.2,8.7,9.2,9.5,9.7,null,9.7],"kmh_p50":[null,12.2,null,null,12.1,11.9,11.4,10.8,10.5,10.8,11.4,11.9,12.0,11.9,11.5,10.8,10.3,10.3,10.8,11.5,11.9,12.1,null,12.2],"kmh_p85":[null,14.3,null,null,14.3,14.0,13.4,12.7,12.3,12.7,13.4,14.0,14.2,14.0,13.5,12.8,12.1,12.1,12.8,13.5,14.0,14.3,null,14.3],"n":null}},{"type":"Feature","geometry":{"type":"LineString","coordinates":[[20.99614,52.25168],[20.98183,52.24844]]},"properties":{"id":"warszawa-072","route":null,"mode":"bus","stop_from":"Przystanek C4","stop_to":"Przystanek D4","plan_kmh":19.4,"kmh_p15":[null,null,null,null,14.6,14.3,13.7,13.0,12.6,13.0,13.7,14.3,14.5,14.3,13.8,13.0,12.4,12.4,13.0,13.8,14.4,14.6,14.6,14.7],"kmh_p50":[null,null,null,null,18.2,17.9,17.2,16.2,15.8,16.2,17.2,17.9,18.1,17.9,17.3,16.3,15.5,15.5,16.3,17.3,17.9,18.2,18.3,18.3],"kmh_p85":[null,null,null,null,21.5,21.1,20.3,19.1,18.6,19.1,20.3,21.1,21.4,21.1,20.4,19.2,18.3,18.3,19.2,20.4,21.2,21.5,21.6,21.6],"n":null}},{"type":"Feature","geometry":{"type":"LineString","coordinates":[[20.98183,52.24844],[20.97047,52.2434]]},"properties":{"id":"warszawa-073","route":null,"mode":"bus","stop_from":"Przystanek D4","stop_to":"Przystanek E4","plan_kmh":19.4,"kmh_p15":[null,null,14.7,null,14.6,14.3,13.8,13.0,12.6,13.0,13.8,14.3,14.5,14.4,13.8,13.1,12.4,12.4,13.1,13.8,14.4,14.6,null,null],"kmh_p50":[null,null,18.3,null,18.2,17.9,17.2,16.2,15.8,16.2,17.2,17.9,18.1,17.9,17.3,16.3,15.5,15.5,16.3,17.3,18.0,18.2,null,null],"kmh_p85":[null,null,21.6,null,21.5,21.1,20.3,19.2,18.6,19.2,20.3,21.1,21.4,21.2,20.4,19.3,18.3,18.3,19.3,20.4,21.2,21.5,null,null],"n":null}},{"type":"Feature","geometry":{"type":"LineString","coordinates":[[20.97047,52.2434],[20.96318,52.23704]]},"properties":{"id":"warszawa-074","route":null,"mode":"bus","stop_from":"Przystanek E4","stop_to":"Przystanek F4","plan_kmh":14.5,"kmh_p15":[null,11.0,null,null,10.9,10.7,10.3,9.7,9.4,9.7,10.3,10.7,10.8,10.7,10.3,9.7,9.3,9.3,9.8,10.3,10.7,10.9,10.9,11.0],"kmh_p50":[null,13.7,null,null,13.6,13.4,12.8,12.1,11.8,12.1,12.8,13.4,13.5,13.4,12.9,12.2,11.6,11.6,12.2,12.9,13.4,13.6,13.7,13.7],"kmh_p85":[null,16.2,null,null,16.1,15.8,15.1,14.3,13.9,14.3,15.1,15.8,16.0,15.8,15.2,14.4,13.7,13.7,14.4,15.2,15.8,16.1,16.1,16.2],"n":null}},{"type":"Feature","geometry":{"type":"LineString","coordinates":[[20.96067,52.23],[20.96318,52.22296]]},"properties":{"id":"warszawa-075","route":null,"mode":"bus","stop_from":"Przystanek G4","stop_to":"Przystanek H4","plan_kmh":16.3,"kmh_p15":[null,null,null,null,12.2,12.0,11.5,10.9,10.6,10.9,11.5,12.0,12.2,12.0,11.6,11.0,10.4,10.4,11.0,11.6,12.0,12.2,12.3,12.3],"kmh_p50":[null,null,null,null,15.3,15.0,14.4,13.6,13.2,13.6,14.4,15.0,15.2,15.0,14.5,13.7,13.0,13.0,13.7,14.5,15.1,15.3,15.4,15.4],"kmh_p85":[null,null,null,null,18.0,17.7,17.0,16.1,15.6,16.1,17.0,17.7,17.9,17.8,17.1,16.2,15.4,15.4,16.2,17.1,17.8,18.1,18.1,18.1],"n":null}},{"type":"Feature","geometry":{"type":"LineString","coordinates":[[20.96318,52.22296],[20.97047,52.2166]]},"properties":{"id":"warszawa-076","route":null,"mode":"bus","stop_from":"Przystanek H4","stop_to":"Przystanek I4","plan_kmh":17.0,"kmh_p15":[null,null,null,null,12.7,12.5,12.0,11.3,11.0,11.3,12.0,12.5,12.6,12.5,12.1,11.4,10.8,10.8,11.4,12.1,12.5,12.7,null,12.8],"kmh_p50":[null,null,null,null,15.9,15.6,15.0,14.2,13.7,14.2,15.0,15.6,15.8,15.6,15.1,14.2,13.5,13.5,14.2,15.1,15.7,15.9,null,16.0],"kmh_p85":[null,null,null,null,18.8,18.4,17.7,16.7,16.2,16.7,17.7,18.4,18.6,18.5,17.8,16.8,16.0,16.0,16.8,17.8,18.5,18.8,null,18.9],"n":null}},{"type":"Feature","geometry":{"type":"LineString","coordinates":[[20.97047,52.2166],[20.98183,52.21156]]},"properties":{"id":"warszawa-077","route":null,"mode":"bus","stop_from":"Przystanek I4","stop_to":"Przystanek J4","plan_kmh":20.4,"kmh_p15":[15.4,null,15.4,null,15.3,15.0,14.4,13.6,13.2,13.6,14.4,15.0,15.2,15.0,14.5,13.7,13.0,13.0,13.7,14.5,15.0,15.3,null,15.4],"kmh_p50":[19.2,null,19.2,null,19.1,18.8,18.0,17.0,16.5,17.0,18.0,18.7,19.0,18.8,18.1,17.1,16.3,16.3,17.1,18.1,18.8,19.1,null,19.2],"kmh_p85":[22.7,null,22.7,null,22.5,22.1,21.2,20.1,19.5,20.1,21.2,22.1,22.4,22.2,21.4,20.2,19.2,19.2,20.2,21.4,22.2,22.5,null,22.7],"n":null}},{"type":"Feature","geometry":{"type":"LineString","coordinates":[[20.98183,52.21156],[20.99614,52.20832]]},"properties":{"id":"warszawa-078","route":null,"mode":"bus","stop_from":"Przystanek J4","stop_to":"Przystanek K4","plan_kmh":22.5,"kmh_p15":[16.9,null,null,null,16.8,16.5,15.9,null,14.6,15.0,15.9,16.5,16.7,16.6,16.0,15.1,14.3,14.3,15.1,16.0,16.6,16.8,16.9,16.9],"kmh_p50":[21.2,null,null,null,21.0,20.7,19.8,null,18.2,18.7,19.8,20.6,20.9,20.7,20.0,18.8,17.9,17.9,18.8,20.0,20.7,21.0,21.1,21.2],"kmh_p85":[25.0,null,null,null,24.8,24.4,23.4,null,21.5,22.1,23.4,24.4,24.7,24.4,23.6,22.2,21.1,21.1,22.2,23.6,24.4,24.8,24.9,25.0],"n":null}},{"type":"Feature","geometry":{"type":"LineString","coordinates":[[21.012,52.20721],[21.02786,52.20832]]},"properties":{"id":"warszawa-079","route":null,"mode":"bus","stop_from":"Przystanek L4","stop_to":"Przystanek M4","plan_kmh":19.1,"kmh_p15":[null,null,14.4,null,14.3,14.1,13.5,12.8,12.4,12.8,13.5,14.1,14.2,14.1,13.6,12.8,12.2,12.2,12.8,13.6,14.1,14.3,null,14.4],"kmh_p50":[null,null,18.0,null,17.9,17.6,16.9,15.9,15.5,15.9,16.9,17.6,17.8,17.6,17.0,16.0,15.2,15.2,16.0,17.0,17.6,17.9,null,18.0],"kmh_p85":[null,null,21.2,null,21.1,20.8,19.9,18.8,18.3,18.8,19.9,20.7,21.0,20.8,20.0,18.9,18.0,18.0,18.9,20.1,20.8,21.1,null,21.2],"n":null}},{"type":"Feature","geometry":{"type":"LineString","coordinates":[[21.02786,52.20832],[21.04217,52.21156]]},"properties":{"id":"warszawa-080","route":null,"mode":"bus","stop_from":"Przystanek M4","stop_to":"Przystanek N4","plan_kmh":18.3,"kmh_p15":[null,13.8,null,null,13.7,13.5,13.0,12.2,11.9,12.2,13.0,13.5,13.7,13.5,13.0,12.3,11.7,11.7,12.3,13.0,13.5,13.7,13.8,13.8],"kmh_p50":[null,17.3,null,null,17.2,16.9,16.2,15.3,14.9,15.3,16.2,16.9,17.1,16.9,16.3,15.4,14.6,14.6,15.4,16.3,16.9,17.2,17.3,17.3],"kmh_p85":[null,20.4,null,null,20.3,19.9,19.1,18.1,17.5,18.1,19.1,19.9,20.2,19.9,19.2,18.1,17.3,17.3,18.1,19.2,20.0,20.3,20.4,20.4],"n":null}},{"type":"Feature","geometry":{"type":"LineString","coordinates":[[21.04217,52.21156],[21.05353,52.2166]]},"properties":{"id":"warszawa-081","route":null,"mode":"bus","stop_from":"Przystanek N4","stop_to":"Przystanek O4","plan_kmh":21.4,"kmh_p15":[null,null,null,16.2,16.1,15.8,15.2,14.3,13.9,14.3,15.2,15.8,16.0,15.8,15.3,14.4,13.7,null,14.4,15.3,15.9,16.1,null,null],"kmh_p50":[null,null,null,20.2,20.1,19.8,19.0,17.9,17.4,17.9,19.0,19.8,20.0,19.8,19.1,18.0,17.1,null,18.0,19.1,19.8,20.1,null,null],"kmh_p85":[null,null,null,23.9,23.8,23.3,22.4,21.2,20.5,21.2,22.4,23.3,23.6,23.4,22.5,21.3,20.2,null,21.3,22.5,23.4,23.8,null,null],"n":null}},{"type":"Feature","geometry":{"type":"LineString","coordinates":[[21.05353,52.2166],[21.06082,52.22296]]},"properties":{"id":"warszawa-082","route":null,"mode":"bus","stop_from":"Przystanek O4","stop_to":"Przystanek P4","plan_kmh":18.4,"kmh_p15":[null,null,null,null,13.9,13.6,13.1,12.4,12.0,12.4,13.1,13.6,13.8,13.7,13.2,12.4,11.8,11.8,12.4,13.2,13.7,13.9,14.0,null],"kmh_p50":[null,null,null,null,17.4,17.1,16.4,15.5,15.0,15.5,16.4,17.0,17.3,17.1,16.5,15.5,14.8,14.8,15.5,16.5,17.1,17.4,17.4,null],"kmh_p85":[null,null,null,null,20.5,20.1,19.3,18.2,17.7,18.2,19.3,20.1,20.4,20.2,19.4,18.3,17.4,17.4,18.3,19.4,20.2,20.5,20.6,null],"n":null}},{"type":"Feature","geometry":{"type":"LineString","coordinates":[[21.10733,52.23],[21.10267,52.24308]]},"properties":{"id":"warszawa-083","route":null,"mode":"bus","stop_from":"Przystanek R4","stop_to":"Przystanek S4","plan_kmh":24.1,"kmh_p15":[18.1,null,null,null,18.0,17.7,17.0,16.1,15.6,16.1,17.0,17.7,17.9,17.7,17.1,16.1,15.3,15.3,16.1,17.1,17.8,18.0,18.1,null],"kmh_p50":[22.7,null,null,null,22.5,22.1,21.2,20.1,19.5,20.1,21.2,22.1,22.4,22.2,21.4,20.2,19.2,19.2,20.2,21.4,22.2,22.5,22.6,null],"kmh_p85":[26.7,null,null,null,26.6,26.1,25.1,23.7,23.0,23.7,25.1,26.1,26.4,26.2,25.2,23.8,22.6,22.6,23.8,25.2,26.2,26.6,26.7,null],"n":null}},{"type":"Feature","geometry":{"type":"LineString","coordinates":[[21.10267,52.24308],[21.08913,52.25488]]},"properties":{"id":"warszawa-084","route":null,"mode":"bus","stop_from":"Przystanek S4","stop_to":"Przystanek T4","plan_kmh":null,"kmh_p15":[null,null,null,null,null,null,null,null,null,null,null,null,null,null,null,null,null,null,null,null,null,null,null,null],"kmh_p50":[null,null,null,null,null,null,null,null,null,null,null,null,null,null,null,null,null,null,null,null,null,null,null,null],"kmh_p85":[null,null,null,null,null,null,null,null,null,null,null,null,null,null,null,null,null,null,null,null,null,null,null,null],"n":null}},{"type":"Feature","geometry":{"type":"LineString","coordinates":[[21.08913,52.25488],[21.06803,52.26424]]},"properties":{"id":"warszawa-085","route":null,"mode":"bus","stop_from":"Przystanek T4","stop_to":"Przystanek U4","plan_kmh":null,"kmh_p15":[null,null,null,null,null,null,null,null,null,null,null,null,null,null,null,null,null,null,null,null,null,null,null,null],"kmh_p50":[null,null,null,null,null,null,null,null,null,null,null,null,null,null,null,null,null,null,null,null,null,null,null,null],"kmh_p85":[null,null,null,null,null,null,null,null,null,null,null,null,null,null,null,null,null,null,null,null,null,null,null,null],"n":null}},{"type":"Feature","geometry":{"type":"LineString","coordinates":[[21.06803,52.26424],[21.04146,52.27025]]},"properties":{"id":"warszawa-086","route":null,"mode":"bus","stop_from":"Przystanek U4","stop_to":"Przystanek V4","plan_kmh":21.9,"kmh_p15":[null,null,null,null,16.4,16.1,15.5,14.6,14.2,14.6,15.5,16.1,16.3,16.2,15.6,14.7,14.0,14.0,14.7,15.6,16.2,16.4,null,16.5],"kmh_p50":[null,null,null,null,20.5,20.2,19.4,18.3,17.8,18.3,19.4,20.2,20.4,20.2,19.5,18.4,17.5,17.5,18.4,19.5,20.2,20.5,null,20.7],"kmh_p85":[null,null,null,null,24.2,23.8,22.8,21.6,21.0,21.6,22.8,23.8,24.1,23.8,23.0,21.7,20.6,20.6,21.7,23.0,23.9,24.2,null,24.4],"n":null}},{"type":"Feature","geometry":{"type":"LineString","coordinates":[[21.04146,52.27025],[21.012,52.27233]]},"properties":{"id":"warszawa-087","route":null,"mode":"bus","stop_from":"Przystanek V4","stop_to":"Przystanek W4","plan_kmh":28.4,"kmh_p15":[null,null,21.5,null,21.3,21.0,20.1,19.0,18.5,19.0,20.1,20.9,21.2,21.0,20.2,19.1,18.2,18.2,19.1,20.2,21.0,21.3,21.4,null],"kmh_p50":[null,null,26.8,null,26.7,26.2,25.1,23.7,23.1,23.7,25.1,26.2,26.5,26.2,25.3,23.9,22.7,22.7,23.9,25.3,26.3,26.7,26.8,null],"kmh_p85":[null,null,31.6,null,31.5,30.9,29.7,28.0,27.2,28.0,29.7,30.9,31.3,31.0,29.9,28.2,26.8,26.8,28.2,29.9,31.0,31.5,31.6,null],"n":null}},{"type":"Feature","geometry":{"type":"LineString","coordinates":[[21.012,52.27233],[20.98254,52.27025]]},"properties":{"id":"warszawa-088","route":null,"mode":"bus","stop_from":"Przystanek W4","stop_to":"Przystanek X4","plan_kmh":29.4,"kmh_p15":[22.1,null,null,null,22.0,21.6,20.7,19.6,19.0,19.6,20.7,21.6,21.9,21.7,20.9,19.7,18.7,18.7,19.7,20.9,21.7,22.0,22.1,null],"kmh_p50":[27.7,null,null,null,27.5,27.0,25.9,24.5,23.8,24.5,25.9,27.0,27.4,27.1,26.1,24.6,23.4,23.4,24.6,26.1,27.1,27.5,27.6,null],"kmh_p85":[32.6,null,null,null,32.5,31.9,30.6,28.9,28.1,28.9,30.6,31.9,32.3,31.9,30.8,29.1,27.6,27.6,29.1,30.8,32.0,32.5,32.6,null],"n":null}},{"type":"Feature","geometry":{"type":"LineString","coordinates":[[20.98254,52.27025],[20.95597,52.26424]]},"properties":{"id":"warszawa-089","route":null,"mode":"bus","stop_from":"Przystanek X4","stop_to":"Przystanek Y4","plan_kmh":23.0,"kmh_p15":[null,null,null,null,17.4,17.1,16.4,15.5,15.0,15.5,16.4,17.0,17.3,17.1,16.5,15.5,14.8,14.8,15.5,16.5,17.1,17.4,null,null],"kmh_p50":[null,null,null,null,21.7,21.3,20.5,19.3,18.8,19.3,20.5,21.3,21.6,21.4,20.6,19.4,18.5,18.5,19.4,20.6,21.4,21.7,null,null],"kmh_p85":[null,null,null,null,25.6,25.2,24.1,22.8,22.2,22.8,24.1,25.1,25.5,25.2,24.3,22.9,21.8,21.8,22.9,24.3,25.2,25.6,null,null],"n":null}},{"type":"Feature","geometry":{"type":"LineString","coordinates":[[20.95597,52.26424],[20.93487,52.25488]]},"properties":{"id":"warszawa-090","route":null,"mode":"bus","stop_from":"Przystanek Y4","stop_to":"Przystanek Z4","plan_kmh":27.1,"kmh_p15":[20.5,null,null,null,20.4,20.0,19.2,18.1,17.6,18.1,19.2,20.0,20.2,20.0,19.3,18.2,17.3,17.3,18.2,19.3,20.1,20.4,20.5,20.5],"kmh_p50":[25.6,null,null,null,25.4,25.0,24.0,22.7,22.0,22.7,24.0,25.0,25.3,25.0,24.1,22.8,21.7,21.7,22.8,24.2,25.1,25.5,25.6,25.6],"kmh_p85":[30.2,null,null,null,30.0,29.5,28.3,26.7,26.0,26.7,28.3,29.5,29.9,29.5,28.5,26.9,25.6,25.6,26.9,28.5,29.6,30.0,30.2,30.2],"n":null}},{"type":"Feature","geometry":{"type":"LineString","coordinates":[[20.93487,52.25488],[20.92133,52.24308]]},"properties":{"id":"warszawa-091","route":null,"mode":"bus","stop_from":"Przystanek Z4","stop_to":"Przystanek A5","plan_kmh":28.0,"kmh_p15":[null,null,null,21.1,21.0,20.6,19.8,18.7,18.2,18.7,19.8,20.6,20.9,20.7,19.9,18.8,17.9,17.9,18.8,19.9,20.7,21.0,21.1,21.1],"kmh_p50":[null,null,null,26.4,26.3,25.8,24.8,23.4,22.7,23.4,24.8,25.8,26.1,25.8,24.9,23.5,22.4,22.4,23.5,24.9,25.9,26.3,26.4,26.4],"kmh_p85":[null,null,null,31.1,31.0,30.5,29.2,27.6,26.8,27.6,29.2,30.4,30.8,30.5,29.4,27.7,26.4,26.4,27.8,29.4,30.5,31.0,31.1,31.2],"n":null}},{"type":"Feature","geometry":{"type":"LineString","coordinates":[[20.92133,52.24308],[20.91667,52.23]]},"properties":{"id":"warszawa-092","route":null,"mode":"bus","stop_from":"Przystanek A5","stop_to":"Przystanek B5","plan_kmh":28.6,"kmh_p15":[21.6,null,21.6,null,21.5,21.1,20.2,19.1,null,19.1,20.2,21.1,21.3,21.1,20.4,19.2,18.3,18.3,19.2,20.4,21.1,21.5,null,21.6],"kmh_p50":[27.0,null,27.0,null,26.8,26.4,25.3,23.9,null,23.9,25.3,26.3,26.7,26.4,25.5,24.0,22.8,22.8,24.0,25.5,26.4,26.8,null,27.0],"kmh_p85":[31.8,null,31.8,null,31.7,31.1,29.8,28.2,null,28.2,29.8,31.1,31.5,31.1,30.0,28.3,27.0,27.0,28.3,30.0,31.2,31.7,null,31.8],"n":null}},{"type":"Feature","geometry":{"type":"LineString","coordinates":[[20.91667,52.23],[20.92133,52.21692]]},"properties":{"id":"warszawa-093","route":null,"mode":"bus","stop_from":"Przystanek B5","stop_to":"Przystanek C5","plan_kmh":29.2,"kmh_p15":[null,22.0,null,null,21.9,21.5,20.6,19.5,18.9,19.5,20.6,21.5,21.8,21.5,20.8,19.6,18.6,18.6,19.6,20.8,21.6,21.9,22.0,22.0],"kmh_p50":[null,27.5,null,null,27.4,26.9,25.8,24.4,23.7,24.4,25.8,26.9,27.2,26.9,26.0,24.5,23.3,23.3,24.5,26.0,26.9,27.4,27.5,27.5],"kmh_p85":[null,32.5,null,null,32.3,31.7,30.4,28.8,27.9,28.7,30.4,31.7,32.1,31.8,30.6,28.9,27.5,27.5,28.9,30.6,31.8,32.3,32.4,32.5],"n":null}},{"type":"Feature","geometry":{"type":"LineString","coordinates":[[20.92133,52.21692],[20.93487,52.20512]]},"properties":{"id":"warszawa-094","route":null,"mode":"bus","stop_from":"Przystanek C5","stop_to":"Przystanek D5","plan_kmh":21.5,"kmh_p15":[null,null,null,null,16.3,16.0,15.3,14.5,14.1,14.5,15.3,16.0,16.2,16.0,15.4,14.6,13.8,13.8,14.6,15.4,16.0,16.3,null,null],"kmh_p50":[null,null,null,null,20.3,20.0,19.2,18.1,17.6,18.1,19.2,19.9,20.2,20.0,19.3,18.2,17.3,17.3,18.2,19.3,20.0,20.3,null,null],"kmh_p85":[null,null,null,null,24.0,23.6,22.6,21.4,20.7,21.4,22.6,23.5,23.9,23.6,22.8,21.5,20.4,20.4,21.5,22.8,23.6,24.0,null,null],"n":null}},{"type":"Feature","geometry":{"type":"LineString","coordinates":[[20.93487,52.20512],[20.95597,52.19576]]},"properties":{"id":"warszawa-095","route":null,"mode":"bus","stop_from":"Przystanek D5","stop_to":"Przystanek E5","plan_kmh":23.6,"kmh_p15":[17.8,null,null,null,17.7,17.4,16.7,15.8,15.3,15.8,16.7,17.4,17.6,17.5,16.8,15.9,15.1,15.1,15.9,16.8,17.5,17.7,null,null],"kmh_p50":[22.3,null,null,null,22.2,21.8,20.9,19.8,19.2,19.8,20.9,21.8,22.1,21.8,21.0,19.9,18.9,18.9,19.9,21.0,21.8,22.2,null,null],"kmh_p85":[26.3,null,null,null,26.2,25.7,24.7,23.3,22.6,23.3,24.7,25.7,26.0,25.8,24.8,23.4,22.3,22.3,23.4,24.8,25.8,26.2,null,null],"n":null}},{"type":"Feature","geometry":{"type":"LineString","coordinates":[[20.95597,52.19576],[20.98254,52.18975]]},"properties":{"id":"warszawa-096","route":null,"mode":"bus","stop_from":"Przystanek E5","stop_to":"Przystanek F5","plan_kmh":24.9,"kmh_p15":[null,null,null,18.8,18.7,18.4,17.6,16.6,16.2,16.6,17.6,18.3,18.6,18.4,17.7,16.7,15.9,15.9,16.7,17.7,18.4,18.7,null,18.8],"kmh_p50":[null,null,null,23.5,23.4,23.0,22.0,20.8,20.2,20.8,22.0,22.9,23.2,23.0,22.2,20.9,19.9,19.9,20.9,22.2,23.0,23.4,null,23.5],"kmh_p85":[null,null,null,27.7,27.6,27.1,26.0,24.5,23.8,24.5,26.0,27.1,27.4,27.1,26.2,24.7,23.5,23.5,24.7,26.2,27.2,27.6,null,27.7],"n":null}},{"type":"Feature","geometry":{"type":"LineString","coordinates":[[20.98254,52.18975],[21.012,52.18767]]},"properties":{"id":"warszawa-097","route":null,"mode":"bus","stop_from":"Przystanek F5","stop_to":"Przystanek G5","plan_kmh":21.5,"kmh_p15":[null,null,null,null,16.2,15.9,15.3,14.4,14.0,14.4,15.3,15.9,16.1,15.9,15.4,14.5,13.8,13.8,14.5,15.4,16.0,16.2,null,null],"kmh_p50":[null,null,null,null,20.2,19.9,19.1,18.0,17.5,18.0,19.1,19.9,20.1,19.9,19.2,18.1,17.2,17.2,18.1,19.2,19.9,20.3,null,null],"kmh_p85":[null,null,null,null,23.9,23.5,22.5,21.3,20.7,21.3,22.5,23.4,23.8,23.5,22.7,21.4,20.3,20.3,21.4,22.7,23.5,23.9,null,null],"n":null}},{"type":"Feature","geometry":{"type":"LineString","coordinates":[[21.012,52.18767],[21.04146,52.18975]]},"properties":{"id":"warszawa-098","route":null,"mode":"bus","stop_from":"Przystanek G5","stop_to":"Przystanek H5","plan_kmh":22.2,"kmh_p15":[null,null,null,null,16.6,null,15.7,14.8,14.4,14.8,15.7,16.3,16.5,16.4,15.8,14.9,14.2,14.2,14.9,15.8,16.4,16.6,16.7,null],"kmh_p50":[null,null,null,null,20.8,null,19.6,18.5,18.0,18.5,19.6,20.4,20.7,20.5,19.7,18.6,17.7,17.7,18.6,19.7,20.5,20.8,20.9,null],"kmh_p85":[null,null,null,null,24.5,null,23.1,21.8,21.2,21.8,23.1,24.1,24.4,24.1,23.3,22.0,20.9,20.9,22.0,23.3,24.2,24.5,24.6,null],"n":null}},{"type":"Feature","geometry":{"type":"LineString","coordinates":[[21.04146,52.18975],[21.06803,52.19576]]},"properties":{"id":"warszawa-099","route":null,"mode":"bus","stop_from":"Przystanek H5","stop_to":"Przystanek I5","plan_kmh":27.1,"kmh_p15":[null,null,null,null,20.3,20.0,19.2,18.1,17.6,18.1,19.2,20.0,20.2,20.0,19.3,18.2,17.3,17.3,18.2,19.3,20.0,20.4,20.4,null],"kmh_p50":[null,null,null,null,25.4,25.0,24.0,22.6,22.0,22.6,24.0,25.0,25.3,25.0,24.1,22.8,21.7,21.7,22.8,24.1,25.0,25.4,25.6,null],"kmh_p85":[null,null,null,null,30.0,29.5,28.3,26.7,26.0,26.7,28.3,29.5,29.8,29.5,28.5,26.9,25.6,25.6,26.9,28.5,29.6,30.0,30.2,null],"n":null}},{"type":"Feature","geometry":{"type":"LineString","coordinates":[[21.06803,52.19576],[21.08913,52.20512]]},"properties":{"id":"warszawa-100","route":null,"mode":"bus","stop_from":"Przystanek I5","stop_to":"Przystanek J5","plan_kmh":30.5,"kmh_p15":[null,23.0,null,null,22.9,22.5,21.6,20.4,19.8,20.4,21.6,22.5,22.8,22.5,21.7,20.5,19.5,19.5,20.5,21.7,22.6,22.9,23.0,null],"kmh_p50":[null,28.8,null,null,28.6,28.1,27.0,25.5,24.8,25.5,27.0,28.1,28.5,28.2,27.2,25.6,24.4,24.4,25.6,27.2,28.2,28.6,28.8,null],"kmh_p85":[null,34.0,null,null,33.8,33.2,31.8,30.1,29.2,30.1,31.8,33.2,33.6,33.2,32.1,30.2,28.8,28.8,30.2,32.1,33.3,33.8,33.9,null],"n":null}},{"type":"Feature","geometry":{"type":"LineString","coordinates":[[21.08913,52.20512],[21.10267,52.21692]]},"properties":{"id":"warszawa-101","route":null,"mode":"bus","stop_from":"Przystanek J5","stop_to":"Przystanek K5","plan_kmh":27.0,"kmh_p15":[null,null,null,null,20.3,19.9,19.1,18.0,17.5,18.0,19.1,19.9,20.1,19.9,19.2,18.1,17.3,17.3,18.1,19.2,20.0,20.3,null,20.4],"kmh_p50":[null,null,null,null,25.3,24.9,23.9,22.6,21.9,22.6,23.9,24.9,25.2,24.9,24.0,22.7,21.6,21.6,22.7,24.0,24.9,25.3,null,25.5],"kmh_p85":[null,null,null,null,29.9,29.4,28.2,26.6,25.8,26.6,28.2,29.3,29.7,29.4,28.4,26.8,25.4,25.4,26.8,28.4,29.4,29.9,null,30.1],"n":null}},{"type":"Feature","geometry":{"type":"LineString","coordinates":[[21.10267,52.21692],[21.10733,52.23]]},"properties":{"id":"warszawa-102","route":null,"mode":"bus","stop_from":"Przystanek K5","stop_to":"Przystanek L5","plan_kmh":21.0,"kmh_p15":[null,null,null,null,15.8,15.5,14.8,14.0,13.6,14.0,14.8,15.5,15.7,15.5,14.9,14.1,null,13.4,14.1,14.9,15.5,15.8,15.8,15.8],"kmh_p50":[null,null,null,null,19.7,19.3,18.6,17.5,17.0,17.5,18.6,19.3,19.6,19.4,18.7,17.6,null,16.8,17.6,18.7,19.4,19.7,19.8,19.8],"kmh_p85":[null,null,null,null,23.2,22.8,21.9,20.7,20.1,20.7,21.9,22.8,23.1,22.9,22.0,20.8,null,19.8,20.8,22.0,22.9,23.2,23.3,23.4],"n":null}}]}