{
"type": "FeatureCollection",
"name": "bucharest",
"crs": { "type": "name", "properties": { "name": "urn:ogc:def:crs:OGC:1.3:CRS84" } },
"features": [
{ "type": "Feature", "properties": { }, "geometry": { "type": "Polygon", "coordinates": [ [ [ 26.088120500000059, 44.369243499000049 ], [ 26.086092, 44.369371499000067 ], [ 26.085963500000048, 44.36948299900007 ], [ 26.080750500000079, 44.370146499000043 ], [ 26.078058, 44.371008999000026 ], [ 26.07523, 44.37200849900006 ], [ 26.076594, 44.378063999000062 ], [ 26.071420500000045, 44.378659999000035 ], [ 26.069354500000031, 44.376272999000037 ], [ 26.068923500000039, 44.374648999000044 ], [ 26.063428, 44.376920999000049 ], [ 26.061430500000029, 44.377555999000037 ], [ 26.061448, 44.377680999000063 ], [ 26.056066500000043, 44.379545999000072 ], [ 26.054013, 44.376069999000038 ], [ 26.047007, 44.377716999000029 ], [ 26.046838500000035, 44.376949999000033 ], [ 26.045730500000047, 44.374987999000041 ], [ 26.033016, 44.383181499000045 ], [ 26.039402, 44.38709299900006 ], [ 26.034933, 44.390900999000053 ], [ 26.034070500000041, 44.390395999000077 ], [ 26.034424, 44.390097499000035 ], [ 26.034085, 44.389810999000076 ], [ 26.031301, 44.388384999000039 ], [ 26.029563, 44.389757999000039 ], [ 26.029077, 44.389541499000075 ], [ 26.028462500000046, 44.389703999000062 ], [ 26.027791500000035, 44.390570499000034 ], [ 26.026977500000044, 44.390823499000078 ], [ 26.026463, 44.391296499000077 ], [ 26.025396500000056, 44.392351999000027 ], [ 26.025499500000024, 44.392380499000069 ], [ 26.015715, 44.401649999000028 ], [ 26.013509500000055, 44.403592499000069 ], [ 26.013287, 44.403458499000067 ], [ 26.010851500000058, 44.405766499000038 ], [ 26.003177, 44.401646499000037 ], [ 26.002149, 44.403454499000077 ], [ 25.997221500000023, 44.402836999000044 ], [ 25.996174500000052, 44.406664499000044 ], [ 25.995495500000061, 44.409272499000053 ], [ 25.988984, 44.407350999000073 ], [ 25.98225750000006, 44.407445499000062 ], [ 25.975966500000027, 44.406371999000044 ], [ 25.971929, 44.415708499000061 ], [ 25.96882, 44.423405499000069 ], [ 25.968753500000048, 44.424196499000061 ], [ 25.967946, 44.431537999000057 ], [ 25.967310500000053, 44.431922999000051 ], [ 25.966796500000044, 44.436482499000078 ], [ 25.967195, 44.436444999000059 ], [ 25.966652, 44.440725499000052 ], [ 26.012309, 44.44294749900007 ], [ 26.014639500000044, 44.443894999000065 ], [ 26.019185500000049, 44.446075499000074 ], [ 26.019785500000069, 44.448431999000036 ], [ 26.01947, 44.448431499000037 ], [ 26.017925, 44.449662999000054 ], [ 26.017241500000068, 44.449282999000047 ], [ 26.015953500000023, 44.449117999000066 ], [ 26.014763, 44.449630999000078 ], [ 26.01458, 44.450266499000065 ], [ 26.014191, 44.451288499000043 ], [ 26.013526500000069, 44.452100499000039 ], [ 26.013186, 44.454183999000065 ], [ 26.015874500000052, 44.455392499000027 ], [ 26.013597, 44.45789699900007 ], [ 26.013115, 44.458091999000033 ], [ 26.011988, 44.458234999000069 ], [ 26.010677500000043, 44.458150499000055 ], [ 26.009743, 44.457922499000063 ], [ 26.00849050000005, 44.457909499000039 ], [ 26.006535, 44.458347999000068 ], [ 26.001850500000046, 44.460471999000049 ], [ 25.99259550000005, 44.463231499000074 ], [ 25.982076500000062, 44.467040999000062 ], [ 25.979713500000059, 44.466570999000055 ], [ 25.977841500000068, 44.465852999000049 ], [ 25.976005, 44.465582999000048 ], [ 25.975937500000043, 44.46640349900008 ], [ 25.977264500000047, 44.467147999000076 ], [ 25.977083, 44.467403499000056 ], [ 25.976331500000072, 44.467606499000055 ], [ 25.979599500000063, 44.470440499000063 ], [ 25.980129500000032, 44.471652499000072 ], [ 25.980242, 44.471971999000061 ], [ 25.980413500000054, 44.477033999000071 ], [ 25.980613, 44.478053499000055 ], [ 25.980769, 44.478040999000029 ], [ 25.981614, 44.479950999000039 ], [ 25.983299500000044, 44.482125499000063 ], [ 25.983867, 44.48309849900005 ], [ 25.986556, 44.489865499000075 ], [ 25.987820500000055, 44.492105499000047 ], [ 25.987174500000037, 44.491986999000062 ], [ 25.986091, 44.491412499000035 ], [ 25.987931, 44.492699499000025 ], [ 25.986454500000036, 44.493056499000033 ], [ 25.983578500000078, 44.495035499000039 ], [ 25.983719, 44.495561999000074 ], [ 25.984307500000057, 44.496594999000081 ], [ 25.982937500000048, 44.497022499000025 ], [ 25.98322150000007, 44.497993999000073 ], [ 25.98677, 44.498924999000053 ], [ 25.987707500000056, 44.499643499000058 ], [ 25.990374, 44.498388499000043 ], [ 25.99273450000004, 44.496913499000073 ], [ 25.994791, 44.495866999000043 ], [ 25.995268500000066, 44.496123999000076 ], [ 25.995870500000024, 44.497147999000049 ], [ 25.998546, 44.499036499000056 ], [ 25.999282500000049, 44.499236499000062 ], [ 26.001289500000041, 44.498845499000026 ], [ 26.003834, 44.498965499000064 ], [ 26.004691500000035, 44.499346499000069 ], [ 26.006421, 44.499695999000039 ], [ 26.00683, 44.500060499000028 ], [ 26.008802500000058, 44.510632999000052 ], [ 26.008631, 44.511662499000067 ], [ 26.009377500000028, 44.512836499000059 ], [ 26.008449, 44.513754499000072 ], [ 26.008564500000034, 44.514820999000051 ], [ 26.010675500000048, 44.515997999000035 ], [ 26.011915500000043, 44.515995499000041 ], [ 26.012862, 44.515184999000041 ], [ 26.025323, 44.520135999000047 ], [ 26.024879500000054, 44.520376999000064 ], [ 26.024614, 44.52021699900007 ], [ 26.022904, 44.52220999900004 ], [ 26.022542, 44.522985499000072 ], [ 26.022733500000072, 44.523580499000047 ], [ 26.023835, 44.52549699900004 ], [ 26.024391500000036, 44.525972999000032 ], [ 26.029288500000064, 44.527690999000072 ], [ 26.033500500000059, 44.52355299900006 ], [ 26.049201500000038, 44.529821999000035 ], [ 26.048729, 44.531022999000072 ], [ 26.049469, 44.531313499000078 ], [ 26.050147500000037, 44.530076999000073 ], [ 26.068574500000068, 44.534849499000075 ], [ 26.068828, 44.535048999000026 ], [ 26.068731500000069, 44.538324999000054 ], [ 26.069255500000054, 44.539370499000029 ], [ 26.071826500000043, 44.540611999000078 ], [ 26.072999, 44.541381499000067 ], [ 26.073610500000029, 44.541088999000067 ], [ 26.07623, 44.541001999000059 ], [ 26.076676500000076, 44.540724999000076 ], [ 26.077376, 44.539295499000048 ], [ 26.077676, 44.537115499000038 ], [ 26.080204, 44.537407499000039 ], [ 26.082295500000043, 44.537885499000026 ], [ 26.085276, 44.538305499000046 ], [ 26.088054500000055, 44.538365499000065 ], [ 26.096924500000057, 44.539326999000025 ], [ 26.09673250000003, 44.540467499000044 ], [ 26.097629, 44.540561999000033 ], [ 26.097691, 44.541228999000055 ], [ 26.100591, 44.541398499000081 ], [ 26.100870500000042, 44.54069449900004 ], [ 26.101635, 44.540676499000028 ], [ 26.101773500000036, 44.539576999000076 ], [ 26.104455500000029, 44.539542999000048 ], [ 26.103129, 44.529828999000074 ], [ 26.104889, 44.526544499000067 ], [ 26.104489500000057, 44.520541999000045 ], [ 26.104305, 44.519854499000076 ], [ 26.104955, 44.518872999000052 ], [ 26.104886500000077, 44.518574499000067 ], [ 26.106205, 44.518406999000035 ], [ 26.106135, 44.517570999000043 ], [ 26.105729500000052, 44.517578499000081 ], [ 26.105501, 44.51541449900003 ], [ 26.104644, 44.515457999000034 ], [ 26.104027500000029, 44.515224999000054 ], [ 26.102935500000058, 44.51025899900003 ], [ 26.102908, 44.508579999000062 ], [ 26.104019, 44.504908999000065 ], [ 26.108710500000029, 44.505919499000072 ], [ 26.109757, 44.503299999000035 ], [ 26.104786500000046, 44.502274499000066 ], [ 26.104373, 44.501637499000026 ], [ 26.105235500000049, 44.500322499000049 ], [ 26.105538500000023, 44.50041599900004 ], [ 26.106045, 44.499090499000033 ], [ 26.106641, 44.498250999000049 ], [ 26.107161, 44.49691049900008 ], [ 26.107791500000076, 44.496382999000048 ], [ 26.108885500000042, 44.49680999900005 ], [ 26.111653, 44.492279499000063 ], [ 26.111751500000025, 44.492042999000034 ], [ 26.110634, 44.491406999000048 ], [ 26.110622500000034, 44.49073099900005 ], [ 26.114721, 44.487752999000065 ], [ 26.114812, 44.487384499000029 ], [ 26.115160500000059, 44.487221499000043 ], [ 26.159379, 44.482167999000069 ], [ 26.18486850000005, 44.479109999000059 ], [ 26.184671, 44.478971999000066 ], [ 26.182887, 44.479148499000075 ], [ 26.181326, 44.478928499000062 ], [ 26.180161500000054, 44.478456999000059 ], [ 26.178704, 44.477572499000075 ], [ 26.164099500000077, 44.465227499000036 ], [ 26.155939500000045, 44.455445499000064 ], [ 26.156483500000036, 44.454780499000037 ], [ 26.157169500000066, 44.454514499000027 ], [ 26.159170500000073, 44.454028999000059 ], [ 26.160764, 44.454126999000039 ], [ 26.161736500000075, 44.453314499000044 ], [ 26.162443500000052, 44.453098999000076 ], [ 26.163289, 44.453092999000035 ], [ 26.163708, 44.453360499000041 ], [ 26.165669, 44.453148499000065 ], [ 26.166499, 44.452918499000077 ], [ 26.168594, 44.45098099900008 ], [ 26.169083500000056, 44.450721499000053 ], [ 26.169688, 44.450792499000045 ], [ 26.174391, 44.453609999000037 ], [ 26.17607, 44.453944499000045 ], [ 26.176777, 44.453880999000035 ], [ 26.177419500000042, 44.453549999000074 ], [ 26.177702500000066, 44.452969499000062 ], [ 26.177687500000047, 44.45222349900007 ], [ 26.177042, 44.450483499000029 ], [ 26.177204500000073, 44.449762999000029 ], [ 26.17675950000006, 44.449098999000057 ], [ 26.174513500000046, 44.446866999000065 ], [ 26.174318500000027, 44.445990499000061 ], [ 26.174419500000056, 44.445355499000073 ], [ 26.17469, 44.44498149900005 ], [ 26.175784500000077, 44.444390499000065 ], [ 26.17624, 44.444277999000064 ], [ 26.177225, 44.444331999000042 ], [ 26.180682, 44.445943999000065 ], [ 26.181650500000046, 44.445991999000057 ], [ 26.182862, 44.445699499000057 ], [ 26.182623500000034, 44.44530099900004 ], [ 26.183578, 44.444981999000049 ], [ 26.183841500000028, 44.445375499000079 ], [ 26.186989500000038, 44.443953499000031 ], [ 26.187761, 44.443806499000061 ], [ 26.188897, 44.444273499000076 ], [ 26.189933, 44.445031499000038 ], [ 26.191473500000029, 44.446656999000027 ], [ 26.192146, 44.446838999000079 ], [ 26.193079, 44.446853999000041 ], [ 26.194060500000035, 44.446641999000065 ], [ 26.194853, 44.446352999000055 ], [ 26.195995500000038, 44.445572499000036 ], [ 26.19751, 44.442551999000045 ], [ 26.197687500000029, 44.442239499000038 ], [ 26.197766, 44.442100999000047 ], [ 26.196987500000034, 44.441689999000062 ], [ 26.196668500000044, 44.441017999000053 ], [ 26.197129, 44.439998499000069 ], [ 26.197790500000053, 44.43937949900004 ], [ 26.19878250000005, 44.438867499000025 ], [ 26.199964, 44.438692999000068 ], [ 26.201078, 44.438682499000038 ], [ 26.20360450000004, 44.438981999000077 ], [ 26.204919500000074, 44.438834499000052 ], [ 26.205624, 44.438089999000056 ], [ 26.206120500000054, 44.436251499000036 ], [ 26.206446500000027, 44.435613499000056 ], [ 26.207755, 44.434158999000033 ], [ 26.20921050000004, 44.433474999000055 ], [ 26.211510500000031, 44.433006499000044 ], [ 26.212689500000067, 44.433459499000037 ], [ 26.213396, 44.43425699900007 ], [ 26.214178, 44.434762499000044 ], [ 26.215074500000071, 44.434973999000078 ], [ 26.215567500000077, 44.434735999000054 ], [ 26.217695, 44.431852499000058 ], [ 26.218078500000047, 44.431549999000026 ], [ 26.219051500000035, 44.431151999000065 ], [ 26.222426, 44.431593999000029 ], [ 26.224444500000061, 44.43260649900003 ], [ 26.225549500000056, 44.432406999000079 ], [ 26.225404500000025, 44.431539999000051 ], [ 26.22475, 44.430334499000026 ], [ 26.224117, 44.428537999000071 ], [ 26.22381, 44.427921499000036 ], [ 26.223598, 44.427966499000036 ], [ 26.222725500000024, 44.426344999000037 ], [ 26.221181500000057, 44.426659499000039 ], [ 26.220877, 44.42635049900008 ], [ 26.220774, 44.425481999000056 ], [ 26.224437500000079, 44.42445649900003 ], [ 26.224274, 44.424078499000075 ], [ 26.223977, 44.424145999000075 ], [ 26.223160500000063, 44.422311999000044 ], [ 26.222845500000062, 44.422382999000035 ], [ 26.221389, 44.418148999000039 ], [ 26.218251500000065, 44.418638999000052 ], [ 26.217732500000068, 44.417001499000037 ], [ 26.218129, 44.412662999000077 ], [ 26.218488500000035, 44.408646499000042 ], [ 26.21785, 44.40714549900008 ], [ 26.211149500000033, 44.406363999000064 ], [ 26.211817, 44.405234999000072 ], [ 26.21189, 44.404548499000043 ], [ 26.208473500000025, 44.405090499000039 ], [ 26.208401500000036, 44.404924999000059 ], [ 26.208018500000037, 44.403352999000049 ], [ 26.208648, 44.403064999000037 ], [ 26.208966, 44.402996999000038 ], [ 26.209483500000033, 44.403979999000057 ], [ 26.210406500000033, 44.404088499000068 ], [ 26.211462, 44.403771499000072 ], [ 26.212339, 44.403212999000061 ], [ 26.212762500000053, 44.402560999000059 ], [ 26.212893, 44.40207999900008 ], [ 26.212671, 44.401546499000062 ], [ 26.212867, 44.400832499000046 ], [ 26.213375, 44.399606999000071 ], [ 26.213696500000026, 44.399644499000033 ], [ 26.214062500000068, 44.399203499000066 ], [ 26.214064, 44.398855499000035 ], [ 26.213954, 44.398684999000068 ], [ 26.211718500000075, 44.398604499000044 ], [ 26.21204350000005, 44.395647499000063 ], [ 26.212106, 44.395070999000041 ], [ 26.183647500000063, 44.393840499000078 ], [ 26.180901500000061, 44.39383299900004 ], [ 26.177759500000036, 44.394318499000065 ], [ 26.161884, 44.398275999000077 ], [ 26.157027500000027, 44.391949499000077 ], [ 26.156813500000055, 44.390639499000031 ], [ 26.156538, 44.390203499000052 ], [ 26.154282500000079, 44.388009499000077 ], [ 26.153586, 44.386964999000043 ], [ 26.154032, 44.386806999000044 ], [ 26.151737500000024, 44.383644999000069 ], [ 26.151172, 44.383860499000036 ], [ 26.147472, 44.378632499000048 ], [ 26.148475500000075, 44.378223499000057 ], [ 26.145612, 44.374646999000049 ], [ 26.145446, 44.37448899900005 ], [ 26.144949500000052, 44.374680499000078 ], [ 26.14359550000006, 44.372936999000046 ], [ 26.143394500000056, 44.372604499000033 ], [ 26.144854500000065, 44.37203499900005 ], [ 26.143588, 44.370211999000048 ], [ 26.142817, 44.369454499000028 ], [ 26.143011500000057, 44.369202499000039 ], [ 26.143704, 44.369361499000036 ], [ 26.144213, 44.368701499000053 ], [ 26.143653, 44.368403999000066 ], [ 26.144580500000075, 44.367170999000052 ], [ 26.145574, 44.366020499000058 ], [ 26.145724500000028, 44.366086499000062 ], [ 26.147705500000029, 44.363621999000031 ], [ 26.148144500000058, 44.363301499000045 ], [ 26.148593500000061, 44.36350199900005 ], [ 26.150391500000069, 44.361113999000054 ], [ 26.152164500000026, 44.357455999000081 ], [ 26.161237, 44.345559999000045 ], [ 26.16434, 44.346802999000033 ], [ 26.166795, 44.343619999000055 ], [ 26.164081, 44.34257149900003 ], [ 26.163210500000048, 44.342744499000048 ], [ 26.163808, 44.341754999000045 ], [ 26.156163, 44.339428999000063 ], [ 26.157139, 44.337639999000032 ], [ 26.156630500000063, 44.337092999000049 ], [ 26.156444500000077, 44.33553499900006 ], [ 26.151923, 44.334247499000071 ], [ 26.149455, 44.33561449900003 ], [ 26.148912, 44.336300999000059 ], [ 26.147614500000032, 44.337082499000076 ], [ 26.147465, 44.337415999000029 ], [ 26.146277, 44.337233499000035 ], [ 26.146186, 44.337711999000078 ], [ 26.146585500000072, 44.337814999000045 ], [ 26.127406500000063, 44.348347499000056 ], [ 26.130359, 44.351201999000068 ], [ 26.11234950000005, 44.360887999000056 ], [ 26.113638500000036, 44.365629999000078 ], [ 26.099097, 44.367586499000026 ], [ 26.09788750000007, 44.362263499000051 ], [ 26.096049, 44.36130349900003 ], [ 26.09586, 44.360088499000028 ], [ 26.095487, 44.359987999000055 ], [ 26.094733500000075, 44.365018999000029 ], [ 26.092558500000052, 44.364233499000079 ], [ 26.090377500000045, 44.368030499000042 ], [ 26.090138, 44.36693499900008 ], [ 26.089306, 44.367050999000071 ], [ 26.088568500000065, 44.369132499000045 ], [ 26.088120500000059, 44.369243499000049 ] ] ] } }
]
}
