{
"type": "FeatureCollection",
"name": "elblag",
"crs": { "type": "name", "properties": { "name": "urn:ogc:def:crs:OGC:1.3:CRS84" } },
"features": [
{ "type": "Feature", "properties": { }, "geometry": { "type": "Polygon", "coordinates": [ [ [ 19.440076500000032, 54.263203999000041 ], [ 19.440365500000041, 54.262929499000052 ], [ 19.440571500000033, 54.262691999000026 ], [ 19.44084950000007, 54.262001499000064 ], [ 19.442035, 54.261324499000068 ], [ 19.44233550000007, 54.260866999000029 ], [ 19.442821, 54.260516499000062 ], [ 19.443353, 54.26054349900005 ], [ 19.443955500000072, 54.260350499000026 ], [ 19.443807500000048, 54.259644499000046 ], [ 19.44406, 54.259303499000055 ], [ 19.445054500000026, 54.258706499000027 ], [ 19.445846500000073, 54.258300499000029 ], [ 19.445860500000038, 54.258027499000036 ], [ 19.446612500000072, 54.257748499000058 ], [ 19.448773500000073, 54.257821499000045 ], [ 19.450867, 54.258260999000072 ], [ 19.452534, 54.257671499000082 ], [ 19.45313, 54.257420499000034 ], [ 19.453257500000063, 54.257200999000077 ], [ 19.455071, 54.257008499000051 ], [ 19.455204500000036, 54.257101499000044 ], [ 19.456007, 54.256810499000039 ], [ 19.456505, 54.256590499000026 ], [ 19.457017500000063, 54.256282499000065 ], [ 19.457961, 54.256283499000062 ], [ 19.458798500000057, 54.25617199900006 ], [ 19.459513500000071, 54.255907499000045 ], [ 19.459703500000046, 54.255813499000055 ], [ 19.46032850000006, 54.255356499000072 ], [ 19.460144, 54.25473899900004 ], [ 19.460967, 54.254134499000031 ], [ 19.461277500000051, 54.253839999000036 ], [ 19.461932500000046, 54.25276149900003 ], [ 19.462053, 54.252172499000039 ], [ 19.462641500000075, 54.251686999000071 ], [ 19.463232, 54.251279499000077 ], [ 19.465314500000034, 54.250487999000029 ], [ 19.465706, 54.250524499000051 ], [ 19.466477500000053, 54.251120999000079 ], [ 19.467384, 54.251204999000038 ], [ 19.469066, 54.251743999000041 ], [ 19.470449500000029, 54.251917499000058 ], [ 19.471686500000033, 54.251961999000059 ], [ 19.472726, 54.251699999000039 ], [ 19.473049, 54.251587999000037 ], [ 19.473614, 54.251085499000055 ], [ 19.473821, 54.25043449900005 ], [ 19.474569, 54.249884499000075 ], [ 19.474648500000058, 54.249768499000027 ], [ 19.473506, 54.249025999000082 ], [ 19.474110500000052, 54.248696499000062 ], [ 19.476232500000037, 54.250444999000081 ], [ 19.477070500000025, 54.252040499000032 ], [ 19.479054, 54.252491999000028 ], [ 19.481622500000071, 54.252724499000067 ], [ 19.485978500000044, 54.252372499000046 ], [ 19.491453, 54.251040499000055 ], [ 19.491839500000026, 54.251355999000054 ], [ 19.492663500000049, 54.250977499000044 ], [ 19.492081, 54.250710499000036 ], [ 19.493298500000037, 54.250250999000059 ], [ 19.493487, 54.250048999000057 ], [ 19.493554, 54.249102999000058 ], [ 19.493758, 54.248685499000032 ], [ 19.495127500000024, 54.247560999000029 ], [ 19.496446, 54.247804999000039 ], [ 19.498539500000049, 54.247889999000051 ], [ 19.50044, 54.24853149900008 ], [ 19.505115, 54.248652999000058 ], [ 19.507673500000067, 54.240860999000063 ], [ 19.509034, 54.237666999000055 ], [ 19.507151, 54.235209999000062 ], [ 19.508506500000067, 54.234983499000066 ], [ 19.508942500000046, 54.232502999000076 ], [ 19.507056, 54.23240049900005 ], [ 19.506714500000044, 54.232231999000078 ], [ 19.505365500000039, 54.232756499000061 ], [ 19.503511, 54.23291049900007 ], [ 19.503319, 54.232708499000069 ], [ 19.502518500000065, 54.232488499000056 ], [ 19.502029500000049, 54.232677999000032 ], [ 19.499853, 54.232094999000026 ], [ 19.498683, 54.232129499000052 ], [ 19.498555500000066, 54.232248499000036 ], [ 19.498568, 54.232634999000027 ], [ 19.498351500000069, 54.232670499000051 ], [ 19.497447, 54.232360499000038 ], [ 19.49672350000003, 54.231249999000056 ], [ 19.495997, 54.230359499000031 ], [ 19.495768500000054, 54.227614499000026 ], [ 19.496052500000076, 54.226972499000055 ], [ 19.495600500000023, 54.226151999000081 ], [ 19.494443, 54.226294499000062 ], [ 19.493028500000037, 54.226255499000047 ], [ 19.492849500000034, 54.225970999000026 ], [ 19.491587, 54.226322499000048 ], [ 19.491274500000031, 54.225494499000035 ], [ 19.490102, 54.225429999000028 ], [ 19.489784500000042, 54.22528199900006 ], [ 19.49013, 54.224279499000033 ], [ 19.489231, 54.224544499000046 ], [ 19.488906, 54.225017999000045 ], [ 19.488613, 54.225144999000065 ], [ 19.487229500000069, 54.225406999000029 ], [ 19.486981, 54.225303499000063 ], [ 19.48707150000007, 54.22497099900005 ], [ 19.486917500000061, 54.224836999000047 ], [ 19.485816, 54.224540499000057 ], [ 19.484341500000028, 54.224344999000039 ], [ 19.484052500000075, 54.22442249900007 ], [ 19.483822500000031, 54.224725499000044 ], [ 19.483683, 54.225022999000032 ], [ 19.483408, 54.225282999000058 ], [ 19.483179500000062, 54.22542099900005 ], [ 19.482947, 54.225114999000027 ], [ 19.483021500000063, 54.224799499000028 ], [ 19.482913, 54.224554999000077 ], [ 19.482114, 54.224112999000056 ], [ 19.476923, 54.224482499000032 ], [ 19.476659, 54.22382249900005 ], [ 19.477009, 54.222703499000033 ], [ 19.477355, 54.222465999000065 ], [ 19.477323, 54.221864499000048 ], [ 19.476805500000069, 54.221502499000053 ], [ 19.476661, 54.221673999000075 ], [ 19.476824, 54.221794499000055 ], [ 19.476163, 54.221817999000052 ], [ 19.475826, 54.221206499000061 ], [ 19.475616500000058, 54.220713999000054 ], [ 19.476909, 54.21992749900005 ], [ 19.475897500000031, 54.219410999000047 ], [ 19.475802, 54.219453999000052 ], [ 19.476137, 54.219681999000045 ], [ 19.476167500000031, 54.21985199900007 ], [ 19.475523500000065, 54.219877999000062 ], [ 19.475118, 54.219868499000029 ], [ 19.474323, 54.21964549900008 ], [ 19.474400500000058, 54.219296499000052 ], [ 19.474531, 54.218381499000031 ], [ 19.474073500000031, 54.218039499000042 ], [ 19.47396, 54.217386499000042 ], [ 19.474276, 54.216990999000075 ], [ 19.474319500000036, 54.216457999000056 ], [ 19.473767500000065, 54.216135499000075 ], [ 19.473571, 54.215834499000039 ], [ 19.473469500000078, 54.215170499000067 ], [ 19.473269500000072, 54.214858999000057 ], [ 19.47285, 54.214494499000068 ], [ 19.472677500000032, 54.214409499000055 ], [ 19.472571500000072, 54.214237499000035 ], [ 19.472143, 54.213254999000071 ], [ 19.471608, 54.213096499000073 ], [ 19.471101, 54.212462999000081 ], [ 19.471025, 54.212082999000074 ], [ 19.469664500000022, 54.211464999000043 ], [ 19.469113500000049, 54.211789499000076 ], [ 19.468447500000025, 54.211754499000051 ], [ 19.468773500000054, 54.211231999000063 ], [ 19.46940950000004, 54.211175999000034 ], [ 19.47088, 54.210676999000043 ], [ 19.47211, 54.21118399900007 ], [ 19.472399, 54.21184499900005 ], [ 19.472775, 54.212067499000057 ], [ 19.473991, 54.212200999000061 ], [ 19.475779, 54.21191249900005 ], [ 19.476082, 54.211697499000081 ], [ 19.475834, 54.210113499000045 ], [ 19.476183, 54.209003499000062 ], [ 19.476662, 54.208965499000044 ], [ 19.476051, 54.207459499000038 ], [ 19.474828500000058, 54.205876999000054 ], [ 19.475441, 54.205568999000036 ], [ 19.472754, 54.203985499000055 ], [ 19.473486500000035, 54.204298999000059 ], [ 19.475732, 54.204546999000058 ], [ 19.476972500000045, 54.205280499000082 ], [ 19.477998, 54.205530499000076 ], [ 19.482356, 54.204848499000036 ], [ 19.48276050000004, 54.205290499000057 ], [ 19.48292, 54.205670499000064 ], [ 19.483527, 54.207123999000032 ], [ 19.483523, 54.207524999000043 ], [ 19.484790500000031, 54.207521499000052 ], [ 19.485861500000055, 54.208674999000038 ], [ 19.486481, 54.207591499000046 ], [ 19.486616, 54.207650499000067 ], [ 19.487393, 54.208256999000071 ], [ 19.488403500000061, 54.20873399900006 ], [ 19.489339, 54.208852499000045 ], [ 19.490486500000031, 54.207993999000053 ], [ 19.49078650000007, 54.206748499000071 ], [ 19.491218500000059, 54.20626549900004 ], [ 19.497997, 54.203071999000031 ], [ 19.50288, 54.206244999000035 ], [ 19.503148, 54.204447999000081 ], [ 19.503182, 54.203006999000081 ], [ 19.503444500000057, 54.201481999000066 ], [ 19.503915500000062, 54.19991249900005 ], [ 19.504498, 54.196447499000044 ], [ 19.504675500000076, 54.194873499000039 ], [ 19.505057, 54.189560499000038 ], [ 19.49968, 54.188973999000041 ], [ 19.497669500000029, 54.188479499000039 ], [ 19.495888, 54.188370999000028 ], [ 19.494176500000037, 54.188037499000075 ], [ 19.495433, 54.18702599900007 ], [ 19.497417, 54.185857999000064 ], [ 19.498282500000073, 54.185814999000058 ], [ 19.498672500000055, 54.185316499000066 ], [ 19.499512, 54.185009999000044 ], [ 19.500865500000032, 54.185023499000067 ], [ 19.501331, 54.184778999000059 ], [ 19.499594, 54.184460499000068 ], [ 19.498147500000073, 54.184975499000075 ], [ 19.497963500000026, 54.185322499000051 ], [ 19.497686500000043, 54.185493999000073 ], [ 19.493122, 54.185975499000051 ], [ 19.493417, 54.186721499000043 ], [ 19.493104500000072, 54.186869499000068 ], [ 19.491945, 54.186824499000068 ], [ 19.491445500000054, 54.186034499000073 ], [ 19.491257, 54.185394999000039 ], [ 19.491601, 54.185108999000079 ], [ 19.490953, 54.184588499000029 ], [ 19.490193500000032, 54.184364999000081 ], [ 19.489582, 54.184224499000038 ], [ 19.489049500000078, 54.183658499000046 ], [ 19.489726, 54.183376499000076 ], [ 19.48970950000006, 54.182419499000048 ], [ 19.489865500000064, 54.182282999000051 ], [ 19.491648500000053, 54.182421499000043 ], [ 19.491648500000053, 54.182005999000069 ], [ 19.496421500000054, 54.182312999000033 ], [ 19.50036, 54.181903499000043 ], [ 19.503767, 54.18119099900008 ], [ 19.507851, 54.181614999000033 ], [ 19.507858500000054, 54.18143599900003 ], [ 19.50977, 54.181553999000073 ], [ 19.509830500000078, 54.181158999000047 ], [ 19.508567, 54.180542499000069 ], [ 19.506677, 54.180097499000055 ], [ 19.507342, 54.17914999900006 ], [ 19.50753050000003, 54.178147999000032 ], [ 19.507896, 54.172247999000035 ], [ 19.506554, 54.171545999000045 ], [ 19.505419, 54.171148999000081 ], [ 19.488954500000034, 54.168197999000029 ], [ 19.484543500000029, 54.167696499000044 ], [ 19.483249500000056, 54.16734199900003 ], [ 19.480814, 54.165673999000035 ], [ 19.480215500000043, 54.164332499000068 ], [ 19.479764500000044, 54.16403499900008 ], [ 19.478248500000063, 54.163737999000034 ], [ 19.477027500000077, 54.163326999000049 ], [ 19.476331500000072, 54.16331199900003 ], [ 19.475315, 54.16358199900003 ], [ 19.472743, 54.166116499000054 ], [ 19.472288, 54.166350999000031 ], [ 19.471388, 54.166559999000071 ], [ 19.470285500000045, 54.16650899900003 ], [ 19.469163500000036, 54.166099999000039 ], [ 19.467065, 54.164864499000032 ], [ 19.466457, 54.163778499000045 ], [ 19.465721500000029, 54.161966999000072 ], [ 19.465189500000065, 54.16162599900008 ], [ 19.462391500000024, 54.161160499000061 ], [ 19.472142, 54.155930999000077 ], [ 19.47946, 54.152195499000072 ], [ 19.485948, 54.149590999000054 ], [ 19.486230500000033, 54.149243499000079 ], [ 19.487485, 54.149618499000042 ], [ 19.487676, 54.149246499000071 ], [ 19.486424, 54.148893999000052 ], [ 19.486087, 54.148796999000069 ], [ 19.480582500000025, 54.147177999000064 ], [ 19.478889, 54.146879999000078 ], [ 19.474914500000068, 54.145770999000035 ], [ 19.468172, 54.143419999000059 ], [ 19.464272, 54.142383499000061 ], [ 19.459248500000058, 54.141512499000044 ], [ 19.450713, 54.139201999000079 ], [ 19.451801, 54.137028999000051 ], [ 19.446617500000059, 54.134416999000052 ], [ 19.443643, 54.136619499000062 ], [ 19.442905500000052, 54.136801499000057 ], [ 19.441849, 54.136733499000059 ], [ 19.438628, 54.136060499000052 ], [ 19.435076500000037, 54.135585999000057 ], [ 19.428925500000048, 54.135205499000051 ], [ 19.42559650000004, 54.135308999000074 ], [ 19.422138500000074, 54.135648999000068 ], [ 19.417679, 54.136472999000034 ], [ 19.391749, 54.143518499000038 ], [ 19.390412, 54.14313899900003 ], [ 19.389499, 54.142772999000044 ], [ 19.388723500000026, 54.142411999000046 ], [ 19.386982500000045, 54.14125049900008 ], [ 19.385701, 54.140557499000067 ], [ 19.384712, 54.140208499000039 ], [ 19.382474, 54.139947999000071 ], [ 19.380606500000056, 54.140176999000062 ], [ 19.379988500000024, 54.140410499000041 ], [ 19.379181, 54.140768499000046 ], [ 19.378232500000024, 54.141543499000079 ], [ 19.377580500000022, 54.14239599900003 ], [ 19.37626750000004, 54.144766999000069 ], [ 19.374321, 54.147743999000056 ], [ 19.372133, 54.148456999000075 ], [ 19.371131, 54.148180499000034 ], [ 19.370854500000064, 54.148652999000035 ], [ 19.368945500000052, 54.149933499000042 ], [ 19.367476, 54.150967499000046 ], [ 19.366311500000052, 54.152074499000037 ], [ 19.365573500000039, 54.153071499000077 ], [ 19.359052500000075, 54.163541999000074 ], [ 19.370523, 54.163579499000036 ], [ 19.370609500000057, 54.166223499000068 ], [ 19.37083, 54.167249499000036 ], [ 19.371164, 54.167918499000052 ], [ 19.371719, 54.168573999000046 ], [ 19.372532, 54.169197499000063 ], [ 19.374815500000068, 54.170155499000032 ], [ 19.376474, 54.170450499000026 ], [ 19.376188, 54.17075999900004 ], [ 19.378022, 54.171243999000069 ], [ 19.384268, 54.172484999000062 ], [ 19.384686500000043, 54.172855499000036 ], [ 19.381956, 54.175147999000046 ], [ 19.382271500000058, 54.17527349900007 ], [ 19.37946050000005, 54.17840699900006 ], [ 19.378203500000041, 54.179026499000031 ], [ 19.37797850000004, 54.179414499000075 ], [ 19.379854, 54.180115499000067 ], [ 19.380294500000048, 54.179626499000051 ], [ 19.380797, 54.179369499000074 ], [ 19.381946500000026, 54.180187499000056 ], [ 19.379961, 54.183453499000052 ], [ 19.379430500000069, 54.18460249900005 ], [ 19.379153, 54.185666499000035 ], [ 19.378570500000023, 54.193569999000033 ], [ 19.378509, 54.19683849900008 ], [ 19.37823, 54.19832849900007 ], [ 19.377540500000066, 54.200297999000043 ], [ 19.375593500000036, 54.203399999000055 ], [ 19.374252, 54.206725499000072 ], [ 19.384484, 54.20709449900005 ], [ 19.384133, 54.207989499000064 ], [ 19.384186500000055, 54.208671999000046 ], [ 19.385939500000063, 54.215209499000082 ], [ 19.38751, 54.220552999000063 ], [ 19.388384, 54.22021649900006 ], [ 19.391097, 54.220110999000042 ], [ 19.390925500000037, 54.219416499000033 ], [ 19.391247, 54.219231999000044 ], [ 19.392903, 54.219140499000048 ], [ 19.394262500000025, 54.218657999000072 ], [ 19.39671450000003, 54.218960499000048 ], [ 19.397262, 54.218908499000065 ], [ 19.398575500000049, 54.219098999000039 ], [ 19.399740500000064, 54.21945899900004 ], [ 19.400236, 54.219266499000071 ], [ 19.402926, 54.219986499000072 ], [ 19.404161500000043, 54.220044999000038 ], [ 19.404208500000038, 54.219508999000027 ], [ 19.404929, 54.219615999000041 ], [ 19.405261500000051, 54.219917499000076 ], [ 19.405953500000066, 54.219994499000052 ], [ 19.408671, 54.219355999000072 ], [ 19.411183, 54.219254999000043 ], [ 19.413448, 54.219462499000031 ], [ 19.41456850000003, 54.219186999000044 ], [ 19.416991500000051, 54.219006499000045 ], [ 19.41720950000007, 54.217983999000069 ], [ 19.417178500000034, 54.216729499000053 ], [ 19.42898850000006, 54.21639699900004 ], [ 19.434006500000066, 54.215981499000065 ], [ 19.433361500000046, 54.216178999000078 ], [ 19.433144, 54.216382499000076 ], [ 19.433400500000062, 54.217152999000064 ], [ 19.431325500000071, 54.217578499000069 ], [ 19.432856500000071, 54.218616999000062 ], [ 19.436533500000053, 54.218003499000076 ], [ 19.438682500000027, 54.21849449900003 ], [ 19.438022, 54.218629499000031 ], [ 19.439634500000068, 54.220031999000071 ], [ 19.443099500000073, 54.22263349900004 ], [ 19.445763, 54.225033999000061 ], [ 19.446699500000022, 54.225633999000081 ], [ 19.451583500000027, 54.229741999000055 ], [ 19.452888, 54.228860999000062 ], [ 19.453754, 54.228687999000044 ], [ 19.453831500000035, 54.229887999000027 ], [ 19.454561500000068, 54.231299499000045 ], [ 19.453469, 54.23141799900003 ], [ 19.452674500000057, 54.231440999000029 ], [ 19.450072, 54.232029999000076 ], [ 19.448731500000065, 54.231862999000043 ], [ 19.446860500000071, 54.232110999000042 ], [ 19.445858, 54.233497499000066 ], [ 19.444436, 54.232373499000062 ], [ 19.438812, 54.232890999000062 ], [ 19.434771500000068, 54.233663499000045 ], [ 19.434019500000034, 54.236252499000045 ], [ 19.433957, 54.237350499000058 ], [ 19.433631500000047, 54.238375499000028 ], [ 19.435462, 54.239008999000077 ], [ 19.436171500000057, 54.23861449900005 ], [ 19.436822, 54.23856549900006 ], [ 19.43749, 54.238756499000033 ], [ 19.438505, 54.239220999000054 ], [ 19.439248, 54.240223499000081 ], [ 19.438602500000059, 54.240516999000079 ], [ 19.437594, 54.240064999000026 ], [ 19.436718, 54.239874999000051 ], [ 19.435489500000074, 54.240448499000081 ], [ 19.435332500000072, 54.240639499000054 ], [ 19.436321500000076, 54.241346999000029 ], [ 19.43770550000005, 54.241776999000081 ], [ 19.438022, 54.242557499000043 ], [ 19.43144250000006, 54.247321499000066 ], [ 19.430737500000077, 54.247842999000056 ], [ 19.430428, 54.248705999000038 ], [ 19.430407, 54.249638499000071 ], [ 19.43017750000007, 54.250556999000082 ], [ 19.429685, 54.251469999000051 ], [ 19.428312, 54.255190999000035 ], [ 19.432313, 54.255662499000039 ], [ 19.432605500000022, 54.256039999000052 ], [ 19.43381, 54.255860999000049 ], [ 19.434196500000041, 54.255615999000042 ], [ 19.43486050000007, 54.256123999000067 ], [ 19.432963, 54.257848999000032 ], [ 19.434929, 54.258174999000062 ], [ 19.435752500000035, 54.259367999000062 ], [ 19.436494, 54.26017549900007 ], [ 19.436078500000065, 54.260484499000029 ], [ 19.43575450000003, 54.261111499000037 ], [ 19.436150500000053, 54.261494999000035 ], [ 19.43528, 54.262402499000075 ], [ 19.435260500000027, 54.262762499000075 ], [ 19.435269, 54.262974499000052 ], [ 19.435803500000077, 54.263228499000036 ], [ 19.437796500000047, 54.262910499000043 ], [ 19.43848550000007, 54.262720999000067 ], [ 19.439193500000044, 54.263233999000079 ], [ 19.439869, 54.263256499000079 ], [ 19.440076500000032, 54.263203999000041 ] ] ] } }
]
}
