{
"type": "FeatureCollection",
"name": "gdansk",
"crs": { "type": "name", "properties": { "name": "urn:ogc:def:crs:OGC:1.3:CRS84" } },
"features": [
{ "type": "Feature", "properties": { }, "geometry": { "type": "Polygon", "coordinates": [ [ [ 18.455846500000064, 54.446763499000042 ], [ 18.455401, 54.446161499000027 ], [ 18.460944, 54.44520299900006 ], [ 18.461589, 54.444326999000054 ], [ 18.46301, 54.443641999000079 ], [ 18.468075500000054, 54.43979149900008 ], [ 18.468744500000071, 54.436308499000063 ], [ 18.469962500000065, 54.435747999000057 ], [ 18.471529500000031, 54.435481999000046 ], [ 18.469512, 54.435359499000072 ], [ 18.475688, 54.432273999000074 ], [ 18.477529, 54.431531499000073 ], [ 18.478757500000029, 54.431745499000044 ], [ 18.479753, 54.43272599900007 ], [ 18.480671, 54.433129499000074 ], [ 18.482706, 54.435864499000047 ], [ 18.484338500000035, 54.43588599900005 ], [ 18.485264500000028, 54.437683999000058 ], [ 18.489198500000043, 54.43646349900007 ], [ 18.487948500000073, 54.43316549900004 ], [ 18.489887500000066, 54.432481499000062 ], [ 18.490275500000052, 54.431661999000028 ], [ 18.492265, 54.431335999000055 ], [ 18.491151500000058, 54.429805999000052 ], [ 18.486862500000029, 54.430434999000056 ], [ 18.486615500000028, 54.429903999000032 ], [ 18.483803, 54.430257999000048 ], [ 18.483569500000044, 54.430491499000027 ], [ 18.483074500000043, 54.430430999000066 ], [ 18.482451, 54.429017999000052 ], [ 18.48241, 54.428472999000064 ], [ 18.485587500000065, 54.428025499000057 ], [ 18.489960500000052, 54.428011999000034 ], [ 18.492843500000049, 54.428233499000044 ], [ 18.495801500000027, 54.428845499000033 ], [ 18.500300500000037, 54.42885749900006 ], [ 18.501377, 54.428488499000082 ], [ 18.50213, 54.427913999000054 ], [ 18.502461, 54.427226499000028 ], [ 18.502917500000024, 54.425609999000073 ], [ 18.503692, 54.424341499000036 ], [ 18.505764500000055, 54.423188499000048 ], [ 18.507543500000054, 54.422749999000075 ], [ 18.514289, 54.421931499000038 ], [ 18.517043500000057, 54.421167499000035 ], [ 18.519449, 54.421328999000082 ], [ 18.524057500000026, 54.422607999000036 ], [ 18.527899, 54.423230999000054 ], [ 18.531930500000044, 54.422985499000049 ], [ 18.537321500000076, 54.421816499000045 ], [ 18.537771, 54.422041499000045 ], [ 18.538853, 54.421958999000026 ], [ 18.53910250000007, 54.421722499000055 ], [ 18.540864500000055, 54.421621999000081 ], [ 18.542779500000051, 54.421970999000052 ], [ 18.544366500000024, 54.422565999000028 ], [ 18.547867, 54.422489499000051 ], [ 18.552865500000053, 54.421407499000054 ], [ 18.555949500000054, 54.420161999000072 ], [ 18.557431, 54.419732499000077 ], [ 18.559308500000043, 54.423031999000045 ], [ 18.561859500000025, 54.422371499000064 ], [ 18.563270500000044, 54.42379149900006 ], [ 18.566126, 54.423881499000061 ], [ 18.570562, 54.423523999000054 ], [ 18.572796, 54.423946499000067 ], [ 18.576948500000071, 54.425048999000069 ], [ 18.577474500000051, 54.425002999000071 ], [ 18.578459, 54.42425399900003 ], [ 18.580062500000054, 54.424230499000032 ], [ 18.579778500000032, 54.425823499000046 ], [ 18.578997, 54.425756499000045 ], [ 18.579539500000067, 54.426258999000027 ], [ 18.582062, 54.42696999900005 ], [ 18.583392500000059, 54.425668499000039 ], [ 18.591159, 54.430185499000061 ], [ 18.592747, 54.429143499000077 ], [ 18.594144500000027, 54.428364999000053 ], [ 18.595785, 54.427460999000061 ], [ 18.596443, 54.427098499000067 ], [ 18.59962, 54.425217499000041 ], [ 18.600032500000054, 54.42500349900007 ], [ 18.600894, 54.424555999000063 ], [ 18.602505500000063, 54.423718999000073 ], [ 18.603584500000068, 54.423122499000044 ], [ 18.603752500000041, 54.423056999000039 ], [ 18.60687, 54.421401999000068 ], [ 18.608853, 54.420431499000074 ], [ 18.608975500000042, 54.42037349900005 ], [ 18.613287, 54.418318999000064 ], [ 18.615312, 54.417375999000058 ], [ 18.618122, 54.416194499000028 ], [ 18.620291, 54.415282499000057 ], [ 18.62143, 54.414903999000046 ], [ 18.622777, 54.414409499000044 ], [ 18.62367, 54.413994499000069 ], [ 18.624308, 54.413785999000027 ], [ 18.624611, 54.41368649900005 ], [ 18.624889500000052, 54.413595499000053 ], [ 18.626658, 54.413005999000063 ], [ 18.629504, 54.412056499000073 ], [ 18.629706, 54.411989499000072 ], [ 18.632697, 54.411038499000028 ], [ 18.636431500000072, 54.409940499000072 ], [ 18.638994500000024, 54.409390999000038 ], [ 18.640151500000059, 54.409142999000039 ], [ 18.643546, 54.408547999000064 ], [ 18.646561500000075, 54.408280999000056 ], [ 18.64956, 54.408064999000032 ], [ 18.650873500000046, 54.408185499000069 ], [ 18.651171, 54.408173999000041 ], [ 18.652495, 54.408204499000078 ], [ 18.654592500000035, 54.408423499000037 ], [ 18.656452500000057, 54.409038499000076 ], [ 18.657798, 54.409643999000082 ], [ 18.658294, 54.409923999000057 ], [ 18.658733500000039, 54.410171499000057 ], [ 18.659247, 54.410460999000065 ], [ 18.659443500000066, 54.410571999000069 ], [ 18.659357, 54.410986499000046 ], [ 18.659687, 54.411117999000055 ], [ 18.661709500000029, 54.411158999000065 ], [ 18.661341500000049, 54.412457999000083 ], [ 18.661033, 54.412808999000049 ], [ 18.660481, 54.413527499000054 ], [ 18.660531500000047, 54.413653999000076 ], [ 18.658807, 54.416302999000038 ], [ 18.658737500000029, 54.416423999000074 ], [ 18.658858, 54.416516499000068 ], [ 18.659021500000051, 54.416418499000031 ], [ 18.661290500000064, 54.41294349900005 ], [ 18.661522500000046, 54.412864999000078 ], [ 18.664858500000037, 54.411735499000031 ], [ 18.666439, 54.411090999000066 ], [ 18.668982500000027, 54.410298499000078 ], [ 18.671405500000049, 54.40954399900005 ], [ 18.675034, 54.408536999000034 ], [ 18.675282, 54.408745999000075 ], [ 18.676022, 54.40847799900007 ], [ 18.677686, 54.407874999000057 ], [ 18.678488, 54.407510499000068 ], [ 18.680270500000063, 54.406750499000054 ], [ 18.681094500000029, 54.406306999000037 ], [ 18.681671, 54.405829499000049 ], [ 18.682393500000046, 54.405230499000027 ], [ 18.682767500000068, 54.404925999000056 ], [ 18.683717500000057, 54.404135499000063 ], [ 18.684114500000078, 54.403783999000041 ], [ 18.685114, 54.40287199900007 ], [ 18.685165, 54.402679999000043 ], [ 18.684155, 54.402232499000036 ], [ 18.684356, 54.401807999000027 ], [ 18.684566, 54.401465499000039 ], [ 18.685194, 54.400952999000026 ], [ 18.685905500000047, 54.400362999000038 ], [ 18.686389500000075, 54.399738999000078 ], [ 18.686605, 54.399554999000031 ], [ 18.687385500000062, 54.399000499000067 ], [ 18.688263500000062, 54.398254499000075 ], [ 18.688424500000053, 54.398138499000027 ], [ 18.688788, 54.397843499000032 ], [ 18.689067, 54.397500499000046 ], [ 18.689361500000075, 54.397242499000072 ], [ 18.689491500000031, 54.39710149900003 ], [ 18.689562500000022, 54.396617999000057 ], [ 18.68960050000004, 54.396337999000082 ], [ 18.68973150000005, 54.396063999000035 ], [ 18.689949, 54.395786499000053 ], [ 18.690099, 54.395594999000082 ], [ 18.690740500000061, 54.395060999000066 ], [ 18.691367, 54.394345499000053 ], [ 18.692431500000055, 54.393418999000062 ], [ 18.693808500000046, 54.392437999000038 ], [ 18.694500500000061, 54.391984499000046 ], [ 18.695088, 54.391598499000054 ], [ 18.695205500000043, 54.391521499000078 ], [ 18.695788, 54.391133499000034 ], [ 18.698193500000059, 54.389695999000082 ], [ 18.698611, 54.389463499000044 ], [ 18.699773, 54.388815499000032 ], [ 18.700568500000031, 54.388292999000043 ], [ 18.701486, 54.387688999000034 ], [ 18.704675500000064, 54.385975999000038 ], [ 18.705279500000074, 54.385625999000069 ], [ 18.706668500000035, 54.384880499000076 ], [ 18.707877500000052, 54.385441999000079 ], [ 18.709034, 54.385978999000031 ], [ 18.709612, 54.386246499000038 ], [ 18.709851, 54.386357499000042 ], [ 18.709914500000025, 54.387105499000029 ], [ 18.70981450000005, 54.387452499000062 ], [ 18.710517500000037, 54.387036499000033 ], [ 18.715210500000069, 54.38425649900006 ], [ 18.714035500000023, 54.382302499000048 ], [ 18.715999500000066, 54.381088499000043 ], [ 18.716912, 54.380480999000042 ], [ 18.717862500000024, 54.380050999000048 ], [ 18.719381, 54.379283499000053 ], [ 18.72084250000006, 54.378615999000033 ], [ 18.722094, 54.378076999000029 ], [ 18.723896500000023, 54.377385999000069 ], [ 18.727215500000057, 54.376301999000077 ], [ 18.728135, 54.376075499000081 ], [ 18.728590500000053, 54.37596299900008 ], [ 18.729877, 54.375614999000049 ], [ 18.730851, 54.375428499000066 ], [ 18.733352500000024, 54.374899499000037 ], [ 18.735478500000056, 54.374546999000074 ], [ 18.738228500000048, 54.374143999000069 ], [ 18.740782, 54.373800999000082 ], [ 18.742907, 54.373653999000055 ], [ 18.746486, 54.373531999000079 ], [ 18.749373500000047, 54.373732499000027 ], [ 18.751095, 54.373657999000045 ], [ 18.754685, 54.373311499000067 ], [ 18.760069, 54.372433999000066 ], [ 18.762347500000033, 54.37219649900004 ], [ 18.76652, 54.371600499000067 ], [ 18.769344500000045, 54.371035499000072 ], [ 18.769750500000043, 54.370995999000058 ], [ 18.773076500000059, 54.370672499000079 ], [ 18.776207, 54.370536499000082 ], [ 18.777840500000025, 54.370561499000075 ], [ 18.778933500000051, 54.370574499000043 ], [ 18.77926750000006, 54.370536499000082 ], [ 18.779542500000048, 54.37059799900004 ], [ 18.78093, 54.370906999000056 ], [ 18.781138, 54.370953499000052 ], [ 18.77888850000005, 54.374273499000026 ], [ 18.778529500000047, 54.374442999000053 ], [ 18.778602, 54.374708999000063 ], [ 18.779033, 54.374805499000047 ], [ 18.779367500000035, 54.374546999000074 ], [ 18.781239500000027, 54.371681999000032 ], [ 18.781518500000061, 54.371254499000031 ], [ 18.781668500000023, 54.370953499000052 ], [ 18.782038500000056, 54.37045899900005 ], [ 18.782385500000032, 54.370186499000056 ], [ 18.782591500000024, 54.369962499000053 ], [ 18.782863500000076, 54.369763999000043 ], [ 18.783717500000023, 54.369246499000042 ], [ 18.784288, 54.368944499000065 ], [ 18.784432500000037, 54.368883999000047 ], [ 18.785044, 54.368650999000067 ], [ 18.785786500000029, 54.368355499000074 ], [ 18.785996, 54.368192499000031 ], [ 18.785978, 54.368056499000033 ], [ 18.786226500000055, 54.367923499000028 ], [ 18.786517500000059, 54.367781499000046 ], [ 18.788571500000046, 54.367568499000072 ], [ 18.790601500000037, 54.367115999000077 ], [ 18.792092, 54.366793499000039 ], [ 18.794434500000023, 54.366369999000028 ], [ 18.79559850000004, 54.36604999900004 ], [ 18.796904500000039, 54.365799499000047 ], [ 18.798739, 54.365193499000043 ], [ 18.800590500000055, 54.364667999000062 ], [ 18.802847, 54.364093999000033 ], [ 18.804680500000075, 54.36357749900003 ], [ 18.806057500000065, 54.363219499000081 ], [ 18.807159500000068, 54.36316449900005 ], [ 18.808645500000068, 54.362558999000044 ], [ 18.810217500000022, 54.362123999000062 ], [ 18.812537500000076, 54.361401499000067 ], [ 18.815053, 54.360688499000048 ], [ 18.817104, 54.360126999000045 ], [ 18.819552500000043, 54.359402999000054 ], [ 18.82164, 54.358848499000032 ], [ 18.823819, 54.358205999000063 ], [ 18.825871, 54.357718999000042 ], [ 18.828359500000033, 54.357118999000079 ], [ 18.830253, 54.356728499000042 ], [ 18.832171500000072, 54.356313999000065 ], [ 18.833596500000056, 54.355893999000045 ], [ 18.836020500000075, 54.355382999000028 ], [ 18.83879950000005, 54.354877499000054 ], [ 18.840963, 54.354329999000072 ], [ 18.843212, 54.35389899900008 ], [ 18.84597750000006, 54.35323949900004 ], [ 18.848153500000024, 54.352803499000061 ], [ 18.850832, 54.352210999000079 ], [ 18.853643500000032, 54.351694499000075 ], [ 18.855956500000048, 54.351287999000078 ], [ 18.858374500000025, 54.351003499000058 ], [ 18.861054, 54.350587999000027 ], [ 18.86299450000007, 54.350263999000049 ], [ 18.866008500000078, 54.349946499000055 ], [ 18.868405500000051, 54.34953499900007 ], [ 18.870773500000041, 54.349183499000048 ], [ 18.87292, 54.348876999000026 ], [ 18.876027, 54.34850749900005 ], [ 18.878484, 54.34815799900008 ], [ 18.88020750000004, 54.348024999000074 ], [ 18.8824, 54.34783999900003 ], [ 18.884255500000052, 54.347683999000026 ], [ 18.884429500000067, 54.347668499000065 ], [ 18.885964, 54.347533499000065 ], [ 18.888429500000029, 54.347352499000067 ], [ 18.890331, 54.347270499000047 ], [ 18.891795500000057, 54.347173999000063 ], [ 18.893163500000071, 54.347074999000029 ], [ 18.894896, 54.346981499000037 ], [ 18.896233500000051, 54.346864499000048 ], [ 18.897765, 54.34678449900008 ], [ 18.898914, 54.346775499000046 ], [ 18.903631500000074, 54.346554499000035 ], [ 18.90576, 54.346510499000033 ], [ 18.907877, 54.346404999000072 ], [ 18.909226, 54.346460499000045 ], [ 18.91155, 54.346316499000068 ], [ 18.913658500000054, 54.346315999000069 ], [ 18.915841, 54.346306999000035 ], [ 18.917214, 54.346341499000062 ], [ 18.918921, 54.346440499000039 ], [ 18.920472500000074, 54.34659749900004 ], [ 18.921816500000034, 54.346722499000066 ], [ 18.922870500000045, 54.346918499000026 ], [ 18.924389500000075, 54.347131499000056 ], [ 18.925404, 54.347426499000051 ], [ 18.927168, 54.348166499000058 ], [ 18.928723500000046, 54.348544999000069 ], [ 18.929695, 54.348928999000066 ], [ 18.930949, 54.349293999000054 ], [ 18.931766500000037, 54.349711999000078 ], [ 18.933218500000066, 54.350262999000051 ], [ 18.934341500000073, 54.350671999000042 ], [ 18.935299, 54.35114949900003 ], [ 18.936364, 54.351721499000064 ], [ 18.937441, 54.35242499900005 ], [ 18.938508500000069, 54.353259499000046 ], [ 18.939434, 54.35415849900005 ], [ 18.939931500000057, 54.354844999000079 ], [ 18.939969, 54.355679999000074 ], [ 18.939989, 54.357241499000054 ], [ 18.940724500000044, 54.357914999000059 ], [ 18.940559500000063, 54.358298499000057 ], [ 18.939181, 54.358197499000028 ], [ 18.938247500000045, 54.357657499000027 ], [ 18.938288500000056, 54.356892499000082 ], [ 18.937675500000068, 54.356223499000066 ], [ 18.93736750000005, 54.35636499900005 ], [ 18.93732, 54.357024499000033 ], [ 18.936837, 54.357469499000047 ], [ 18.937907500000051, 54.357976499000074 ], [ 18.938686500000074, 54.358673999000075 ], [ 18.940116, 54.35958449900005 ], [ 18.941990500000031, 54.360490499000036 ], [ 18.942861, 54.36087199900004 ], [ 18.943643, 54.361215499000082 ], [ 18.94415, 54.361473999000054 ], [ 18.944623500000034, 54.361715999000069 ], [ 18.94574, 54.362262999000052 ], [ 18.945930500000031, 54.362358999000037 ], [ 18.947123, 54.362703999000075 ], [ 18.948701, 54.363070999000058 ], [ 18.949424500000077, 54.363438999000039 ], [ 18.950379500000054, 54.36275899900005 ], [ 18.949959500000034, 54.362116999000079 ], [ 18.949786500000073, 54.361616999000034 ], [ 18.948814, 54.361298499000043 ], [ 18.947730500000034, 54.36054849900006 ], [ 18.947370500000034, 54.35985849900004 ], [ 18.946972, 54.359235499000079 ], [ 18.946559, 54.358460499000046 ], [ 18.946055500000057, 54.357735499000057 ], [ 18.950242500000058, 54.358712999000034 ], [ 18.950029500000028, 54.358310499000027 ], [ 18.948447500000043, 54.355663499000059 ], [ 18.946273500000075, 54.351096999000049 ], [ 18.942900500000064, 54.342205999000043 ], [ 18.935491500000069, 54.319706999000061 ], [ 18.934372, 54.31532899900003 ], [ 18.933701500000041, 54.310847499000033 ], [ 18.933481500000028, 54.30779349900007 ], [ 18.933642500000076, 54.301708999000027 ], [ 18.934222, 54.297427999000035 ], [ 18.934664, 54.295238999000048 ], [ 18.935301500000037, 54.292909499000075 ], [ 18.936847500000056, 54.288354499000036 ], [ 18.940698, 54.280205499000033 ], [ 18.932315500000072, 54.281599499000038 ], [ 18.930103, 54.282455999000035 ], [ 18.926636, 54.284889999000029 ], [ 18.922469, 54.288239999000041 ], [ 18.921742, 54.289466499000071 ], [ 18.921231500000033, 54.292794499000081 ], [ 18.920718, 54.294070499000043 ], [ 18.920728500000052, 54.298689999000032 ], [ 18.918748, 54.302095499000075 ], [ 18.918265, 54.30336599900005 ], [ 18.916322, 54.305762499000082 ], [ 18.914257, 54.309315999000034 ], [ 18.913129500000025, 54.310233999000047 ], [ 18.911029500000041, 54.311588999000037 ], [ 18.910122500000057, 54.312418999000045 ], [ 18.909149, 54.312899499000082 ], [ 18.906444500000077, 54.313672999000062 ], [ 18.901886500000046, 54.314350499000057 ], [ 18.896789, 54.314492499000039 ], [ 18.894377, 54.314340999000081 ], [ 18.890219500000057, 54.313809999000057 ], [ 18.886096500000065, 54.313006499000039 ], [ 18.877654, 54.310560999000074 ], [ 18.875009, 54.310437999000044 ], [ 18.873126500000069, 54.31042099900003 ], [ 18.868651500000055, 54.312144999000054 ], [ 18.865913500000033, 54.313700999000048 ], [ 18.865094500000055, 54.31497149900008 ], [ 18.863948500000049, 54.316692499000055 ], [ 18.863051, 54.317739499000027 ], [ 18.862029, 54.318429999000045 ], [ 18.861327500000073, 54.318730499000083 ], [ 18.861007, 54.319266499000037 ], [ 18.861105500000065, 54.319519999000079 ], [ 18.857702, 54.32084499900003 ], [ 18.855716500000028, 54.322118999000054 ], [ 18.852204, 54.323317499000041 ], [ 18.846657500000049, 54.324844999000049 ], [ 18.842389500000024, 54.326636499000074 ], [ 18.840604, 54.327667999000028 ], [ 18.839378, 54.32873599900006 ], [ 18.835222500000043, 54.334889499000042 ], [ 18.833084500000041, 54.337420999000074 ], [ 18.829837, 54.339739499000075 ], [ 18.82873550000005, 54.340387999000029 ], [ 18.825038, 54.342085999000062 ], [ 18.815701500000046, 54.344493999000065 ], [ 18.811961500000052, 54.345107999000049 ], [ 18.798014500000022, 54.345849999000052 ], [ 18.792920500000037, 54.346534999000028 ], [ 18.791291500000057, 54.344526999000038 ], [ 18.790484, 54.343768999000076 ], [ 18.788482, 54.343069999000079 ], [ 18.787353, 54.34227099900005 ], [ 18.785408500000074, 54.341332499000032 ], [ 18.784709, 54.341031499000053 ], [ 18.78351, 54.34093449900007 ], [ 18.781594, 54.340471499000046 ], [ 18.780267, 54.340445999000053 ], [ 18.779456500000038, 54.340251999000031 ], [ 18.779164, 54.339776499000038 ], [ 18.779045, 54.33905549900004 ], [ 18.778561, 54.338542999000026 ], [ 18.777370500000075, 54.338418499000056 ], [ 18.776494500000069, 54.33723549900003 ], [ 18.774999, 54.336905999000066 ], [ 18.771039, 54.336919499000032 ], [ 18.768764500000032, 54.336538499000028 ], [ 18.767505500000027, 54.335987499000055 ], [ 18.764052500000048, 54.333263999000053 ], [ 18.759788, 54.334205999000062 ], [ 18.755399500000067, 54.33461199900006 ], [ 18.751404, 54.335263999000063 ], [ 18.750962, 54.335488499000064 ], [ 18.750194, 54.336573999000052 ], [ 18.748459500000024, 54.338220999000043 ], [ 18.748085, 54.338834999000028 ], [ 18.747283, 54.339588999000057 ], [ 18.746628, 54.340049499000031 ], [ 18.744329500000049, 54.341162499000063 ], [ 18.742901500000073, 54.341127499000038 ], [ 18.735888, 54.340247999000042 ], [ 18.734795, 54.340483499000072 ], [ 18.733059, 54.340602999000055 ], [ 18.730137, 54.340746499000034 ], [ 18.727916, 54.341509999000039 ], [ 18.720492500000034, 54.331956499000057 ], [ 18.712736500000062, 54.322320499000057 ], [ 18.705417500000067, 54.312812499000074 ], [ 18.704422, 54.312830999000028 ], [ 18.703561, 54.313121499000033 ], [ 18.703164500000071, 54.31382049900003 ], [ 18.703044, 54.31468699900006 ], [ 18.702710500000023, 54.315551999000036 ], [ 18.702378, 54.315837499000054 ], [ 18.701533500000039, 54.316035499000066 ], [ 18.700566, 54.315775999000039 ], [ 18.699255500000049, 54.314935999000056 ], [ 18.698592, 54.314670999000043 ], [ 18.697173500000076, 54.314661499000067 ], [ 18.695550500000024, 54.315248499000063 ], [ 18.694366500000058, 54.31539949900008 ], [ 18.693397, 54.315104499000029 ], [ 18.69223450000004, 54.31418099900003 ], [ 18.690794, 54.313418499000079 ], [ 18.689792500000067, 54.31326449900007 ], [ 18.687427, 54.313367999000036 ], [ 18.687335, 54.313065499000061 ], [ 18.687783500000023, 54.310915499000032 ], [ 18.687630500000068, 54.308938499000078 ], [ 18.689019500000029, 54.306764999000052 ], [ 18.688834, 54.306294999000045 ], [ 18.687606500000072, 54.305973999000059 ], [ 18.687546500000053, 54.305626499000027 ], [ 18.688456, 54.303280499000039 ], [ 18.689724500000068, 54.302227999000081 ], [ 18.690877, 54.30162849900006 ], [ 18.665326500000049, 54.295767499000078 ], [ 18.650499, 54.292561999000043 ], [ 18.644673500000067, 54.291518999000061 ], [ 18.644569500000046, 54.291912999000033 ], [ 18.639292, 54.290981499000054 ], [ 18.640163, 54.287637499000027 ], [ 18.640741, 54.287709499000073 ], [ 18.641871, 54.283678999000074 ], [ 18.642736, 54.279587499000058 ], [ 18.642045, 54.279676499000061 ], [ 18.638807500000041, 54.279785999000069 ], [ 18.639329500000031, 54.277427499000055 ], [ 18.639206500000057, 54.276278999000056 ], [ 18.638159500000029, 54.275609999000039 ], [ 18.636371, 54.275010999000074 ], [ 18.635844500000076, 54.274974499000052 ], [ 18.630895, 54.27584149900008 ], [ 18.629464, 54.276338499000076 ], [ 18.628559500000051, 54.277319999000042 ], [ 18.626767500000028, 54.278093499000079 ], [ 18.626575500000058, 54.278268499000035 ], [ 18.626482500000066, 54.278474499000026 ], [ 18.625937, 54.27861099900008 ], [ 18.625136500000053, 54.278668999000047 ], [ 18.624068500000078, 54.276724999000066 ], [ 18.615991500000064, 54.278390999000067 ], [ 18.611061, 54.278257999000061 ], [ 18.607182, 54.278287499000044 ], [ 18.604821, 54.278453499000079 ], [ 18.604765, 54.278764499000033 ], [ 18.604966, 54.279557999000076 ], [ 18.605493, 54.28096799900004 ], [ 18.605979500000046, 54.282125999000073 ], [ 18.606688500000075, 54.28247249900005 ], [ 18.607282500000053, 54.283490499000038 ], [ 18.603831500000069, 54.283933499000057 ], [ 18.60052150000007, 54.284045499000058 ], [ 18.600266500000032, 54.284445499000071 ], [ 18.599649500000055, 54.284946499000057 ], [ 18.598694500000022, 54.284999999000036 ], [ 18.597583500000042, 54.28579699900007 ], [ 18.597612500000025, 54.286364499000058 ], [ 18.602853500000037, 54.28548949900005 ], [ 18.603632, 54.287015499000063 ], [ 18.6053, 54.289397499000074 ], [ 18.606592500000033, 54.290106999000045 ], [ 18.609431, 54.290517499000032 ], [ 18.610443500000031, 54.291454499000054 ], [ 18.611601500000063, 54.291730499000039 ], [ 18.60431, 54.296008999000037 ], [ 18.604579, 54.296663999000032 ], [ 18.605837, 54.298684999000045 ], [ 18.597642500000063, 54.303940499000078 ], [ 18.596072500000048, 54.30463749900008 ], [ 18.594580500000063, 54.304980999000065 ], [ 18.591669500000023, 54.305952999000056 ], [ 18.58863, 54.304816499000026 ], [ 18.587289500000054, 54.304018499000051 ], [ 18.586301, 54.303427499000065 ], [ 18.584659, 54.302112499000032 ], [ 18.582621, 54.30299799900007 ], [ 18.58096050000006, 54.303228499000056 ], [ 18.579504500000041, 54.303223499000069 ], [ 18.578269, 54.303129999000078 ], [ 18.575290500000051, 54.303236999000035 ], [ 18.573167500000068, 54.304254499000081 ], [ 18.57308450000005, 54.304471499000044 ], [ 18.571797, 54.305316499000071 ], [ 18.57197750000006, 54.30593649900004 ], [ 18.572022, 54.30713399900003 ], [ 18.570397, 54.308078999000031 ], [ 18.569641500000046, 54.309128999000052 ], [ 18.571329500000047, 54.310297999000056 ], [ 18.572661, 54.311528499000076 ], [ 18.565828500000066, 54.317169499000045 ], [ 18.564151500000037, 54.317528999000046 ], [ 18.561144, 54.318482999000082 ], [ 18.558380500000055, 54.318541999000047 ], [ 18.557976, 54.318361999000047 ], [ 18.55721, 54.318637999000032 ], [ 18.556262500000059, 54.318173999000066 ], [ 18.555002500000057, 54.31818049900005 ], [ 18.554139, 54.317991499000073 ], [ 18.553699, 54.317585999000073 ], [ 18.552734500000042, 54.317216999000038 ], [ 18.550342, 54.31690099900004 ], [ 18.54909, 54.316994499000032 ], [ 18.548015500000076, 54.316849999000056 ], [ 18.548233, 54.316329499000062 ], [ 18.547513500000036, 54.31480349900005 ], [ 18.546553500000073, 54.314329499000053 ], [ 18.547895, 54.313325999000028 ], [ 18.54738750000007, 54.312495499000079 ], [ 18.5472, 54.312428499000077 ], [ 18.541491500000063, 54.313477999000042 ], [ 18.539092500000038, 54.314664999000058 ], [ 18.535032, 54.317244499000026 ], [ 18.535701, 54.318086999000059 ], [ 18.533286, 54.319743999000082 ], [ 18.534386, 54.31949049900004 ], [ 18.536836, 54.319337999000027 ], [ 18.534880500000043, 54.322005499000056 ], [ 18.532889, 54.326726999000073 ], [ 18.532908, 54.326823999000055 ], [ 18.536189, 54.327106499000081 ], [ 18.531702, 54.332568499000047 ], [ 18.532744500000035, 54.333489999000051 ], [ 18.532449, 54.33379749900007 ], [ 18.534197500000062, 54.335627499000054 ], [ 18.531414500000039, 54.335398499000064 ], [ 18.529564500000049, 54.335691999000062 ], [ 18.527589, 54.33652199900007 ], [ 18.525697, 54.335345999000026 ], [ 18.524435, 54.335521499000038 ], [ 18.523213500000054, 54.334979499000042 ], [ 18.519457500000044, 54.334768499000063 ], [ 18.51860350000004, 54.334207999000057 ], [ 18.517401500000062, 54.333979499000066 ], [ 18.515733, 54.33391399900006 ], [ 18.514497500000061, 54.334053499000049 ], [ 18.514273, 54.334193499000037 ], [ 18.512186500000041, 54.334158499000068 ], [ 18.505601500000068, 54.335636499000032 ], [ 18.501459500000067, 54.333997499000077 ], [ 18.501373, 54.334073499000056 ], [ 18.499852, 54.333374499000058 ], [ 18.495645500000023, 54.33079249900004 ], [ 18.494512500000042, 54.329786999000078 ], [ 18.493804, 54.328475499000035 ], [ 18.493591, 54.327684999000041 ], [ 18.492395, 54.324924499000076 ], [ 18.491515, 54.324196499000038 ], [ 18.491134, 54.323480999000026 ], [ 18.491053500000078, 54.321794499000077 ], [ 18.491155, 54.320777999000029 ], [ 18.491532, 54.320071499000051 ], [ 18.492748, 54.318935999000075 ], [ 18.492238500000042, 54.318817499000033 ], [ 18.489616, 54.317427999000074 ], [ 18.487985, 54.317011499000046 ], [ 18.487525500000061, 54.318013499000074 ], [ 18.487464, 54.31879899900008 ], [ 18.48791650000004, 54.319564999000079 ], [ 18.487539500000025, 54.320096999000043 ], [ 18.486142, 54.320104499000081 ], [ 18.48466, 54.319673499000032 ], [ 18.482691, 54.320118999000044 ], [ 18.481453500000043, 54.32132049900008 ], [ 18.479947500000037, 54.321945499000037 ], [ 18.478697, 54.323509999000066 ], [ 18.479542500000036, 54.324955499000055 ], [ 18.478588500000058, 54.325470499000062 ], [ 18.478643500000032, 54.326409999000077 ], [ 18.478422500000022, 54.326555499000051 ], [ 18.474413, 54.32744199900003 ], [ 18.470385, 54.327094499000054 ], [ 18.469027500000038, 54.327215499000033 ], [ 18.467418500000065, 54.327082999000027 ], [ 18.466366500000049, 54.328092499000036 ], [ 18.464631500000053, 54.32833849900004 ], [ 18.464302500000031, 54.328648499000053 ], [ 18.463721, 54.32980599900003 ], [ 18.46344, 54.329946999000072 ], [ 18.462731, 54.329992999000069 ], [ 18.460401, 54.330602999000064 ], [ 18.458539, 54.331755499000053 ], [ 18.456920500000024, 54.332273999000051 ], [ 18.457034500000077, 54.332905999000047 ], [ 18.457706500000029, 54.333717499000045 ], [ 18.458114, 54.334672499000078 ], [ 18.458804, 54.335163499000032 ], [ 18.461718500000075, 54.338156999000034 ], [ 18.462753, 54.340078499000072 ], [ 18.463519, 54.340868499000067 ], [ 18.464621500000078, 54.341409999000064 ], [ 18.465637, 54.34230399900008 ], [ 18.467112500000042, 54.343923499000027 ], [ 18.468289500000026, 54.345809999000039 ], [ 18.468549500000051, 54.34699499900006 ], [ 18.468436, 54.347494499000049 ], [ 18.467787500000043, 54.348185999000066 ], [ 18.467442500000061, 54.349052499000038 ], [ 18.466554500000029, 54.350469499000042 ], [ 18.46245, 54.352207999000029 ], [ 18.46368, 54.353724499000066 ], [ 18.459513, 54.355106499000044 ], [ 18.455762, 54.356998499000042 ], [ 18.453221500000041, 54.354890999000077 ], [ 18.450833500000044, 54.355227999000078 ], [ 18.447291, 54.356034499000032 ], [ 18.44576, 54.356710999000029 ], [ 18.441076, 54.357386999000028 ], [ 18.441244, 54.357860999000081 ], [ 18.443886500000076, 54.360630499000081 ], [ 18.44435, 54.362708999000063 ], [ 18.444064, 54.365123499000049 ], [ 18.444202500000074, 54.371360999000046 ], [ 18.444561500000077, 54.373624499000073 ], [ 18.446157500000027, 54.375553999000033 ], [ 18.447115, 54.376491499000053 ], [ 18.446027, 54.377613999000062 ], [ 18.430460500000038, 54.383511999000063 ], [ 18.430671500000074, 54.384023499000079 ], [ 18.431358500000044, 54.384711499000048 ], [ 18.429497, 54.385047499000052 ], [ 18.431107, 54.386090999000032 ], [ 18.434488, 54.38753549900008 ], [ 18.437059, 54.386641999000062 ], [ 18.449028, 54.392682499000045 ], [ 18.447097500000041, 54.393619999000066 ], [ 18.44827, 54.394079499000043 ], [ 18.450577500000065, 54.394382499000073 ], [ 18.454291500000068, 54.395826499000066 ], [ 18.45894050000004, 54.396508999000048 ], [ 18.459558, 54.396855999000081 ], [ 18.459911500000032, 54.397413999000037 ], [ 18.460623, 54.398067499000035 ], [ 18.461701500000061, 54.398523499000078 ], [ 18.462322500000028, 54.399057499000037 ], [ 18.462528500000076, 54.399595499000043 ], [ 18.463598, 54.400259499000072 ], [ 18.464217, 54.400368999000079 ], [ 18.465387, 54.399884999000051 ], [ 18.465476, 54.400870499000064 ], [ 18.46536, 54.401097999000058 ], [ 18.464479500000039, 54.401830499000027 ], [ 18.463685, 54.402074499000037 ], [ 18.463547, 54.402252499000042 ], [ 18.464052, 54.402829999000062 ], [ 18.46503, 54.403214499000057 ], [ 18.465856500000029, 54.403752999000062 ], [ 18.465665, 54.405819499000074 ], [ 18.465528500000062, 54.405815999000026 ], [ 18.465498500000024, 54.407688499000074 ], [ 18.451012, 54.408461499000055 ], [ 18.446936, 54.408075999000062 ], [ 18.441733, 54.407942999000056 ], [ 18.445126500000072, 54.412978499000076 ], [ 18.445023, 54.412995499000033 ], [ 18.44655, 54.415332999000043 ], [ 18.446668500000044, 54.41531549900003 ], [ 18.447098, 54.415949999000077 ], [ 18.448625500000048, 54.418240999000034 ], [ 18.448, 54.418398999000033 ], [ 18.44291, 54.418535999000028 ], [ 18.443103500000063, 54.418804999000031 ], [ 18.44886450000007, 54.423080499000037 ], [ 18.457237500000076, 54.433169999000029 ], [ 18.456729, 54.433054999000035 ], [ 18.455949500000031, 54.432111999000028 ], [ 18.455736, 54.432520999000076 ], [ 18.455835, 54.43333399900007 ], [ 18.45638, 54.434650499000043 ], [ 18.457941500000061, 54.436039999000059 ], [ 18.456383500000072, 54.436422999000058 ], [ 18.451519500000074, 54.43621549900007 ], [ 18.451413, 54.435387999000056 ], [ 18.442845, 54.436285499000064 ], [ 18.43726950000007, 54.439445999000043 ], [ 18.439080500000046, 54.439444499000047 ], [ 18.441115, 54.438891499000079 ], [ 18.442498, 54.438899499000058 ], [ 18.443193500000064, 54.439118999000073 ], [ 18.444014500000037, 54.439997499000071 ], [ 18.446267, 54.440245499000071 ], [ 18.448464500000057, 54.439998999000068 ], [ 18.448602, 54.439941999000041 ], [ 18.448508500000059, 54.439499499000078 ], [ 18.449078500000041, 54.439112999000031 ], [ 18.451278, 54.442664999000044 ], [ 18.451045, 54.443251499000041 ], [ 18.453803500000049, 54.447217999000031 ], [ 18.455846500000064, 54.446763499000042 ] ] ] } }
]
}
