{
"type": "FeatureCollection",
"name": "kielce",
"crs": { "type": "name", "properties": { "name": "urn:ogc:def:crs:OGC:1.3:CRS84" } },
"features": [
{ "type": "Feature", "properties": { }, "geometry": { "type": "Polygon", "coordinates": [ [ [ 20.602881, 50.912216499000067 ], [ 20.616529, 50.91227899900008 ], [ 20.618546, 50.910230999000078 ], [ 20.616390500000023, 50.907761999000058 ], [ 20.61694250000005, 50.907801999000071 ], [ 20.617803500000036, 50.907645499000068 ], [ 20.620356500000071, 50.907151999000064 ], [ 20.620952500000044, 50.906960499000036 ], [ 20.621193, 50.906640999000047 ], [ 20.622970500000065, 50.906189999000048 ], [ 20.623714, 50.906644999000036 ], [ 20.627330500000028, 50.90627549900006 ], [ 20.627835, 50.905861999000081 ], [ 20.627973, 50.905602499000054 ], [ 20.629724, 50.905902999000034 ], [ 20.630116500000042, 50.906240499000035 ], [ 20.631022, 50.906488999000032 ], [ 20.631647, 50.906458999000051 ], [ 20.632707500000038, 50.907447499000057 ], [ 20.632781, 50.908483499000056 ], [ 20.632078500000034, 50.909380499000065 ], [ 20.632168, 50.909733499000026 ], [ 20.632595, 50.909449499000061 ], [ 20.633435500000076, 50.909282499000028 ], [ 20.633746500000029, 50.90961149900005 ], [ 20.634324, 50.911612999000056 ], [ 20.633186500000022, 50.911822999000037 ], [ 20.633862500000077, 50.913446499000031 ], [ 20.63887550000004, 50.912551999000073 ], [ 20.639321, 50.911902999000063 ], [ 20.638077500000065, 50.909233999000037 ], [ 20.638869, 50.908506999000053 ], [ 20.639127, 50.908021499000029 ], [ 20.638392, 50.907270999000048 ], [ 20.63720150000006, 50.907342499000038 ], [ 20.637139, 50.90722099900006 ], [ 20.637816500000042, 50.906756999000038 ], [ 20.641631, 50.906172499000036 ], [ 20.642469500000061, 50.906599499000038 ], [ 20.642747500000041, 50.905997999000078 ], [ 20.660065, 50.903377999000043 ], [ 20.662762500000042, 50.911467499000082 ], [ 20.676895500000057, 50.912504499000079 ], [ 20.67763350000007, 50.914855499000055 ], [ 20.68509, 50.911018499000079 ], [ 20.681877500000041, 50.908747499000071 ], [ 20.682476, 50.907408499000042 ], [ 20.682621500000039, 50.905630999000039 ], [ 20.682379, 50.904384999000058 ], [ 20.681654500000036, 50.90298849900006 ], [ 20.687838, 50.901393999000049 ], [ 20.693055, 50.900243499000055 ], [ 20.693093, 50.90012099900008 ], [ 20.692346500000042, 50.899688499000035 ], [ 20.679786500000034, 50.89646299900005 ], [ 20.676909, 50.896046499000079 ], [ 20.676833500000043, 50.895960499000068 ], [ 20.677402500000028, 50.89364499900006 ], [ 20.67789, 50.892976999000041 ], [ 20.678489500000069, 50.892841999000041 ], [ 20.679990500000031, 50.892852499000071 ], [ 20.681122, 50.893162999000026 ], [ 20.681668500000058, 50.893113999000036 ], [ 20.683809, 50.892693999000073 ], [ 20.684593, 50.89227549900005 ], [ 20.685636, 50.892014999000025 ], [ 20.687976, 50.892423999000073 ], [ 20.688685500000076, 50.892396999000027 ], [ 20.692808500000069, 50.893869499000061 ], [ 20.695005, 50.894273999000063 ], [ 20.69794950000005, 50.889494999000078 ], [ 20.699968, 50.891326499000058 ], [ 20.700256, 50.890952999000035 ], [ 20.695556500000066, 50.886738499000046 ], [ 20.69116450000007, 50.882555499000034 ], [ 20.682754500000044, 50.884159499000077 ], [ 20.677624500000036, 50.884288999000034 ], [ 20.677704, 50.879060499000047 ], [ 20.675779500000033, 50.873683499000038 ], [ 20.677357500000028, 50.862948999000082 ], [ 20.678682, 50.86286749900006 ], [ 20.679816500000072, 50.863061499000025 ], [ 20.684585, 50.863101999000037 ], [ 20.703956500000061, 50.86301049900004 ], [ 20.719122500000026, 50.863146999000037 ], [ 20.719104500000071, 50.86270999900006 ], [ 20.719487, 50.862489499000048 ], [ 20.720364, 50.862980499000059 ], [ 20.720626500000037, 50.862821999000062 ], [ 20.720514500000036, 50.862265999000044 ], [ 20.719173500000068, 50.861673499000062 ], [ 20.718225, 50.861459999000033 ], [ 20.717666500000064, 50.860915999000042 ], [ 20.717141500000025, 50.860694999000032 ], [ 20.715862500000071, 50.861301999000034 ], [ 20.714102500000024, 50.860898999000028 ], [ 20.713301500000057, 50.860528499000054 ], [ 20.713373500000046, 50.860371499000053 ], [ 20.713934, 50.860254999000063 ], [ 20.714156, 50.859850499000061 ], [ 20.713815, 50.859537999000054 ], [ 20.713556, 50.85938599900004 ], [ 20.712099500000022, 50.859599499000069 ], [ 20.711984, 50.85950499900008 ], [ 20.712090500000045, 50.859344999000029 ], [ 20.711642, 50.85889449900003 ], [ 20.710649500000045, 50.858654499000068 ], [ 20.710645, 50.858351499000037 ], [ 20.710972500000025, 50.857761499000048 ], [ 20.709976500000039, 50.856629999000063 ], [ 20.709347, 50.856212499000037 ], [ 20.708376, 50.856192999000029 ], [ 20.70824650000003, 50.849594999000033 ], [ 20.708191500000055, 50.845977499000071 ], [ 20.702193500000078, 50.849037499000076 ], [ 20.701314500000024, 50.849356499000066 ], [ 20.697151500000075, 50.849344999000039 ], [ 20.696480500000064, 50.848368999000058 ], [ 20.696381, 50.847998999000026 ], [ 20.696570500000064, 50.847060499000065 ], [ 20.693988500000046, 50.847075999000026 ], [ 20.693547500000022, 50.847378999000057 ], [ 20.693120500000077, 50.847930499000029 ], [ 20.691587500000026, 50.848839999000063 ], [ 20.690311500000064, 50.848886999000058 ], [ 20.690072, 50.848726499000065 ], [ 20.689504500000055, 50.848864499000058 ], [ 20.689151500000037, 50.849087999000062 ], [ 20.689253, 50.849341499000047 ], [ 20.68885750000004, 50.849687499000026 ], [ 20.686812, 50.850302999000064 ], [ 20.686143500000071, 50.85049249900004 ], [ 20.685441, 50.850559999000041 ], [ 20.684517500000027, 50.850941499000044 ], [ 20.683017500000062, 50.851801999000031 ], [ 20.682901, 50.852319999000031 ], [ 20.669232500000078, 50.852440499000068 ], [ 20.668226, 50.847076499000082 ], [ 20.676011500000072, 50.847075499000027 ], [ 20.675861500000053, 50.844121499000039 ], [ 20.672894, 50.844128499000078 ], [ 20.671367500000031, 50.841219999000032 ], [ 20.665666500000043, 50.831717499000035 ], [ 20.672029, 50.826110499000038 ], [ 20.659264500000063, 50.826984999000047 ], [ 20.655105, 50.818715999000062 ], [ 20.654999, 50.818506999000078 ], [ 20.643291500000032, 50.820028499000045 ], [ 20.642106, 50.822703999000055 ], [ 20.637559, 50.823158999000043 ], [ 20.637297, 50.81893399900008 ], [ 20.64027150000004, 50.818568499000037 ], [ 20.640295500000036, 50.818992999000045 ], [ 20.640773500000023, 50.818978499000082 ], [ 20.640749, 50.818510999000068 ], [ 20.645892500000059, 50.817881499000066 ], [ 20.645270500000038, 50.807303999000055 ], [ 20.643320500000073, 50.807984499000042 ], [ 20.640714, 50.805045499000073 ], [ 20.632269500000064, 50.807870999000045 ], [ 20.631552, 50.807069499000079 ], [ 20.627502500000048, 50.807562499000028 ], [ 20.627233, 50.802730999000062 ], [ 20.623664, 50.803814999000053 ], [ 20.621362500000032, 50.801186999000038 ], [ 20.622161500000061, 50.798100999000042 ], [ 20.620556, 50.798181999000064 ], [ 20.620295500000054, 50.79329799900006 ], [ 20.613205, 50.793488499000034 ], [ 20.614831500000037, 50.796887999000035 ], [ 20.616654, 50.800892499000042 ], [ 20.615488500000026, 50.801046499000051 ], [ 20.615073, 50.805546999000057 ], [ 20.602711500000055, 50.810235999000042 ], [ 20.595449500000029, 50.806910999000081 ], [ 20.592329, 50.808536999000069 ], [ 20.59443, 50.811154499000054 ], [ 20.594885500000032, 50.811046499000042 ], [ 20.595525500000065, 50.813976999000033 ], [ 20.592585500000041, 50.814623499000049 ], [ 20.588705, 50.816889999000068 ], [ 20.585513, 50.817548499000054 ], [ 20.584667, 50.817417499000044 ], [ 20.583966500000031, 50.816094999000029 ], [ 20.579451, 50.816554499000063 ], [ 20.579157500000065, 50.815922999000065 ], [ 20.577342500000043, 50.816257999000072 ], [ 20.576461, 50.815620999000032 ], [ 20.574595500000044, 50.815614999000047 ], [ 20.57317, 50.815388999000049 ], [ 20.571698, 50.812585499000079 ], [ 20.568958, 50.811569999000028 ], [ 20.568639500000074, 50.810973499000056 ], [ 20.563998, 50.811480499000027 ], [ 20.563814500000035, 50.811153499000056 ], [ 20.562500500000056, 50.811299999000028 ], [ 20.561751, 50.810352999000031 ], [ 20.562046, 50.810289999000076 ], [ 20.562279, 50.809847499000057 ], [ 20.561384, 50.809879499000033 ], [ 20.55895, 50.810441999000034 ], [ 20.554693, 50.812080499000047 ], [ 20.553191, 50.812831999000082 ], [ 20.55161350000003, 50.819995999000071 ], [ 20.549771, 50.824107999000034 ], [ 20.54962450000005, 50.82469499900003 ], [ 20.548554, 50.825805499000069 ], [ 20.54615, 50.827720499000066 ], [ 20.545889, 50.827728499000045 ], [ 20.544838, 50.828419499000063 ], [ 20.543603, 50.829000499000074 ], [ 20.542039, 50.830100499000082 ], [ 20.539823500000068, 50.83215799900006 ], [ 20.539105500000062, 50.833437999000068 ], [ 20.537887500000068, 50.833491499000047 ], [ 20.537932500000068, 50.833222999000043 ], [ 20.538779, 50.832396999000082 ], [ 20.53811150000007, 50.832003499000052 ], [ 20.536995500000046, 50.832587499000056 ], [ 20.536697, 50.832615999000041 ], [ 20.536484500000029, 50.832268999000064 ], [ 20.535746, 50.832472999000061 ], [ 20.534519, 50.834825999000032 ], [ 20.534600500000067, 50.835300499000027 ], [ 20.535158500000023, 50.835870499000066 ], [ 20.534518500000047, 50.836127499000042 ], [ 20.536050500000044, 50.837307499000076 ], [ 20.53338750000006, 50.837706499000035 ], [ 20.532855, 50.838706999000067 ], [ 20.535772, 50.83845799900007 ], [ 20.535347500000057, 50.838884999000072 ], [ 20.529898, 50.840879499000039 ], [ 20.528417, 50.84124599900008 ], [ 20.525724500000024, 50.839561499000069 ], [ 20.516027, 50.840920499000049 ], [ 20.513063, 50.849839499000041 ], [ 20.510522500000036, 50.856590499000049 ], [ 20.52106150000003, 50.855602499000042 ], [ 20.522352, 50.859403999000051 ], [ 20.525655, 50.859698999000045 ], [ 20.528204, 50.865636499000061 ], [ 20.526952, 50.865698499000075 ], [ 20.524964500000067, 50.866186499000037 ], [ 20.525627, 50.867724999000075 ], [ 20.519537500000069, 50.868820999000036 ], [ 20.519185500000049, 50.87140849900004 ], [ 20.519837, 50.873090499000057 ], [ 20.521562500000073, 50.875872499000081 ], [ 20.52269, 50.87567849900006 ], [ 20.522817500000031, 50.875304499000038 ], [ 20.523221500000034, 50.875067999000066 ], [ 20.523661, 50.875000999000065 ], [ 20.524311500000067, 50.874799499000062 ], [ 20.524391, 50.874500999000077 ], [ 20.524206500000048, 50.874352999000052 ], [ 20.524870500000077, 50.874007499000072 ], [ 20.525924500000031, 50.873763499000063 ], [ 20.526737, 50.873611499000049 ], [ 20.528486, 50.87338999900004 ], [ 20.529070500000046, 50.873375499000076 ], [ 20.531319500000052, 50.873519499000054 ], [ 20.54724, 50.874138499000026 ], [ 20.547588, 50.879413999000064 ], [ 20.545815, 50.879537499000037 ], [ 20.542831500000034, 50.882828999000026 ], [ 20.544140500000026, 50.883035999000072 ], [ 20.54414, 50.883274999000037 ], [ 20.539881500000035, 50.882916499000032 ], [ 20.548205, 50.896177499000032 ], [ 20.549891, 50.902387999000041 ], [ 20.576425500000028, 50.907649999000057 ], [ 20.57906, 50.908006999000065 ], [ 20.579801, 50.908268999000029 ], [ 20.581163500000059, 50.908444999000039 ], [ 20.581516, 50.908363499000075 ], [ 20.581762, 50.908027999000069 ], [ 20.581686500000046, 50.907773999000028 ], [ 20.581205, 50.90738649900004 ], [ 20.581579, 50.907246999000051 ], [ 20.582358500000055, 50.907827499000064 ], [ 20.583304500000054, 50.908424999000033 ], [ 20.58500250000003, 50.909177499000066 ], [ 20.58722750000004, 50.909654999000054 ], [ 20.587349500000073, 50.909807499000067 ], [ 20.591211500000043, 50.910788499000034 ], [ 20.596284, 50.912382999000044 ], [ 20.597014500000057, 50.912569999000027 ], [ 20.602367500000071, 50.914613999000039 ], [ 20.602519500000028, 50.91474099900006 ], [ 20.603555500000027, 50.91508249900005 ], [ 20.602881, 50.912216499000067 ] ] ] } }
]
}
