{
"type": "FeatureCollection",
"name": "krakow",
"crs": { "type": "name", "properties": { "name": "urn:ogc:def:crs:OGC:1.3:CRS84" } },
"features": [
{ "type": "Feature", "properties": { }, "geometry": { "type": "Polygon", "coordinates": [ [ [ 19.898330500000043, 50.125683999000046 ], [ 19.899587, 50.125795499000048 ], [ 19.899365, 50.125424499000076 ], [ 19.89829050000003, 50.125341499000058 ], [ 19.89837650000004, 50.125008499000046 ], [ 19.898846, 50.125008999000045 ], [ 19.900501, 50.125508499000034 ], [ 19.901103, 50.125113499000065 ], [ 19.901406500000064, 50.124387999000078 ], [ 19.902184, 50.123571999000035 ], [ 19.903034500000047, 50.122968499000081 ], [ 19.904689, 50.12211699900007 ], [ 19.905953500000066, 50.120904499000062 ], [ 19.907111, 50.119441499000061 ], [ 19.90852, 50.11813199900007 ], [ 19.90909750000003, 50.116849999000067 ], [ 19.909470500000054, 50.115558999000029 ], [ 19.910051, 50.114559999000051 ], [ 19.910785500000031, 50.11265449900003 ], [ 19.911488, 50.111593499000037 ], [ 19.912271, 50.109946499000046 ], [ 19.91294350000004, 50.108075499000051 ], [ 19.914064500000052, 50.10560999900008 ], [ 19.914697, 50.103279999000051 ], [ 19.915108500000031, 50.100931499000069 ], [ 19.918851500000073, 50.100186499000074 ], [ 19.918937500000027, 50.100897499000041 ], [ 19.918783, 50.101340999000058 ], [ 19.921005500000035, 50.102140499000029 ], [ 19.920870500000035, 50.102262999000061 ], [ 19.923532, 50.103406499000073 ], [ 19.926224, 50.104442499000072 ], [ 19.926732, 50.104695499000059 ], [ 19.927297, 50.104936999000074 ], [ 19.92769, 50.105080499000053 ], [ 19.928148500000077, 50.104917999000065 ], [ 19.928141, 50.104324499000029 ], [ 19.928872, 50.103729499000053 ], [ 19.930788, 50.104810499000052 ], [ 19.929370500000061, 50.106650499000068 ], [ 19.930452, 50.106827999000075 ], [ 19.931218, 50.107491499000048 ], [ 19.931312500000047, 50.107795499000076 ], [ 19.93106350000005, 50.10862449900003 ], [ 19.930072, 50.109357499000055 ], [ 19.928417500000023, 50.110267499000031 ], [ 19.927599, 50.110390499000061 ], [ 19.927103500000044, 50.110242999000036 ], [ 19.929353500000047, 50.108127499000034 ], [ 19.929356, 50.107706499000074 ], [ 19.928, 50.107864499000073 ], [ 19.92763, 50.107366999000078 ], [ 19.927206, 50.107275499000082 ], [ 19.926766500000042, 50.107481999000072 ], [ 19.926027500000032, 50.108114499000067 ], [ 19.925358, 50.110117499000069 ], [ 19.925006, 50.110396499000046 ], [ 19.924444, 50.111300499000038 ], [ 19.925422, 50.111797999000032 ], [ 19.925739, 50.11239899900005 ], [ 19.924941, 50.114071499000033 ], [ 19.927286500000037, 50.114620499000068 ], [ 19.927736, 50.113507499000036 ], [ 19.929409500000077, 50.114118499000028 ], [ 19.932617, 50.114483499000073 ], [ 19.935428500000057, 50.115154499000027 ], [ 19.935263500000076, 50.115530499000045 ], [ 19.939973500000065, 50.11624499900006 ], [ 19.939824, 50.117192999000054 ], [ 19.940171, 50.118925499000056 ], [ 19.94131150000004, 50.119037999000057 ], [ 19.943191, 50.118823999000028 ], [ 19.947333, 50.119337499000039 ], [ 19.948759, 50.116542999000046 ], [ 19.95119550000004, 50.114073499000028 ], [ 19.953675500000031, 50.112482999000065 ], [ 19.955292500000041, 50.111218499000074 ], [ 19.955896, 50.110514499000033 ], [ 19.957439500000078, 50.110593499000061 ], [ 19.957310500000062, 50.10938999900003 ], [ 19.9581, 50.108321999000054 ], [ 19.960423500000047, 50.108479999000053 ], [ 19.962532, 50.10957249900008 ], [ 19.963283500000045, 50.110213999000052 ], [ 19.965829, 50.109204999000042 ], [ 19.96824, 50.108515999000076 ], [ 19.969363500000043, 50.107762499000046 ], [ 19.970633, 50.107206999000027 ], [ 19.97233250000005, 50.106786499000066 ], [ 19.975620500000048, 50.106402999000068 ], [ 19.977497, 50.105868999000052 ], [ 19.979003500000033, 50.105821999000057 ], [ 19.979975, 50.105439499000056 ], [ 19.980716, 50.104958999000075 ], [ 19.981358, 50.105565499000079 ], [ 19.986674, 50.104782999000065 ], [ 19.987838500000066, 50.105225499000028 ], [ 19.988289500000064, 50.10528049900006 ], [ 19.98872, 50.105124999000054 ], [ 19.989501, 50.105359499000031 ], [ 19.990749, 50.106116499000052 ], [ 19.992049, 50.106525999000041 ], [ 19.994825, 50.107010499000069 ], [ 19.999885500000062, 50.107243499000049 ], [ 20.004547, 50.107164499000078 ], [ 20.016245500000025, 50.106618999000034 ], [ 20.017566500000044, 50.106443499000079 ], [ 20.022095500000034, 50.105180999000027 ], [ 20.024240500000076, 50.103942999000026 ], [ 20.027630500000043, 50.104357999000058 ], [ 20.028003, 50.105767499000081 ], [ 20.030037, 50.105884999000068 ], [ 20.031625, 50.107885499000076 ], [ 20.03315, 50.108319499000061 ], [ 20.034031500000026, 50.10873699900003 ], [ 20.034095500000035, 50.108472999000071 ], [ 20.035799, 50.108615999000051 ], [ 20.035229500000071, 50.109993499000041 ], [ 20.036010500000032, 50.110167499000056 ], [ 20.036158, 50.110673499000029 ], [ 20.036814, 50.111137499000051 ], [ 20.037136, 50.111731999000028 ], [ 20.036982500000022, 50.11259349900007 ], [ 20.037207, 50.112811499000031 ], [ 20.038981500000034, 50.113220499000079 ], [ 20.04192, 50.113486999000031 ], [ 20.042057, 50.112983499000052 ], [ 20.042406500000027, 50.112489999000047 ], [ 20.044183500000031, 50.110694499000033 ], [ 20.044707, 50.110321999000064 ], [ 20.045473500000071, 50.111155499000063 ], [ 20.046953, 50.109313499000052 ], [ 20.047668500000043, 50.109644499000069 ], [ 20.049187500000073, 50.109706499000026 ], [ 20.050764500000071, 50.110285499000042 ], [ 20.051063, 50.110558499000035 ], [ 20.05035950000007, 50.110939999000038 ], [ 20.050724500000058, 50.111191999000027 ], [ 20.051867500000071, 50.110640499000056 ], [ 20.052185, 50.110877999000081 ], [ 20.052087, 50.111236999000027 ], [ 20.052517, 50.11208749900004 ], [ 20.053501, 50.112823499000058 ], [ 20.054617, 50.112891499000057 ], [ 20.055484, 50.112591999000074 ], [ 20.056428, 50.112601999000049 ], [ 20.05807150000004, 50.11373799900008 ], [ 20.058009, 50.113859999000056 ], [ 20.058478, 50.114694499000052 ], [ 20.061784, 50.114262499000063 ], [ 20.06159, 50.113526999000044 ], [ 20.062742, 50.113447499000074 ], [ 20.063826, 50.113440499000035 ], [ 20.067046, 50.114018999000052 ], [ 20.070152, 50.113928999000052 ], [ 20.070259500000077, 50.112738999000044 ], [ 20.073128, 50.112716999000043 ], [ 20.076457, 50.112957999000059 ], [ 20.078959500000053, 50.112404499000036 ], [ 20.079004, 50.112296499000081 ], [ 20.07867, 50.11203049900007 ], [ 20.077688, 50.111543999000048 ], [ 20.075491500000055, 50.109488999000064 ], [ 20.076224500000023, 50.109184999000036 ], [ 20.077283, 50.108219999000028 ], [ 20.078161500000078, 50.10828949900008 ], [ 20.081778500000041, 50.109575499000073 ], [ 20.083720500000027, 50.109812999000042 ], [ 20.084174, 50.11025599900006 ], [ 20.084358500000064, 50.111224999000058 ], [ 20.085326, 50.111527499000033 ], [ 20.087953, 50.111401499000067 ], [ 20.08816, 50.113460499000041 ], [ 20.090231500000073, 50.113738999000077 ], [ 20.094117500000038, 50.114793499000029 ], [ 20.094224, 50.116300499000033 ], [ 20.094903500000044, 50.117446999000038 ], [ 20.095837500000073, 50.118540999000061 ], [ 20.096246, 50.119348499000068 ], [ 20.108372, 50.116733499000077 ], [ 20.111347, 50.116498499000045 ], [ 20.111395, 50.116896999000062 ], [ 20.114839, 50.116992999000047 ], [ 20.117255500000056, 50.116782499000067 ], [ 20.117955, 50.116283499000076 ], [ 20.11855550000007, 50.116772999000034 ], [ 20.119982500000049, 50.116454999000041 ], [ 20.120238500000028, 50.11571249900004 ], [ 20.120845, 50.108457499000053 ], [ 20.122761500000024, 50.108502999000052 ], [ 20.124344500000063, 50.108225999000069 ], [ 20.125869500000078, 50.10783649900003 ], [ 20.12756550000006, 50.107367999000076 ], [ 20.131712, 50.10683399900006 ], [ 20.13549450000005, 50.106883499000048 ], [ 20.137877500000059, 50.106759499000077 ], [ 20.137939, 50.106568499000048 ], [ 20.143114500000024, 50.106467499000075 ], [ 20.143844500000057, 50.109260999000071 ], [ 20.144661500000041, 50.111455999000043 ], [ 20.145232, 50.112370999000063 ], [ 20.146882, 50.11434299900003 ], [ 20.151522500000056, 50.117062999000041 ], [ 20.152426, 50.117859499000076 ], [ 20.15301, 50.118822499000032 ], [ 20.154339500000049, 50.119457499000077 ], [ 20.156340500000056, 50.118570499000043 ], [ 20.156377500000076, 50.118978499000036 ], [ 20.157679500000029, 50.119739499000048 ], [ 20.159197, 50.120801499000038 ], [ 20.159060500000066, 50.121605499000054 ], [ 20.161345500000039, 50.121466999000063 ], [ 20.165848, 50.121530999000072 ], [ 20.165805500000033, 50.120513999000082 ], [ 20.172393, 50.120385499000065 ], [ 20.173188500000037, 50.11882349900003 ], [ 20.174222, 50.119018999000048 ], [ 20.174935, 50.119788999000036 ], [ 20.178755, 50.118348999000034 ], [ 20.179812500000025, 50.117232999000066 ], [ 20.181567500000028, 50.116625499000065 ], [ 20.18245150000007, 50.117835999000079 ], [ 20.185352500000022, 50.116758999000069 ], [ 20.186861500000077, 50.118217499000082 ], [ 20.18863650000003, 50.118059499000026 ], [ 20.189751500000057, 50.11779849900006 ], [ 20.190239500000075, 50.118024999000056 ], [ 20.190523, 50.11864999900007 ], [ 20.191029, 50.119053499000074 ], [ 20.192673, 50.119672499000046 ], [ 20.192984500000023, 50.119671499000049 ], [ 20.193555, 50.119214999000064 ], [ 20.194601, 50.11900599900008 ], [ 20.195491, 50.11849249900007 ], [ 20.195933500000024, 50.118684999000038 ], [ 20.196246500000029, 50.119679999000027 ], [ 20.197003500000051, 50.119560499000045 ], [ 20.197791, 50.119638999000074 ], [ 20.198984, 50.12057149900005 ], [ 20.200267500000052, 50.120476499000063 ], [ 20.201290500000027, 50.120431499000063 ], [ 20.201491, 50.119198499000049 ], [ 20.201447500000029, 50.117785499000036 ], [ 20.201616, 50.11748699900005 ], [ 20.204067, 50.117668999000045 ], [ 20.204774, 50.117385499000079 ], [ 20.203855500000031, 50.117151999000043 ], [ 20.203814500000078, 50.116375499000071 ], [ 20.203979, 50.115954999000053 ], [ 20.20907950000003, 50.115564999000071 ], [ 20.205727, 50.112311499000043 ], [ 20.205017, 50.111127999000075 ], [ 20.203335, 50.111225499000057 ], [ 20.202241, 50.111116499000047 ], [ 20.201434, 50.110649499000033 ], [ 20.200896, 50.110017499000037 ], [ 20.199631, 50.109621999000069 ], [ 20.197883, 50.108507499000041 ], [ 20.197370500000034, 50.108326499000043 ], [ 20.196130500000038, 50.108261499000037 ], [ 20.195755, 50.107361499000035 ], [ 20.195384500000046, 50.10697299900005 ], [ 20.195058, 50.105412999000066 ], [ 20.193898, 50.104347999000026 ], [ 20.193105500000058, 50.103221499000028 ], [ 20.19276, 50.101895999000078 ], [ 20.192213, 50.100568499000076 ], [ 20.191624, 50.097430499000041 ], [ 20.191597500000057, 50.096534999000028 ], [ 20.191839500000071, 50.095563999000035 ], [ 20.191572500000063, 50.094297499000049 ], [ 20.191742500000032, 50.09164849900003 ], [ 20.192840500000045, 50.087819999000033 ], [ 20.192325500000038, 50.087398999000072 ], [ 20.190368500000034, 50.087005999000041 ], [ 20.189189500000055, 50.086446999000032 ], [ 20.184929, 50.086066999000082 ], [ 20.185114, 50.085644499000068 ], [ 20.185592, 50.08536699900003 ], [ 20.188256500000023, 50.085151999000061 ], [ 20.189319, 50.084730499000045 ], [ 20.189968, 50.083974499000078 ], [ 20.189762, 50.083245999000042 ], [ 20.189765500000078, 50.082677999000055 ], [ 20.189783500000033, 50.082348499000034 ], [ 20.190022, 50.08198199900005 ], [ 20.190421, 50.081634999000073 ], [ 20.191207, 50.081420999000045 ], [ 20.19172, 50.080833999000049 ], [ 20.19269550000007, 50.080436499000029 ], [ 20.192832, 50.079785499000081 ], [ 20.193351500000063, 50.079625999000029 ], [ 20.193606500000044, 50.079105999000035 ], [ 20.194614, 50.078779999000062 ], [ 20.194592, 50.078220999000052 ], [ 20.195526500000028, 50.078136999000037 ], [ 20.195605500000056, 50.076394999000058 ], [ 20.195789, 50.076236499000061 ], [ 20.196854500000029, 50.076083999000048 ], [ 20.197089500000061, 50.075617499000032 ], [ 20.19946, 50.074867999000048 ], [ 20.199564, 50.074242999000035 ], [ 20.195234, 50.07395499900008 ], [ 20.195355, 50.073715999000058 ], [ 20.194454, 50.07343049900004 ], [ 20.192961, 50.072275999000055 ], [ 20.192777, 50.071867999000062 ], [ 20.192751, 50.071263999000053 ], [ 20.193013, 50.070468499000071 ], [ 20.194759500000032, 50.06976449900003 ], [ 20.196492500000033, 50.069488999000043 ], [ 20.197546, 50.069145999000057 ], [ 20.19895850000006, 50.068151999000065 ], [ 20.199184, 50.066995499000029 ], [ 20.202643, 50.065828499000077 ], [ 20.20391, 50.065239499000029 ], [ 20.204379500000073, 50.06481799900007 ], [ 20.205627, 50.065168499000038 ], [ 20.206357500000024, 50.065013499000031 ], [ 20.207363500000042, 50.064016999000046 ], [ 20.212266500000055, 50.057677999000077 ], [ 20.213056, 50.056876499000055 ], [ 20.217346500000076, 50.053434499000048 ], [ 20.214886, 50.051917999000068 ], [ 20.212823, 50.050115499000071 ], [ 20.211269500000071, 50.047913999000059 ], [ 20.210295500000029, 50.045809499000029 ], [ 20.209620500000028, 50.045108999000036 ], [ 20.208360500000026, 50.044349999000076 ], [ 20.206322500000056, 50.043822999000042 ], [ 20.204365, 50.043584499000076 ], [ 20.201116500000069, 50.043864499000051 ], [ 20.198552, 50.04469399900006 ], [ 20.194861500000059, 50.046683999000038 ], [ 20.192784, 50.047558999000046 ], [ 20.190543, 50.048139999000057 ], [ 20.187870500000031, 50.048348499000042 ], [ 20.18507, 50.048174499000027 ], [ 20.182361, 50.047719999000037 ], [ 20.177282, 50.04657049900004 ], [ 20.166522500000042, 50.043837499000063 ], [ 20.162387, 50.043111499000076 ], [ 20.159579, 50.042830499000047 ], [ 20.156414, 50.042836499000032 ], [ 20.153958, 50.043010499000047 ], [ 20.150352, 50.043661999000051 ], [ 20.142275500000039, 50.045734999000047 ], [ 20.13929150000007, 50.045940499000039 ], [ 20.137371500000029, 50.04564349900005 ], [ 20.13530650000007, 50.044909999000026 ], [ 20.13383, 50.043910499000049 ], [ 20.13251450000007, 50.042532999000059 ], [ 20.130474500000048, 50.040936999000053 ], [ 20.128866, 50.040121499000065 ], [ 20.127675, 50.039821999000026 ], [ 20.125055, 50.039731999000026 ], [ 20.122787500000072, 50.040309499000045 ], [ 20.119295, 50.041812999000058 ], [ 20.115759, 50.042592999000078 ], [ 20.111738, 50.042669499000056 ], [ 20.106856, 50.04244249900006 ], [ 20.104373500000065, 50.041279999000039 ], [ 20.103188500000044, 50.041183999000054 ], [ 20.100081, 50.038296499000069 ], [ 20.099364, 50.03780449900006 ], [ 20.098011, 50.037278499000081 ], [ 20.095960500000047, 50.036958499000036 ], [ 20.094019, 50.037149999000064 ], [ 20.092176500000051, 50.038019499000029 ], [ 20.091694, 50.038685499000053 ], [ 20.091553500000032, 50.03959099900004 ], [ 20.091644500000029, 50.040251999000077 ], [ 20.092029, 50.041323499000043 ], [ 20.092338500000039, 50.041780999000082 ], [ 20.092283500000065, 50.042071999000029 ], [ 20.09087, 50.043653999000071 ], [ 20.089234500000032, 50.044713499000068 ], [ 20.089012, 50.044853499000055 ], [ 20.088005, 50.044897499000058 ], [ 20.087248, 50.044549499000027 ], [ 20.086163500000055, 50.043771499000059 ], [ 20.085619, 50.042960999000059 ], [ 20.083541500000024, 50.041485999000031 ], [ 20.082306, 50.041281999000034 ], [ 20.081702, 50.040780999000049 ], [ 20.081062, 50.040646999000046 ], [ 20.080324500000074, 50.040703499000074 ], [ 20.081014, 50.03871299900004 ], [ 20.081989, 50.038913999000044 ], [ 20.083382, 50.038292999000078 ], [ 20.083807, 50.037896999000054 ], [ 20.083306, 50.03774099900005 ], [ 20.082364, 50.036904499000059 ], [ 20.079731, 50.035800499000061 ], [ 20.080814500000031, 50.035028499000077 ], [ 20.081628500000022, 50.034679999000048 ], [ 20.081707, 50.034259499000029 ], [ 20.076905500000066, 50.033217499000045 ], [ 20.073541500000033, 50.032186499000034 ], [ 20.072845500000028, 50.031518499000072 ], [ 20.072797, 50.030845499000066 ], [ 20.072277500000041, 50.029763999000068 ], [ 20.069093500000065, 50.027117499000042 ], [ 20.068426500000044, 50.026481499000056 ], [ 20.067688500000031, 50.025448499000049 ], [ 20.064865, 50.024269999000069 ], [ 20.065311500000064, 50.023727499000074 ], [ 20.067163500000049, 50.02218749900004 ], [ 20.068433, 50.021994999000071 ], [ 20.069757500000037, 50.018345499000077 ], [ 20.069067, 50.01571799900006 ], [ 20.068030500000077, 50.014076499000055 ], [ 20.06765850000005, 50.013087499000051 ], [ 20.067615500000045, 50.012750999000048 ], [ 20.067756, 50.01271949900007 ], [ 20.067896, 50.012241999000025 ], [ 20.06787950000006, 50.011699999000029 ], [ 20.067376500000023, 50.009758999000042 ], [ 20.066763500000036, 50.009146999000052 ], [ 20.066260500000055, 50.009027499000069 ], [ 20.065667, 50.007786499000076 ], [ 20.064820500000053, 50.008035999000072 ], [ 20.063034500000072, 50.008131999000057 ], [ 20.062354, 50.007614999000054 ], [ 20.062305500000036, 50.007289999000079 ], [ 20.062561500000072, 50.006840499000077 ], [ 20.062331, 50.006321999000079 ], [ 20.061593500000072, 50.005783499000074 ], [ 20.060753, 50.005331999000077 ], [ 20.058287500000063, 50.005656999000053 ], [ 20.057285, 50.004707499000062 ], [ 20.05516, 50.004596499000058 ], [ 20.055168500000036, 50.004112999000029 ], [ 20.053894, 50.004101499000058 ], [ 20.051616500000023, 50.003824999000074 ], [ 20.049604500000044, 50.004292999000029 ], [ 20.048284, 50.004169499000056 ], [ 20.048140500000045, 50.00398799900006 ], [ 20.048154500000066, 50.003064499000061 ], [ 20.0478, 50.001768499000036 ], [ 20.047734500000047, 50.000070999000059 ], [ 20.047968, 49.999090499000033 ], [ 20.047586500000023, 49.999000499000033 ], [ 20.046771500000034, 49.999151999000048 ], [ 20.043980500000032, 49.999150999000051 ], [ 20.039157, 49.999829499000043 ], [ 20.037723, 50.001003499000035 ], [ 20.035753, 50.001409499000033 ], [ 20.031008500000041, 50.000916999000026 ], [ 20.028894, 50.00110199900007 ], [ 20.028797, 50.000916499000027 ], [ 20.029181, 50.000407499000062 ], [ 20.029321500000037, 49.999624999000048 ], [ 20.029195, 49.999285999000051 ], [ 20.028484, 49.999178499000038 ], [ 20.02370650000006, 50.003057499000079 ], [ 20.022153, 50.003251999000042 ], [ 20.018814, 50.003114499000048 ], [ 20.018489500000044, 50.004178499000034 ], [ 20.018281500000057, 50.004325999000059 ], [ 20.017476500000043, 50.004241499000045 ], [ 20.016731, 50.003947999000047 ], [ 20.01327150000003, 50.003711499000076 ], [ 20.010535, 50.00332699900008 ], [ 20.006307, 50.002487999000039 ], [ 20.006113500000026, 50.001963499000055 ], [ 20.004144500000052, 50.001186999000026 ], [ 20.003518500000041, 50.000388499000053 ], [ 20.002761, 49.999234999000066 ], [ 20.002744, 49.999081999000055 ], [ 20.003254500000025, 49.998006499000041 ], [ 20.004400500000031, 49.997240999000041 ], [ 20.004777, 49.99712499900005 ], [ 20.00519950000006, 49.997038499000041 ], [ 20.007086500000071, 49.996462499000074 ], [ 20.008499500000028, 49.995532499000035 ], [ 20.01027, 49.995161499000062 ], [ 20.010989500000051, 49.995277499000053 ], [ 20.012233500000036, 49.994684499000073 ], [ 20.012720500000057, 49.993847999000081 ], [ 20.012844500000028, 49.993421499000078 ], [ 20.013453, 49.993329999000082 ], [ 20.013915, 49.991351999000074 ], [ 20.014707500000043, 49.99048349900005 ], [ 20.015428500000041, 49.988850999000078 ], [ 20.015879, 49.988374499000031 ], [ 20.017823, 49.987197499000047 ], [ 20.018671500000039, 49.986316499000054 ], [ 20.018604, 49.985862499000064 ], [ 20.016021500000022, 49.984378499000059 ], [ 20.01518, 49.983464999000034 ], [ 20.013762500000041, 49.982290999000043 ], [ 20.011337, 49.980864499000063 ], [ 20.009702, 49.980181999000081 ], [ 20.010016500000063, 49.977243999000052 ], [ 20.00917, 49.976098499000045 ], [ 20.009074500000054, 49.976176999000074 ], [ 20.008239, 49.975963999000044 ], [ 20.007673500000067, 49.975407499000028 ], [ 20.008223, 49.975082499000052 ], [ 20.006872500000043, 49.97476049900007 ], [ 20.002900500000067, 49.974675999000056 ], [ 20.003391, 49.975154499000041 ], [ 20.001126, 49.975683999000069 ], [ 19.999778, 49.974855499000057 ], [ 19.999309, 49.974813999000048 ], [ 19.998064500000055, 49.974302499000032 ], [ 19.997985500000027, 49.974079499000027 ], [ 19.997279, 49.973943999000028 ], [ 19.993624, 49.973557499000037 ], [ 19.990084, 49.973002499000074 ], [ 19.987044500000025, 49.97304249900003 ], [ 19.983783500000072, 49.972593499000027 ], [ 19.981279500000028, 49.972630999000046 ], [ 19.981073500000036, 49.973216999000044 ], [ 19.981522, 49.974140499000043 ], [ 19.982153500000038, 49.975192999000058 ], [ 19.982261, 49.976092999000059 ], [ 19.982235500000058, 49.977113999000039 ], [ 19.981744500000048, 49.977428499000041 ], [ 19.981378500000062, 49.978234499000052 ], [ 19.981956, 49.978980499000045 ], [ 19.982591, 49.980188999000063 ], [ 19.982587, 49.98069999900008 ], [ 19.982485500000053, 49.980924499000082 ], [ 19.982221, 49.981033999000033 ], [ 19.980450500000074, 49.980941499000039 ], [ 19.977862, 49.981170499000029 ], [ 19.975643, 49.980849999000043 ], [ 19.974592, 49.980559499000037 ], [ 19.972294, 49.97999949900003 ], [ 19.970943, 49.979967499000054 ], [ 19.968958500000042, 49.979488999000068 ], [ 19.968432, 49.979030999000031 ], [ 19.96728, 49.978754999000046 ], [ 19.966536500000075, 49.978479999000058 ], [ 19.96523650000006, 49.977893499000061 ], [ 19.964849500000071, 49.97758249900005 ], [ 19.965599, 49.976477999000053 ], [ 19.965949, 49.975489499000048 ], [ 19.967055500000072, 49.973745499000074 ], [ 19.967039500000055, 49.973163999000064 ], [ 19.964896500000066, 49.973021999000082 ], [ 19.963051500000063, 49.972273999000038 ], [ 19.962879, 49.971226999000066 ], [ 19.962957500000073, 49.970382499000038 ], [ 19.963435, 49.968627499000036 ], [ 19.962568, 49.968668499000046 ], [ 19.962477500000034, 49.968418499000052 ], [ 19.961678, 49.968325499000059 ], [ 19.961498, 49.968435499000066 ], [ 19.961598500000036, 49.96894499900003 ], [ 19.960512, 49.96891449900005 ], [ 19.959462, 49.969259499000032 ], [ 19.959305, 49.968745999000078 ], [ 19.958869500000048, 49.968244999000035 ], [ 19.958623, 49.968273499000077 ], [ 19.957451, 49.968375499000047 ], [ 19.956988, 49.968281499000057 ], [ 19.956170500000042, 49.96803249900006 ], [ 19.956155, 49.967707499000028 ], [ 19.955388500000026, 49.967708499000025 ], [ 19.955467, 49.968236499000056 ], [ 19.955002500000035, 49.969151499000077 ], [ 19.95411450000006, 49.969468499000072 ], [ 19.953798500000062, 49.970074999000076 ], [ 19.953311500000041, 49.970114999000032 ], [ 19.952108, 49.970101499000066 ], [ 19.95201650000007, 49.969560999000066 ], [ 19.951714500000037, 49.969517499000062 ], [ 19.95084, 49.969857999000055 ], [ 19.950768500000038, 49.970236499000066 ], [ 19.951137, 49.970380499000044 ], [ 19.951222500000029, 49.970637499000077 ], [ 19.95069, 49.97107999900004 ], [ 19.949459500000046, 49.971360999000069 ], [ 19.94877850000006, 49.97167999900006 ], [ 19.94833, 49.972072499000035 ], [ 19.94765, 49.97229149900005 ], [ 19.946597, 49.97208899900005 ], [ 19.944917, 49.972213999000076 ], [ 19.944818500000054, 49.972334499000056 ], [ 19.944616500000052, 49.972703999000032 ], [ 19.944442500000036, 49.973059999000043 ], [ 19.943774, 49.972844499000075 ], [ 19.942852500000072, 49.97333799900008 ], [ 19.942927500000053, 49.97367549900008 ], [ 19.943271, 49.973943999000028 ], [ 19.942394, 49.974027999000043 ], [ 19.942203500000062, 49.974364499000046 ], [ 19.940610500000048, 49.974458499000036 ], [ 19.940738500000066, 49.974796999000034 ], [ 19.940351500000077, 49.975198999000042 ], [ 19.940162, 49.975296999000079 ], [ 19.93950250000006, 49.975072999000076 ], [ 19.939516500000025, 49.974704999000039 ], [ 19.939073500000063, 49.974539499000059 ], [ 19.937772, 49.974535499000069 ], [ 19.934051500000066, 49.975570499000071 ], [ 19.934473, 49.976437499000042 ], [ 19.93371250000007, 49.976441499000032 ], [ 19.932979, 49.976856499000064 ], [ 19.932939, 49.977475999000035 ], [ 19.933179500000051, 49.977712999000062 ], [ 19.93259, 49.978792499000065 ], [ 19.931434, 49.978431499000067 ], [ 19.930910500000039, 49.978547499000058 ], [ 19.930699, 49.978827499000033 ], [ 19.929541500000028, 49.97918499900004 ], [ 19.928411500000038, 49.97914649900008 ], [ 19.927745, 49.979592999000033 ], [ 19.927417500000047, 49.979823999000075 ], [ 19.927392500000053, 49.980028999000069 ], [ 19.927818, 49.980283999000051 ], [ 19.927342500000066, 49.980820999000059 ], [ 19.926088, 49.980998999000064 ], [ 19.925698500000067, 49.981317499000056 ], [ 19.918984, 49.979998499000033 ], [ 19.913346, 49.979852999000059 ], [ 19.912613, 49.980245499000034 ], [ 19.912002, 49.981305999000028 ], [ 19.909786500000052, 49.98182599900008 ], [ 19.908557, 49.981494999000063 ], [ 19.907295500000032, 49.981502499000044 ], [ 19.905628500000034, 49.981281999000032 ], [ 19.901921, 49.98131199900007 ], [ 19.901192, 49.981076999000038 ], [ 19.900159500000029, 49.981216499000027 ], [ 19.899039500000072, 49.981033999000033 ], [ 19.89809, 49.980612999000073 ], [ 19.896262, 49.980434499000069 ], [ 19.895887, 49.98044199900005 ], [ 19.895898, 49.980616999000063 ], [ 19.894967500000064, 49.98060749900003 ], [ 19.891767500000071, 49.980266499000038 ], [ 19.891763, 49.980534999000042 ], [ 19.888329, 49.980639499000063 ], [ 19.887404, 49.980388499000071 ], [ 19.887277, 49.979336999000054 ], [ 19.886512500000038, 49.979185499000039 ], [ 19.885448, 49.978330999000036 ], [ 19.885133, 49.977964999000051 ], [ 19.885165, 49.977384999000037 ], [ 19.885377500000061, 49.977229499000032 ], [ 19.885441, 49.976930499000048 ], [ 19.884695500000078, 49.976111499000069 ], [ 19.882948500000055, 49.975637499000072 ], [ 19.882432, 49.975313999000036 ], [ 19.882181500000058, 49.974941499000067 ], [ 19.881037, 49.974722499000052 ], [ 19.879977500000052, 49.974049499000046 ], [ 19.879692500000033, 49.973544999000069 ], [ 19.879677, 49.972636999000031 ], [ 19.879436, 49.971452999000064 ], [ 19.873915, 49.971418499000038 ], [ 19.872453500000063, 49.971704499000055 ], [ 19.870871500000078, 49.971713499000032 ], [ 19.869664, 49.972052999000027 ], [ 19.868827, 49.972638999000026 ], [ 19.867669500000034, 49.974479999000039 ], [ 19.863343, 49.974826999000072 ], [ 19.862171500000045, 49.975171999000054 ], [ 19.860697500000072, 49.975907999000071 ], [ 19.862984500000039, 49.976568499000052 ], [ 19.862943, 49.978616499000054 ], [ 19.862378, 49.978631999000072 ], [ 19.862285, 49.979255499000033 ], [ 19.862442, 49.979825499000071 ], [ 19.86449250000004, 49.980140499000072 ], [ 19.86457050000007, 49.981651499000066 ], [ 19.864461500000061, 49.983175999000082 ], [ 19.863030500000036, 49.983889499000043 ], [ 19.862664, 49.984183999000038 ], [ 19.86239450000005, 49.984709499000076 ], [ 19.860733500000038, 49.984608999000045 ], [ 19.859864, 49.984717999000054 ], [ 19.856558500000062, 49.985509999000044 ], [ 19.854483500000072, 49.985514499000033 ], [ 19.853368, 49.985357499000031 ], [ 19.851708500000029, 49.985437999000055 ], [ 19.848779500000035, 49.98518849900006 ], [ 19.848649500000022, 49.987480499000071 ], [ 19.848254, 49.989985999000055 ], [ 19.849243500000057, 49.992673499000034 ], [ 19.849534, 49.99467099900005 ], [ 19.849013500000069, 49.99487349900005 ], [ 19.848386, 49.99489999900004 ], [ 19.847392, 49.994749499000079 ], [ 19.846300500000041, 49.994556499000055 ], [ 19.844043, 49.994501999000079 ], [ 19.843113, 49.994779999000059 ], [ 19.842664500000069, 49.995036499000037 ], [ 19.841157, 49.994812999000033 ], [ 19.838098500000058, 49.995023999000068 ], [ 19.837073500000031, 49.99553049900004 ], [ 19.831677, 49.995938999000032 ], [ 19.831608, 49.996038999000064 ], [ 19.822441, 49.996241499000064 ], [ 19.821942500000034, 49.996765499000048 ], [ 19.819345500000054, 49.99699399900004 ], [ 19.818425, 49.996759499000063 ], [ 19.818333, 49.996451499000045 ], [ 19.81515550000006, 49.995811499000069 ], [ 19.814213, 49.995120999000051 ], [ 19.814755, 49.994405999000037 ], [ 19.814024500000073, 49.994313999000042 ], [ 19.813034500000072, 49.994535499000051 ], [ 19.813058500000068, 49.994738999000049 ], [ 19.81265650000006, 49.994774999000072 ], [ 19.812169500000039, 49.994692999000051 ], [ 19.811612, 49.994356499000048 ], [ 19.811366500000076, 49.994027499000026 ], [ 19.811229500000024, 49.993713999000079 ], [ 19.810578500000076, 49.993370499000036 ], [ 19.809826, 49.993119999000044 ], [ 19.809557, 49.992921499000033 ], [ 19.809535, 49.992168499000059 ], [ 19.807417, 49.992575499000054 ], [ 19.805987, 49.993025999000054 ], [ 19.803614, 49.992960999000047 ], [ 19.803512500000068, 49.993517499000063 ], [ 19.803936500000077, 49.994057499000064 ], [ 19.803861500000039, 49.99432549900007 ], [ 19.80277, 49.994115499000031 ], [ 19.802232, 49.993371499000034 ], [ 19.801711500000067, 49.993431499000053 ], [ 19.800927500000057, 49.994198499000049 ], [ 19.800612, 49.994812499000034 ], [ 19.800943, 49.994958499000063 ], [ 19.800807500000076, 49.995424999000079 ], [ 19.80022850000006, 49.995734999000035 ], [ 19.798788, 49.99596499900008 ], [ 19.798217, 49.99536499900006 ], [ 19.798320500000045, 49.99531999900006 ], [ 19.796450500000049, 49.994559499000047 ], [ 19.796174, 49.995134499000073 ], [ 19.795666500000038, 49.995283999000037 ], [ 19.796059500000069, 49.995806999000081 ], [ 19.796631500000046, 49.997371499000053 ], [ 19.795452, 50.002117999000063 ], [ 19.795223500000077, 50.00324899900005 ], [ 19.794686500000068, 50.006050999000081 ], [ 19.794340500000033, 50.00721149900005 ], [ 19.792377500000043, 50.011037499000054 ], [ 19.792238500000053, 50.011807999000041 ], [ 19.792304500000057, 50.012255999000047 ], [ 19.792648, 50.013068499000042 ], [ 19.793857, 50.014395499000045 ], [ 19.794732500000066, 50.014848999000037 ], [ 19.797553, 50.015607999000053 ], [ 19.798491, 50.016176499000039 ], [ 19.799932500000068, 50.017522499000052 ], [ 19.800431500000059, 50.018291499000043 ], [ 19.800874500000077, 50.020311499000059 ], [ 19.802001, 50.02269349900007 ], [ 19.803128, 50.024248499000066 ], [ 19.804302, 50.025230499000031 ], [ 19.80591, 50.026087999000026 ], [ 19.807116500000063, 50.026433999000062 ], [ 19.808669, 50.026564499000074 ], [ 19.810316, 50.026373999000043 ], [ 19.81235, 50.025426999000047 ], [ 19.813962, 50.023356999000043 ], [ 19.814874, 50.021773499000062 ], [ 19.815176500000064, 50.02151199900004 ], [ 19.816158, 50.020957499000076 ], [ 19.817762, 50.020488499000066 ], [ 19.81858550000004, 50.020365499000036 ], [ 19.820326500000078, 50.020463999000071 ], [ 19.821824, 50.020879499000046 ], [ 19.827708, 50.023754999000062 ], [ 19.82868650000006, 50.024719499000071 ], [ 19.829102, 50.025812999000038 ], [ 19.828950500000076, 50.026916499000038 ], [ 19.827685, 50.02974849900005 ], [ 19.826546, 50.031694499000082 ], [ 19.826325500000053, 50.032405499000049 ], [ 19.824682, 50.032087499000056 ], [ 19.822032500000034, 50.031872999000029 ], [ 19.820229, 50.031993499000066 ], [ 19.818598, 50.032356499000059 ], [ 19.815623500000072, 50.033738999000036 ], [ 19.814475500000071, 50.034906999000043 ], [ 19.813426500000048, 50.035405999000034 ], [ 19.813064500000053, 50.036678499000061 ], [ 19.812598, 50.037612999000032 ], [ 19.812812500000064, 50.038299499000061 ], [ 19.812849, 50.039198499000065 ], [ 19.812463500000035, 50.03983099900006 ], [ 19.812069500000064, 50.040146499000059 ], [ 19.810640500000034, 50.040654499000027 ], [ 19.810702500000048, 50.041777999000033 ], [ 19.811000500000034, 50.042920499000047 ], [ 19.811285, 50.043317999000067 ], [ 19.813685, 50.045250999000075 ], [ 19.817337, 50.04884849900003 ], [ 19.817738, 50.049103499000068 ], [ 19.818306, 50.05027749900006 ], [ 19.818893500000058, 50.050659499000062 ], [ 19.819494, 50.051455499000042 ], [ 19.819665500000042, 50.052410999000074 ], [ 19.820162, 50.053364999000053 ], [ 19.820165, 50.054264999000054 ], [ 19.820751, 50.055323999000052 ], [ 19.820661, 50.056355999000061 ], [ 19.820776, 50.056850499000063 ], [ 19.821261500000048, 50.05763999900006 ], [ 19.822004500000048, 50.058197499000073 ], [ 19.819844, 50.058217999000078 ], [ 19.816498, 50.059271999000032 ], [ 19.815870500000074, 50.059353499000053 ], [ 19.814623, 50.059202999000036 ], [ 19.814525, 50.059022999000035 ], [ 19.812878, 50.058803999000077 ], [ 19.812095500000055, 50.058675999000059 ], [ 19.811198, 50.058455999000046 ], [ 19.811066, 50.058494499000062 ], [ 19.810901500000057, 50.059161999000025 ], [ 19.810424, 50.059424499000045 ], [ 19.809839, 50.059781999000052 ], [ 19.809293500000024, 50.060999499000047 ], [ 19.804526, 50.062102499000048 ], [ 19.804534500000045, 50.062265999000033 ], [ 19.804608500000029, 50.064548999000067 ], [ 19.803012500000023, 50.067278999000052 ], [ 19.801697, 50.069210499000064 ], [ 19.805408, 50.071567499000025 ], [ 19.806005, 50.072134499000072 ], [ 19.80833, 50.077025499000058 ], [ 19.808438500000022, 50.077607999000065 ], [ 19.808287500000063, 50.078390999000078 ], [ 19.809399, 50.079344999000057 ], [ 19.81124, 50.080160999000043 ], [ 19.81342, 50.080280999000081 ], [ 19.816148, 50.080798999000081 ], [ 19.817041, 50.080764499000054 ], [ 19.818466, 50.081032999000058 ], [ 19.819355, 50.081727999000066 ], [ 19.823283500000059, 50.082589499000051 ], [ 19.823468, 50.082730999000034 ], [ 19.823420500000054, 50.083106499000053 ], [ 19.823689500000057, 50.083421999000052 ], [ 19.825361, 50.084129999000027 ], [ 19.827998, 50.085799999000074 ], [ 19.828008500000067, 50.086008499000059 ], [ 19.829280500000039, 50.087690999000074 ], [ 19.829828500000076, 50.088114499000028 ], [ 19.831946500000072, 50.088537999000039 ], [ 19.834374500000024, 50.088307999000051 ], [ 19.835567, 50.089586999000062 ], [ 19.836467, 50.089334999000073 ], [ 19.837755500000071, 50.090458499000079 ], [ 19.838497, 50.090663499000073 ], [ 19.839044, 50.090658499000028 ], [ 19.840172, 50.091487499000038 ], [ 19.841102500000034, 50.091830499000082 ], [ 19.841862500000047, 50.091818999000054 ], [ 19.843096, 50.092384499000048 ], [ 19.843742, 50.092170999000075 ], [ 19.844985500000064, 50.092221499000061 ], [ 19.846868, 50.093022499000028 ], [ 19.849080500000071, 50.093521499000076 ], [ 19.850831, 50.094221499000071 ], [ 19.851872, 50.094428999000058 ], [ 19.856015, 50.093601999000043 ], [ 19.858618500000034, 50.093504499000062 ], [ 19.861582, 50.092658499000038 ], [ 19.867373500000042, 50.099177499000064 ], [ 19.866611, 50.099997999000038 ], [ 19.865317, 50.099547999000038 ], [ 19.864452500000027, 50.100676499000031 ], [ 19.864337500000033, 50.101743499000065 ], [ 19.863573, 50.102620999000067 ], [ 19.861826, 50.105947499000081 ], [ 19.863321, 50.107329999000058 ], [ 19.867364500000065, 50.107446499000048 ], [ 19.875274500000046, 50.111044499000059 ], [ 19.876643500000057, 50.112527499000066 ], [ 19.876814, 50.113007999000047 ], [ 19.876798, 50.113511499000026 ], [ 19.877702500000055, 50.115069499000072 ], [ 19.878642, 50.117157999000028 ], [ 19.878917, 50.118314999000063 ], [ 19.880745500000046, 50.120453999000063 ], [ 19.882167500000037, 50.121399999000062 ], [ 19.88442150000003, 50.122154999000031 ], [ 19.886615, 50.122253499000067 ], [ 19.88943, 50.122749499000065 ], [ 19.891409, 50.122506999000052 ], [ 19.891384500000072, 50.122985499000038 ], [ 19.891207500000064, 50.123276999000041 ], [ 19.890551500000072, 50.123632999000051 ], [ 19.890380500000049, 50.123983499000076 ], [ 19.891566500000067, 50.124095499000077 ], [ 19.892556500000069, 50.124342499000079 ], [ 19.89239, 50.125135999000065 ], [ 19.892509500000074, 50.12607949900007 ], [ 19.898315500000024, 50.126131499000053 ], [ 19.898330500000043, 50.125683999000046 ] ] ] } }
]
}
