{
"type": "FeatureCollection",
"name": "ljubljana",
"crs": { "type": "name", "properties": { "name": "urn:ogc:def:crs:OGC:1.3:CRS84" } },
"features": [
{ "type": "Feature", "properties": { }, "geometry": { "type": "Polygon", "coordinates": [ [ [ 14.469573, 46.141480499000068 ], [ 14.470204500000023, 46.141788999000028 ], [ 14.471844500000032, 46.142201499000066 ], [ 14.47194, 46.141679999000075 ], [ 14.471622, 46.141084999000043 ], [ 14.471767500000055, 46.140743499000052 ], [ 14.471612500000049, 46.140706999000031 ], [ 14.472081500000058, 46.140393999000025 ], [ 14.472084, 46.140160499000046 ], [ 14.472457500000075, 46.140350999000077 ], [ 14.473135500000069, 46.139804999000035 ], [ 14.473639500000047, 46.139888499000051 ], [ 14.474968500000045, 46.138949999000033 ], [ 14.475252, 46.137745499000061 ], [ 14.474521500000037, 46.136986499000045 ], [ 14.47496650000005, 46.136439499000062 ], [ 14.475692500000036, 46.13631699900003 ], [ 14.475892, 46.135732999000027 ], [ 14.478733, 46.137788499000067 ], [ 14.479407, 46.137728499000048 ], [ 14.479889, 46.137388499000053 ], [ 14.480030500000055, 46.137488499000028 ], [ 14.481199, 46.137097499000049 ], [ 14.483345, 46.137341499000058 ], [ 14.483523500000047, 46.13764799900008 ], [ 14.485223500000075, 46.138555499000063 ], [ 14.484933500000068, 46.139084999000033 ], [ 14.486322, 46.140116999000043 ], [ 14.486842, 46.141270999000028 ], [ 14.489026500000023, 46.141595499000061 ], [ 14.490763, 46.14140549900003 ], [ 14.490998500000046, 46.141127499000049 ], [ 14.492496500000073, 46.141493999000033 ], [ 14.493824500000073, 46.142057999000031 ], [ 14.496970500000032, 46.14199049900003 ], [ 14.4973, 46.142792999000051 ], [ 14.498077500000022, 46.142661499000042 ], [ 14.498624, 46.142348999000035 ], [ 14.499336500000027, 46.14229799900005 ], [ 14.500927500000046, 46.142412999000044 ], [ 14.502396, 46.143210999000075 ], [ 14.504912500000046, 46.144067499000073 ], [ 14.505236500000024, 46.144032999000046 ], [ 14.50576250000006, 46.145996499000034 ], [ 14.507124, 46.14575049900003 ], [ 14.509499, 46.145049999000037 ], [ 14.510499500000037, 46.144604499000081 ], [ 14.511230500000067, 46.143932499000073 ], [ 14.512409, 46.143883999000082 ], [ 14.513753, 46.144141499000057 ], [ 14.514744500000063, 46.141751999000064 ], [ 14.515147, 46.141319499000076 ], [ 14.513934500000062, 46.139661499000056 ], [ 14.513112, 46.138982999000064 ], [ 14.513893500000052, 46.138455499000031 ], [ 14.514588, 46.137450999000066 ], [ 14.515483500000073, 46.137157499000068 ], [ 14.516422, 46.136414999000067 ], [ 14.518446, 46.135838499000045 ], [ 14.520376500000054, 46.134136999000077 ], [ 14.520308, 46.13307499900003 ], [ 14.519675, 46.131425999000044 ], [ 14.520117, 46.13120249900004 ], [ 14.520235, 46.130931499000042 ], [ 14.520735500000058, 46.130008499000041 ], [ 14.52076, 46.128694999000061 ], [ 14.521274500000061, 46.127554499000041 ], [ 14.522095, 46.126954999000077 ], [ 14.522990500000049, 46.126643999000066 ], [ 14.522348500000078, 46.126029499000026 ], [ 14.523487500000044, 46.125997999000049 ], [ 14.523646, 46.125620999000034 ], [ 14.524348, 46.125245999000072 ], [ 14.524852, 46.125310999000078 ], [ 14.525720500000034, 46.125134499000069 ], [ 14.527722, 46.124107999000046 ], [ 14.52936550000004, 46.123800999000025 ], [ 14.529576500000076, 46.122100499000055 ], [ 14.531057500000031, 46.121440499000073 ], [ 14.53135750000007, 46.121108999000057 ], [ 14.531413500000042, 46.120632499000067 ], [ 14.531943500000068, 46.120697499000073 ], [ 14.533033, 46.120377999000027 ], [ 14.533805500000028, 46.120857999000066 ], [ 14.535744500000021, 46.121072999000035 ], [ 14.535502500000064, 46.120576999000036 ], [ 14.536528, 46.120211999000048 ], [ 14.537236, 46.119108499000049 ], [ 14.538053, 46.118886499000041 ], [ 14.539393, 46.117983499000047 ], [ 14.539294, 46.117424999000036 ], [ 14.538909, 46.117045499000028 ], [ 14.539161, 46.116290999000057 ], [ 14.540214500000047, 46.115665499000045 ], [ 14.540991, 46.115587499000071 ], [ 14.542064, 46.115699499000073 ], [ 14.543368, 46.116055999000025 ], [ 14.543821, 46.116048499000044 ], [ 14.543962, 46.116201999000054 ], [ 14.546433500000035, 46.114547499000025 ], [ 14.547756, 46.11421049900008 ], [ 14.548446500000068, 46.11361049900006 ], [ 14.550072500000056, 46.114093999000033 ], [ 14.551488500000062, 46.115016999000034 ], [ 14.551587500000039, 46.115557499000033 ], [ 14.551897, 46.115693499000031 ], [ 14.552509, 46.116784499000062 ], [ 14.55334, 46.116427999000052 ], [ 14.554036500000052, 46.116700499000046 ], [ 14.555142500000045, 46.115921999000079 ], [ 14.558573500000023, 46.115584499000079 ], [ 14.561140500000022, 46.114955499000075 ], [ 14.561557, 46.114596999000071 ], [ 14.561894, 46.114535499000056 ], [ 14.562706, 46.113287999000079 ], [ 14.563507, 46.113443999000026 ], [ 14.564076500000056, 46.113364999000055 ], [ 14.564462500000047, 46.11366349900004 ], [ 14.565163, 46.113422999000079 ], [ 14.565504500000031, 46.11274049900004 ], [ 14.566335500000037, 46.112374999000053 ], [ 14.566428500000029, 46.11208749900004 ], [ 14.567193, 46.111918999000068 ], [ 14.566884500000072, 46.111638999000036 ], [ 14.567015, 46.111495499000057 ], [ 14.567338, 46.111568999000042 ], [ 14.567871500000024, 46.111147999000025 ], [ 14.567588500000056, 46.110948999000072 ], [ 14.568082, 46.110680999000067 ], [ 14.568083500000057, 46.110491999000033 ], [ 14.567424500000072, 46.110408499000073 ], [ 14.567505500000038, 46.109967999000048 ], [ 14.568215500000065, 46.110159499000076 ], [ 14.568114500000036, 46.109825999000066 ], [ 14.568605500000047, 46.109908999000027 ], [ 14.568969500000037, 46.109730499000079 ], [ 14.569279, 46.109803499000066 ], [ 14.56951250000003, 46.109553499000071 ], [ 14.56928350000004, 46.109227999000041 ], [ 14.568162500000028, 46.108701499000063 ], [ 14.568089500000042, 46.108071499000062 ], [ 14.570853, 46.105328499000052 ], [ 14.571326, 46.104376499000068 ], [ 14.572489, 46.102851499000053 ], [ 14.572500500000046, 46.103031499000053 ], [ 14.57312, 46.103258499000049 ], [ 14.573877500000037, 46.103981499000042 ], [ 14.57505, 46.104552499000079 ], [ 14.575265500000057, 46.105164999000067 ], [ 14.575870500000065, 46.10550949900005 ], [ 14.57653, 46.105547499000068 ], [ 14.578627500000039, 46.103620999000043 ], [ 14.579575, 46.103138499000067 ], [ 14.579869500000029, 46.103571499000054 ], [ 14.579911500000037, 46.104876499000056 ], [ 14.579448500000069, 46.106197499000075 ], [ 14.580814, 46.106975999000042 ], [ 14.580744, 46.107668499000056 ], [ 14.581081, 46.107552999000063 ], [ 14.581642, 46.106924999000057 ], [ 14.581698, 46.106376499000078 ], [ 14.581971500000066, 46.106125499000029 ], [ 14.58241, 46.106297999000049 ], [ 14.582794, 46.106830499000068 ], [ 14.582507500000077, 46.107098999000073 ], [ 14.582777, 46.107396999000059 ], [ 14.582568, 46.10769349900005 ], [ 14.582991, 46.108180499000071 ], [ 14.58314850000005, 46.107875499000045 ], [ 14.582878500000049, 46.10764049900007 ], [ 14.584123, 46.107302999000069 ], [ 14.584608500000058, 46.10641399900004 ], [ 14.584649500000069, 46.106108499000072 ], [ 14.584393500000033, 46.105729499000063 ], [ 14.585341500000027, 46.105219999000042 ], [ 14.585924, 46.105203999000025 ], [ 14.586313500000074, 46.104998499000033 ], [ 14.587557, 46.104777999000078 ], [ 14.588375500000041, 46.104276999000035 ], [ 14.589832500000057, 46.104920999000058 ], [ 14.591765500000065, 46.104136499000049 ], [ 14.591586, 46.103919499000028 ], [ 14.592951, 46.103006999000058 ], [ 14.59302, 46.102377999000055 ], [ 14.59318, 46.101702999000054 ], [ 14.59303, 46.101009499000043 ], [ 14.592696500000045, 46.100621499000056 ], [ 14.592918500000053, 46.100379499000042 ], [ 14.592699500000037, 46.100234499000067 ], [ 14.594236500000022, 46.098737499000038 ], [ 14.592934, 46.098237999000048 ], [ 14.593340500000068, 46.097447499000054 ], [ 14.592527, 46.097291999000049 ], [ 14.593467, 46.096071499000061 ], [ 14.593314, 46.095800999000062 ], [ 14.592541, 46.095357499000045 ], [ 14.592236, 46.089390999000045 ], [ 14.590479500000072, 46.089060999000026 ], [ 14.591755500000033, 46.086113999000077 ], [ 14.591949500000055, 46.086141999000063 ], [ 14.592211500000076, 46.085562499000048 ], [ 14.594162, 46.085750999000027 ], [ 14.596750500000041, 46.085593499000026 ], [ 14.598983, 46.08503199900008 ], [ 14.603176500000075, 46.083540999000036 ], [ 14.61746050000005, 46.077321999000048 ], [ 14.620590500000048, 46.076174999000045 ], [ 14.623602, 46.075368999000034 ], [ 14.626449500000035, 46.074868999000046 ], [ 14.628278, 46.074640999000053 ], [ 14.628187500000024, 46.07498799900003 ], [ 14.630687500000022, 46.074872999000036 ], [ 14.633583, 46.074935999000047 ], [ 14.637678, 46.075443999000072 ], [ 14.640401500000053, 46.076082499000051 ], [ 14.646424, 46.078476499000033 ], [ 14.650118, 46.079099499000051 ], [ 14.654112, 46.079237499000044 ], [ 14.656491500000072, 46.079163999000059 ], [ 14.660761, 46.078708499000072 ], [ 14.663553, 46.078779999000062 ], [ 14.665657, 46.079388999000059 ], [ 14.66738, 46.080573499000081 ], [ 14.672505500000057, 46.084464999000033 ], [ 14.675817, 46.086489999000037 ], [ 14.677064500000029, 46.085368999000025 ], [ 14.677453, 46.085306999000068 ], [ 14.676827, 46.083991499000035 ], [ 14.677339, 46.084097999000051 ], [ 14.677632500000072, 46.081087499000034 ], [ 14.677200500000026, 46.07976349900008 ], [ 14.677709, 46.079090499000074 ], [ 14.678666500000077, 46.078894999000056 ], [ 14.679847, 46.078205499000035 ], [ 14.680472500000064, 46.077352499000028 ], [ 14.68121, 46.077291499000069 ], [ 14.681897500000048, 46.076870499000051 ], [ 14.683512500000063, 46.077063999000075 ], [ 14.684299, 46.07747099900007 ], [ 14.686742, 46.077513499000077 ], [ 14.687391500000047, 46.076966499000036 ], [ 14.687902, 46.075870499000075 ], [ 14.688732, 46.075422499000069 ], [ 14.69020050000006, 46.074085999000033 ], [ 14.690562500000055, 46.074032999000053 ], [ 14.691107500000044, 46.073674499000049 ], [ 14.691486, 46.073063499000057 ], [ 14.693312500000047, 46.074741999000025 ], [ 14.696674500000029, 46.076955499000064 ], [ 14.698201500000039, 46.076680499000076 ], [ 14.698321, 46.076104999000052 ], [ 14.699058500000035, 46.076034999000058 ], [ 14.7, 46.076433499000075 ], [ 14.701068, 46.07742599900007 ], [ 14.702525, 46.078167499000074 ], [ 14.70359650000006, 46.078439999000068 ], [ 14.705072, 46.078173999000057 ], [ 14.706221500000026, 46.078320999000027 ], [ 14.707517, 46.077892499000029 ], [ 14.708008, 46.077920499000072 ], [ 14.709199, 46.077653499000064 ], [ 14.710595500000068, 46.077629999000067 ], [ 14.711757500000033, 46.077929999000048 ], [ 14.711634500000059, 46.07667899900008 ], [ 14.713617500000055, 46.075765999000055 ], [ 14.715439500000059, 46.075860499000044 ], [ 14.716423, 46.075700999000048 ], [ 14.716748, 46.075404999000057 ], [ 14.717315, 46.075757499000076 ], [ 14.718054, 46.075363499000048 ], [ 14.718626500000028, 46.074599999000043 ], [ 14.71963850000003, 46.073909499000081 ], [ 14.721321500000045, 46.073400999000057 ], [ 14.723085, 46.072298499000055 ], [ 14.72318, 46.071479999000076 ], [ 14.722975, 46.071011499000065 ], [ 14.723147, 46.07025599900004 ], [ 14.722956, 46.069661499000063 ], [ 14.721565500000054, 46.068569499000034 ], [ 14.720930500000065, 46.068882999000039 ], [ 14.720207500000072, 46.068710499000076 ], [ 14.719498500000043, 46.068330499000069 ], [ 14.718852500000025, 46.06824799900005 ], [ 14.71906, 46.06808649900006 ], [ 14.720417500000053, 46.067837999000062 ], [ 14.721519500000056, 46.067417999000043 ], [ 14.721962500000075, 46.066707999000073 ], [ 14.722844, 46.066206499000032 ], [ 14.723569, 46.066000999000039 ], [ 14.723894, 46.06565099900007 ], [ 14.724667500000066, 46.065976999000043 ], [ 14.725392, 46.06590649900005 ], [ 14.72710950000004, 46.066189499000075 ], [ 14.727381500000035, 46.066162999000028 ], [ 14.727745, 46.065794999000047 ], [ 14.729297, 46.065600999000026 ], [ 14.730083, 46.066106499000057 ], [ 14.731091500000048, 46.066045999000039 ], [ 14.731452500000046, 46.06626299900006 ], [ 14.731918500000063, 46.06611999900008 ], [ 14.73312, 46.066311499000051 ], [ 14.733507, 46.066474499000037 ], [ 14.733544, 46.066798499000072 ], [ 14.734008500000073, 46.066961499000058 ], [ 14.7345, 46.066962499000056 ], [ 14.734967, 46.06663099900004 ], [ 14.735367500000052, 46.066595499000073 ], [ 14.736101, 46.067325999000047 ], [ 14.73655350000007, 46.067255499000055 ], [ 14.737483, 46.067518499000073 ], [ 14.738116500000046, 46.067528999000046 ], [ 14.738335, 46.067780999000036 ], [ 14.740221500000075, 46.068010499000081 ], [ 14.740701, 46.067723499000067 ], [ 14.741748500000028, 46.067662999000049 ], [ 14.742302500000051, 46.067987999000081 ], [ 14.743235, 46.067657499000063 ], [ 14.743972, 46.067622999000037 ], [ 14.744979, 46.067858999000066 ], [ 14.745520500000055, 46.068219999000064 ], [ 14.745947500000057, 46.068121999000027 ], [ 14.746051500000021, 46.067978499000048 ], [ 14.746130500000049, 46.067663499000048 ], [ 14.745834500000058, 46.067293999000071 ], [ 14.746277500000076, 46.066539499000044 ], [ 14.746123500000067, 46.066286999000056 ], [ 14.746455, 46.06446149900006 ], [ 14.747079, 46.063751999000033 ], [ 14.74718450000006, 46.063301999000032 ], [ 14.747112500000071, 46.062051499000063 ], [ 14.746803500000055, 46.061762499000054 ], [ 14.746664, 46.061123499000075 ], [ 14.745711500000027, 46.060293499000068 ], [ 14.746335, 46.059566499000027 ], [ 14.746801, 46.059405499000036 ], [ 14.745317500000056, 46.058870999000078 ], [ 14.744235500000059, 46.058076999000036 ], [ 14.740956500000038, 46.05722399900003 ], [ 14.740439, 46.057348499000057 ], [ 14.74083, 46.056629999000052 ], [ 14.738932500000033, 46.056175499000062 ], [ 14.738225, 46.055462999000042 ], [ 14.737605500000029, 46.055227999000067 ], [ 14.73637750000006, 46.055341999000063 ], [ 14.733293500000059, 46.054317999000034 ], [ 14.732045, 46.053271499000061 ], [ 14.73257650000005, 46.052867999000057 ], [ 14.732334500000036, 46.05222849900008 ], [ 14.731365, 46.052234999000063 ], [ 14.731367500000033, 46.05167749900005 ], [ 14.730398, 46.051737999000068 ], [ 14.728353500000026, 46.052362999000081 ], [ 14.727439, 46.05174899900004 ], [ 14.725588500000072, 46.052212499000063 ], [ 14.725098500000058, 46.052058499000054 ], [ 14.725860500000067, 46.050796999000056 ], [ 14.725906500000065, 46.050602999000034 ], [ 14.726684500000033, 46.050109999000028 ], [ 14.727089, 46.049255999000081 ], [ 14.73016750000005, 46.046005999000045 ], [ 14.730802500000038, 46.04560249900004 ], [ 14.733325, 46.045023499000081 ], [ 14.733416500000033, 46.044816999000034 ], [ 14.734735, 46.044729999000026 ], [ 14.73600650000003, 46.043571999000051 ], [ 14.736401, 46.042106499000056 ], [ 14.736354500000061, 46.041017499000077 ], [ 14.736708, 46.040611999000078 ], [ 14.737573, 46.040228499000079 ], [ 14.739938, 46.040062999000043 ], [ 14.740327, 46.039757999000074 ], [ 14.742641500000047, 46.039394499000025 ], [ 14.743146500000023, 46.039107499000067 ], [ 14.744209500000068, 46.038281999000048 ], [ 14.74464, 46.037419499000066 ], [ 14.745454500000051, 46.037285999000062 ], [ 14.745693500000073, 46.035900999000035 ], [ 14.745965, 46.035811499000033 ], [ 14.747160500000064, 46.034293499000057 ], [ 14.747432500000059, 46.034168499000032 ], [ 14.747708500000044, 46.033592999000064 ], [ 14.74828750000006, 46.033603499000037 ], [ 14.748561, 46.033153999000035 ], [ 14.749194500000044, 46.033029499000065 ], [ 14.749106, 46.032606499000053 ], [ 14.749587, 46.031941499000027 ], [ 14.750546500000041, 46.031133999000076 ], [ 14.751064500000041, 46.030855999000039 ], [ 14.751891, 46.030884999000079 ], [ 14.753691, 46.029934999000034 ], [ 14.755306500000074, 46.029731499000036 ], [ 14.754302500000051, 46.028847499000051 ], [ 14.754121500000053, 46.02894599900003 ], [ 14.753118500000028, 46.027872999000067 ], [ 14.752307, 46.02742149900007 ], [ 14.751976, 46.02634099900007 ], [ 14.751953, 46.025612499000033 ], [ 14.752354, 46.025522999000032 ], [ 14.753964, 46.026516499000081 ], [ 14.754534, 46.026202499000078 ], [ 14.754329, 46.025815499000032 ], [ 14.755019, 46.02461099900006 ], [ 14.754635, 46.02380049900006 ], [ 14.75432550000005, 46.023709999000062 ], [ 14.751973, 46.024082999000029 ], [ 14.751327500000059, 46.024018499000078 ], [ 14.750734500000021, 46.023692999000048 ], [ 14.749171, 46.023842499000068 ], [ 14.748022, 46.023750499000073 ], [ 14.74728650000003, 46.023577499000055 ], [ 14.746514, 46.023008999000069 ], [ 14.745569500000045, 46.023375999000052 ], [ 14.744523, 46.023472499000036 ], [ 14.742858500000068, 46.023117999000078 ], [ 14.741584, 46.022161499000049 ], [ 14.741598, 46.021900499000026 ], [ 14.742206500000066, 46.021676999000078 ], [ 14.742557500000032, 46.021092999000075 ], [ 14.740325, 46.020763999000053 ], [ 14.740145, 46.020565499000043 ], [ 14.740288, 46.020340999000041 ], [ 14.741102500000068, 46.020180999000047 ], [ 14.74177, 46.018283999000062 ], [ 14.741319500000031, 46.017940999000075 ], [ 14.740648, 46.017966499000067 ], [ 14.740315, 46.017823499000031 ], [ 14.740532500000029, 46.017740999000068 ], [ 14.740587, 46.017129499000077 ], [ 14.741015, 46.016815499000074 ], [ 14.741609500000038, 46.016699999000025 ], [ 14.74321, 46.016820499000062 ], [ 14.745035500000029, 46.015897499000062 ], [ 14.745709500000032, 46.015350499000078 ], [ 14.744251, 46.015139999000041 ], [ 14.741887500000075, 46.015161999000043 ], [ 14.741837500000031, 46.014846999000042 ], [ 14.742342, 46.014703999000062 ], [ 14.742602, 46.014281499000049 ], [ 14.743416500000023, 46.014094499000066 ], [ 14.745034, 46.013324499000078 ], [ 14.745728500000041, 46.014027499000065 ], [ 14.747071, 46.014174499000035 ], [ 14.748201, 46.012665499000036 ], [ 14.747517500000072, 46.012474999000062 ], [ 14.747584, 46.012079499000038 ], [ 14.746287500000051, 46.010384999000053 ], [ 14.745875, 46.010167999000032 ], [ 14.745145500000035, 46.008798499000079 ], [ 14.744579500000043, 46.008248499000047 ], [ 14.74499650000007, 46.007448499000077 ], [ 14.745421500000077, 46.007109999000079 ], [ 14.746503500000074, 46.008234999000081 ], [ 14.747264500000028, 46.008515499000055 ], [ 14.747678, 46.008417499000075 ], [ 14.748545500000034, 46.00785249900008 ], [ 14.750096500000041, 46.007531999000037 ], [ 14.751413, 46.007714499000031 ], [ 14.751775, 46.007517499000073 ], [ 14.751635, 46.007067499000073 ], [ 14.750553500000024, 46.006443999000055 ], [ 14.750490500000069, 46.006029999000077 ], [ 14.749771500000065, 46.005128999000078 ], [ 14.749256, 46.004938499000048 ], [ 14.749257500000056, 46.004605999000034 ], [ 14.747361, 46.004241999000044 ], [ 14.747186, 46.002954499000055 ], [ 14.748244500000055, 46.002113499000075 ], [ 14.748031, 46.001669999000057 ], [ 14.746662, 46.000366499000052 ], [ 14.746012, 45.999969499000031 ], [ 14.744966500000032, 45.999827499000048 ], [ 14.744484, 45.999484499000062 ], [ 14.743136, 45.997879999000077 ], [ 14.740695500000072, 45.997473999000078 ], [ 14.738625, 45.997572999000056 ], [ 14.735498, 45.998195499000076 ], [ 14.734239, 45.998183499000049 ], [ 14.732149, 45.997877499000026 ], [ 14.731671500000061, 45.997907999000063 ], [ 14.731475500000045, 45.999693499000045 ], [ 14.729706500000077, 45.999738999000044 ], [ 14.728588500000058, 45.999983499000052 ], [ 14.726852500000064, 45.999898499000039 ], [ 14.725398, 46.000304499000038 ], [ 14.724501, 46.001552999000069 ], [ 14.724172500000066, 46.002739999000028 ], [ 14.723458, 46.003669499000068 ], [ 14.722761500000047, 46.00213799900007 ], [ 14.722782500000051, 46.001796499000079 ], [ 14.722525500000074, 46.001565999000036 ], [ 14.722586500000034, 46.001053499000079 ], [ 14.722181, 46.000813999000059 ], [ 14.721058500000026, 46.000658499000053 ], [ 14.720121500000062, 46.00081349900006 ], [ 14.719582500000058, 46.001500499000031 ], [ 14.719399, 46.003236499000081 ], [ 14.718862, 46.003536999000062 ], [ 14.718994, 46.004193999000051 ], [ 14.718618, 46.004548499000066 ], [ 14.718803500000035, 46.004832499000031 ], [ 14.718363, 46.005154999000069 ], [ 14.718453500000066, 46.006473499000037 ], [ 14.716514, 46.006913999000062 ], [ 14.715379, 46.006686499000068 ], [ 14.715235, 46.007072999000059 ], [ 14.714522500000044, 46.00755699900003 ], [ 14.714339500000051, 46.007997499000055 ], [ 14.714117500000043, 46.008464999000068 ], [ 14.714221500000065, 46.008815999000035 ], [ 14.71463250000005, 46.008744999000044 ], [ 14.714928500000042, 46.008961999000064 ], [ 14.714473500000054, 46.009545499000069 ], [ 14.713464500000043, 46.009947999000076 ], [ 14.714423, 46.011893999000051 ], [ 14.71393050000006, 46.012225499000067 ], [ 14.711595500000044, 46.01172499900008 ], [ 14.710609, 46.012747999000055 ], [ 14.709938, 46.01262949900007 ], [ 14.709482, 46.013428999000041 ], [ 14.708343500000069, 46.013749999000026 ], [ 14.707281500000022, 46.014340999000069 ], [ 14.706377500000031, 46.014347999000051 ], [ 14.7045, 46.015323999000032 ], [ 14.703213, 46.014474999000072 ], [ 14.702442500000075, 46.013671999000053 ], [ 14.702601500000071, 46.012871499000028 ], [ 14.69887, 46.010369499000035 ], [ 14.697392500000035, 46.011409499000081 ], [ 14.696948500000076, 46.012307999000029 ], [ 14.696728500000063, 46.012424499000076 ], [ 14.696057, 46.01240449900007 ], [ 14.69423, 46.008827499000063 ], [ 14.694400500000029, 46.008341999000038 ], [ 14.694168500000046, 46.008130999000059 ], [ 14.693084, 46.008185999000034 ], [ 14.692307500000027, 46.008579499000064 ], [ 14.692101500000035, 46.008452999000042 ], [ 14.690188500000033, 46.008753999000078 ], [ 14.689709500000049, 46.009022499000025 ], [ 14.689319, 46.009543499000074 ], [ 14.685618, 46.010918999000069 ], [ 14.683283, 46.010507499000028 ], [ 14.682448500000078, 46.009731499000054 ], [ 14.68145, 46.008171999000069 ], [ 14.679933, 46.006970999000032 ], [ 14.675258500000041, 46.00479849900006 ], [ 14.674368500000071, 46.004651999000032 ], [ 14.674823500000059, 46.004095499000073 ], [ 14.675588, 46.003674999000054 ], [ 14.675599500000033, 46.002896999000029 ], [ 14.677755500000046, 46.001746499000035 ], [ 14.680225, 46.00113249900005 ], [ 14.681842, 46.000551999000038 ], [ 14.682969, 45.999916499000051 ], [ 14.683064, 45.999106999000048 ], [ 14.683245500000055, 45.998990499000058 ], [ 14.682709500000044, 45.998274499000047 ], [ 14.68180650000005, 45.997744499000078 ], [ 14.681759, 45.996988999000052 ], [ 14.681139500000029, 45.996806999000057 ], [ 14.680084, 45.996417499000074 ], [ 14.679287, 45.995820999000046 ], [ 14.678835500000048, 45.995738999000025 ], [ 14.678371, 45.99571049900004 ], [ 14.677039500000035, 45.99606699900005 ], [ 14.675865500000043, 45.995910499000047 ], [ 14.674525500000072, 45.995438999000044 ], [ 14.672665500000051, 45.995586499000069 ], [ 14.672242, 45.995225499000071 ], [ 14.671391, 45.994988999000043 ], [ 14.670762500000023, 45.994285499000057 ], [ 14.670055500000046, 45.993824499000027 ], [ 14.668869, 45.993631999000058 ], [ 14.668653, 45.993001499000059 ], [ 14.668771, 45.992686999000057 ], [ 14.667899, 45.99178499900006 ], [ 14.667670500000042, 45.991127499000072 ], [ 14.668223500000067, 45.989239499000064 ], [ 14.669234, 45.988688999000033 ], [ 14.669158, 45.988405499000066 ], [ 14.668281, 45.988267999000072 ], [ 14.667792, 45.988005499000053 ], [ 14.667546, 45.988148999000032 ], [ 14.667032, 45.987796499000069 ], [ 14.665911, 45.987468999000043 ], [ 14.66516050000007, 45.987763999000038 ], [ 14.66352, 45.987911999000062 ], [ 14.662902, 45.987676499000031 ], [ 14.662573500000065, 45.987334999000041 ], [ 14.659413500000028, 45.988241999000081 ], [ 14.658313, 45.988796499000046 ], [ 14.65834, 45.988607499000068 ], [ 14.656985500000076, 45.988884499000051 ], [ 14.657363500000031, 45.987880499000028 ], [ 14.655254500000069, 45.987576999000055 ], [ 14.654310500000065, 45.987862499000073 ], [ 14.653345500000057, 45.988403499000071 ], [ 14.651689, 45.989109499000051 ], [ 14.650849, 45.989286999000058 ], [ 14.649929500000042, 45.989760999000055 ], [ 14.648460500000056, 45.989342499000031 ], [ 14.646498500000064, 45.989345499000081 ], [ 14.646836500000063, 45.988932999000042 ], [ 14.646917, 45.988437999000041 ], [ 14.646465, 45.988481499000045 ], [ 14.646311500000024, 45.988292499000067 ], [ 14.644956500000035, 45.988269999000067 ], [ 14.644126, 45.988915499000029 ], [ 14.642459500000029, 45.989098999000078 ], [ 14.641317500000071, 45.990049499000065 ], [ 14.640791, 45.989642999000068 ], [ 14.640703, 45.98930049900008 ], [ 14.640959500000065, 45.987546999000074 ], [ 14.640469, 45.987554499000055 ], [ 14.640041, 45.987849999000048 ], [ 14.639740500000073, 45.98841599900004 ], [ 14.640034, 45.988974499000051 ], [ 14.639233, 45.989079999000069 ], [ 14.63883, 45.989474499000039 ], [ 14.639416500000038, 45.990646499000036 ], [ 14.638475500000027, 45.990391499000054 ], [ 14.637893500000075, 45.990542499000071 ], [ 14.637634, 45.990793499000063 ], [ 14.63674750000007, 45.992140499000072 ], [ 14.634864500000049, 45.99387099900008 ], [ 14.634654, 45.994410499000026 ], [ 14.634843500000045, 45.995067499000072 ], [ 14.633407500000033, 45.995566999000062 ], [ 14.632026500000052, 45.995508499000039 ], [ 14.632003500000053, 45.995022499000072 ], [ 14.631565, 45.994985499000052 ], [ 14.630559, 45.994828999000049 ], [ 14.630471, 45.994450999000037 ], [ 14.630137, 45.994242999000051 ], [ 14.631806500000039, 45.991629999000054 ], [ 14.631605, 45.990864499000054 ], [ 14.632242500000075, 45.990119499000059 ], [ 14.632636, 45.989180499000042 ], [ 14.633016500000053, 45.989195499000061 ], [ 14.633207500000026, 45.989614499000027 ], [ 14.633636500000023, 45.989165999000079 ], [ 14.634937500000035, 45.988589499000057 ], [ 14.636512500000038, 45.987537499000041 ], [ 14.636469, 45.987321499000075 ], [ 14.63474750000006, 45.987045999000031 ], [ 14.632644, 45.987007499000072 ], [ 14.632548500000041, 45.986818499000037 ], [ 14.630545500000039, 45.987126999000054 ], [ 14.630614500000036, 45.987401499000043 ], [ 14.630304500000022, 45.98743199900008 ], [ 14.62931750000007, 45.987388499000076 ], [ 14.62900250000007, 45.987202999000033 ], [ 14.626064500000041, 45.987427499000034 ], [ 14.624212500000056, 45.987403499000038 ], [ 14.623984, 45.987780499000053 ], [ 14.624031, 45.988477999000054 ], [ 14.623694500000056, 45.988634499000057 ], [ 14.623172500000067, 45.988474999000061 ], [ 14.620915, 45.988301499000045 ], [ 14.619934, 45.989562499000044 ], [ 14.619027500000072, 45.989671499000053 ], [ 14.617155, 45.992557999000041 ], [ 14.616903, 45.993573999000034 ], [ 14.615905500000054, 45.994042999000044 ], [ 14.615635, 45.994928499000025 ], [ 14.614656500000024, 45.996375999000065 ], [ 14.615502, 45.996604999000056 ], [ 14.61573, 45.996102999000072 ], [ 14.616080500000066, 45.995843499000046 ], [ 14.616944, 45.996034999000074 ], [ 14.617814500000065, 45.997153999000034 ], [ 14.618065, 45.998225499000057 ], [ 14.617131, 45.998878999000056 ], [ 14.615708, 45.999287999000046 ], [ 14.615264500000023, 45.999979499000062 ], [ 14.61454150000003, 45.999976999000069 ], [ 14.613769, 46.001512999000056 ], [ 14.613845, 46.001765499000044 ], [ 14.61281, 46.002067999000076 ], [ 14.61151, 46.001496499000041 ], [ 14.610837500000059, 46.001601999000059 ], [ 14.609741, 46.001490499000056 ], [ 14.609046, 46.001146499000072 ], [ 14.608552, 46.001657499000032 ], [ 14.607971, 46.001655499000037 ], [ 14.606882, 46.002290499000026 ], [ 14.606152, 46.003250999000045 ], [ 14.604741500000046, 46.003695999000058 ], [ 14.603057500000034, 46.004526999000063 ], [ 14.600665500000048, 46.004977499000063 ], [ 14.599962, 46.005838999000048 ], [ 14.599183, 46.00623149900008 ], [ 14.598146, 46.006983999000056 ], [ 14.597970500000031, 46.008072499000036 ], [ 14.598497, 46.008460999000079 ], [ 14.597784, 46.008800499000074 ], [ 14.596365500000047, 46.008543499000041 ], [ 14.594911500000023, 46.007890499000041 ], [ 14.593706, 46.008524999000031 ], [ 14.592675500000041, 46.008152499000062 ], [ 14.591241, 46.00831849900004 ], [ 14.590358, 46.008953999000028 ], [ 14.587730500000077, 46.011435999000071 ], [ 14.589068, 46.012296499000058 ], [ 14.588457500000061, 46.01282549900003 ], [ 14.588541500000076, 46.013644499000065 ], [ 14.587503500000025, 46.014324499000054 ], [ 14.586812500000065, 46.015239999000073 ], [ 14.586045500000068, 46.015866999000025 ], [ 14.586328500000036, 46.016011999000057 ], [ 14.586579, 46.017092499000057 ], [ 14.586127, 46.017090999000061 ], [ 14.58587, 46.016927999000075 ], [ 14.585739500000045, 46.017062499000076 ], [ 14.584343500000045, 46.017228499000055 ], [ 14.58314, 46.017610999000055 ], [ 14.582827500000064, 46.017951499000048 ], [ 14.583592500000066, 46.019222999000078 ], [ 14.580998500000021, 46.018961999000055 ], [ 14.580158, 46.019120499000053 ], [ 14.579758500000025, 46.019020499000078 ], [ 14.57828550000005, 46.019077999000046 ], [ 14.577242500000068, 46.018686999000067 ], [ 14.575074500000028, 46.018435999000076 ], [ 14.574615, 46.019450999000071 ], [ 14.573517, 46.01942899900007 ], [ 14.573379500000044, 46.018888999000069 ], [ 14.573628500000041, 46.018412999000077 ], [ 14.572706500000038, 46.017374499000027 ], [ 14.573162, 46.016899499000033 ], [ 14.573111500000039, 46.016728499000067 ], [ 14.572596500000031, 46.016537499000037 ], [ 14.571860500000071, 46.016516499000033 ], [ 14.569016500000032, 46.016856999000026 ], [ 14.568434, 46.017061499000079 ], [ 14.567948500000057, 46.016375999000047 ], [ 14.564786, 46.01452849900005 ], [ 14.563761500000055, 46.01343599900008 ], [ 14.561559, 46.012680999000054 ], [ 14.559751500000061, 46.012619999000037 ], [ 14.55937, 46.012326999000038 ], [ 14.552406, 46.012588999000059 ], [ 14.545120500000053, 46.013788999000042 ], [ 14.535594500000059, 46.014786499000081 ], [ 14.530183, 46.015819499000031 ], [ 14.528928, 46.013999999000077 ], [ 14.535403500000029, 46.01022049900007 ], [ 14.53887050000003, 46.007876999000075 ], [ 14.538742, 46.007822499000042 ], [ 14.541430500000047, 46.005898999000067 ], [ 14.538037, 46.004103499000053 ], [ 14.538504, 46.003844499000081 ], [ 14.53794350000004, 46.002870499000039 ], [ 14.537568, 46.003048999000043 ], [ 14.535773, 45.999991499000032 ], [ 14.535954, 45.999920499000041 ], [ 14.53367, 45.990517499000077 ], [ 14.533425, 45.99051649900008 ], [ 14.530224, 45.990485499000044 ], [ 14.529608, 45.99003299900005 ], [ 14.529075, 45.990498499000068 ], [ 14.528026500000067, 45.990844999000046 ], [ 14.526789500000064, 45.992099999000061 ], [ 14.52504650000003, 45.992101499000057 ], [ 14.524722500000053, 45.992279999000061 ], [ 14.524186500000042, 45.993024999000056 ], [ 14.523135500000024, 45.99366849900008 ], [ 14.522557500000062, 45.994817499000078 ], [ 14.521041500000024, 45.995467999000027 ], [ 14.519778, 45.997372999000049 ], [ 14.519547500000044, 45.996462499000074 ], [ 14.516857500000071, 45.99649449900005 ], [ 14.512594, 45.996863999000027 ], [ 14.512407, 45.996609999000043 ], [ 14.509356, 46.003084999000066 ], [ 14.472028500000022, 45.994946999000035 ], [ 14.476430500000049, 45.985366499000065 ], [ 14.478561, 45.97838499900007 ], [ 14.476437500000031, 45.977709499000071 ], [ 14.476377, 45.977277499000081 ], [ 14.475771, 45.977238499000066 ], [ 14.475677500000074, 45.977579999000056 ], [ 14.475457, 45.977686999000071 ], [ 14.472782500000051, 45.977989999000044 ], [ 14.473035, 45.977225999000041 ], [ 14.467483, 45.976183499000058 ], [ 14.467163500000026, 45.978521499000067 ], [ 14.462577500000066, 45.978985999000031 ], [ 14.459391500000038, 45.97880899900008 ], [ 14.459025, 45.979365499000039 ], [ 14.457583500000055, 45.976308499000027 ], [ 14.456922500000076, 45.976592999000047 ], [ 14.455695, 45.976748999000051 ], [ 14.452093500000046, 45.975535499000046 ], [ 14.448415500000067, 45.975508499000057 ], [ 14.44659450000006, 45.974507999000025 ], [ 14.446602, 45.974639999000033 ], [ 14.446103500000049, 45.974536999000065 ], [ 14.444615, 45.976137999000059 ], [ 14.441745, 45.974063999000066 ], [ 14.439589, 45.974187999000037 ], [ 14.439061, 45.974086499000066 ], [ 14.437386500000059, 45.975049999000078 ], [ 14.435261500000024, 45.97586749900006 ], [ 14.434848500000044, 45.975901499000031 ], [ 14.433793500000036, 45.976831999000069 ], [ 14.433813500000042, 45.977389999000081 ], [ 14.433549500000026, 45.977973499000029 ], [ 14.428885500000035, 45.982260499000063 ], [ 14.429175, 45.982990499000039 ], [ 14.429989, 45.984137499000042 ], [ 14.430917, 45.98680549900007 ], [ 14.43179850000007, 45.98769149900005 ], [ 14.435568500000045, 45.988870999000028 ], [ 14.438527, 45.989937999000063 ], [ 14.440759, 45.991334499000061 ], [ 14.443333500000051, 45.992075999000065 ], [ 14.446520500000076, 45.99350399900004 ], [ 14.445976, 45.99371749900007 ], [ 14.445577, 45.993616499000041 ], [ 14.442964, 45.994161499000029 ], [ 14.442494, 45.994699499000035 ], [ 14.445502, 45.99594649900007 ], [ 14.448524500000076, 45.995825999000033 ], [ 14.4541, 45.997265499000036 ], [ 14.456928, 45.998556499000074 ], [ 14.456341, 45.99914749900006 ], [ 14.459967, 46.000658499000053 ], [ 14.461748, 46.000729999000043 ], [ 14.461749500000053, 46.001926499000035 ], [ 14.462273500000038, 46.002504999000053 ], [ 14.462698500000045, 46.002569999000059 ], [ 14.463745500000073, 46.00378949900005 ], [ 14.463511, 46.004040499000041 ], [ 14.465152, 46.005226499000059 ], [ 14.464802, 46.006745499000033 ], [ 14.46437, 46.00734649900005 ], [ 14.462846500000069, 46.008643999000071 ], [ 14.460825500000055, 46.009345499000062 ], [ 14.458490500000039, 46.010449999000059 ], [ 14.457663500000024, 46.010517999000058 ], [ 14.456251500000064, 46.010952499000041 ], [ 14.454482, 46.011015999000051 ], [ 14.454049, 46.010383999000055 ], [ 14.451229500000068, 46.010838499000045 ], [ 14.449649, 46.011361499000031 ], [ 14.445043, 46.012230499000054 ], [ 14.44497350000006, 46.012706999000045 ], [ 14.445644500000071, 46.012772999000049 ], [ 14.445575, 46.013276499000028 ], [ 14.442128500000024, 46.013106999000058 ], [ 14.437929, 46.013347499000076 ], [ 14.43843, 46.014933499000051 ], [ 14.438257500000077, 46.015391499000032 ], [ 14.43853850000005, 46.015671999000062 ], [ 14.437769500000059, 46.016387999000074 ], [ 14.438030500000025, 46.017369999000039 ], [ 14.433219, 46.02064849900006 ], [ 14.430411, 46.026203999000074 ], [ 14.431440500000065, 46.026550999000051 ], [ 14.430808, 46.027798499000028 ], [ 14.432603, 46.028744999000025 ], [ 14.433326500000021, 46.02841999900005 ], [ 14.433573, 46.028883499000074 ], [ 14.433601, 46.028719999000032 ], [ 14.434229500000072, 46.029209999000045 ], [ 14.435772, 46.029955499000039 ], [ 14.437064, 46.031212499000048 ], [ 14.439388, 46.032645499000068 ], [ 14.442412500000046, 46.034381999000061 ], [ 14.442700500000058, 46.033960499000045 ], [ 14.440737500000068, 46.038437499000054 ], [ 14.436701, 46.038159999000072 ], [ 14.436782500000049, 46.038616499000057 ], [ 14.437016, 46.038625999000033 ], [ 14.436859, 46.039509999000074 ], [ 14.435796500000038, 46.040446499000041 ], [ 14.435662500000035, 46.040769999000076 ], [ 14.434525, 46.040404499000033 ], [ 14.434496500000023, 46.040846499000054 ], [ 14.43482, 46.040874999000039 ], [ 14.434859, 46.041098499000043 ], [ 14.433819, 46.041060999000081 ], [ 14.434528, 46.041976499000043 ], [ 14.434539500000028, 46.042449499000043 ], [ 14.43306, 46.042556999000055 ], [ 14.435055, 46.04351549900008 ], [ 14.434092, 46.043998499000054 ], [ 14.434609500000022, 46.044040499000062 ], [ 14.435649500000068, 46.04461199900004 ], [ 14.43385150000006, 46.046060999000076 ], [ 14.434202500000026, 46.046900999000059 ], [ 14.434662500000059, 46.04684749900008 ], [ 14.435554500000023, 46.047256999000069 ], [ 14.43676750000003, 46.048343999000053 ], [ 14.437475500000062, 46.048013999000034 ], [ 14.437758500000029, 46.048149499000033 ], [ 14.438486, 46.047748499000079 ], [ 14.438990500000045, 46.04771499900005 ], [ 14.439239500000042, 46.047337999000035 ], [ 14.439733500000045, 46.047061499000051 ], [ 14.440209, 46.047333999000045 ], [ 14.440793500000041, 46.04706599900004 ], [ 14.442336, 46.048694499000078 ], [ 14.442029, 46.048734999000033 ], [ 14.440734500000076, 46.049646999000061 ], [ 14.440425, 46.050207999000065 ], [ 14.439479, 46.050260499000046 ], [ 14.440791, 46.05176349900006 ], [ 14.440997500000037, 46.053044999000065 ], [ 14.439075500000058, 46.054634499000031 ], [ 14.439051, 46.055794999000057 ], [ 14.43867750000004, 46.056953999000029 ], [ 14.436954, 46.05742249900004 ], [ 14.437564500000065, 46.05837899900007 ], [ 14.437624, 46.058891999000025 ], [ 14.436675, 46.059427499000037 ], [ 14.436396500000058, 46.060145999000042 ], [ 14.435842500000035, 46.059953999000072 ], [ 14.43457, 46.060505499000044 ], [ 14.434261500000048, 46.060369499000046 ], [ 14.433881500000041, 46.059593499000073 ], [ 14.433215500000074, 46.060255999000049 ], [ 14.433044, 46.060632999000063 ], [ 14.433602, 46.061679499000036 ], [ 14.43385550000005, 46.063426499000059 ], [ 14.431958500000064, 46.063119999000037 ], [ 14.430235500000038, 46.062247999000078 ], [ 14.429403500000035, 46.061469999000053 ], [ 14.429525, 46.06095749900004 ], [ 14.429296, 46.060605499000076 ], [ 14.428361500000051, 46.060987999000076 ], [ 14.428431500000045, 46.061698999000043 ], [ 14.428233, 46.062138999000069 ], [ 14.427318, 46.06315999900005 ], [ 14.426536500000054, 46.063722999000049 ], [ 14.427691, 46.064556499000048 ], [ 14.428430500000047, 46.06432649900006 ], [ 14.428445, 46.064182499000026 ], [ 14.431169, 46.064474999000026 ], [ 14.430464500000028, 46.065127999000026 ], [ 14.430626500000074, 46.065713999000081 ], [ 14.43034, 46.065937499000029 ], [ 14.430083500000023, 46.065701999000055 ], [ 14.428700500000048, 46.065731499000037 ], [ 14.428149500000075, 46.06650249900008 ], [ 14.427491, 46.066444999000055 ], [ 14.427912, 46.065691499000081 ], [ 14.42601, 46.065870999000026 ], [ 14.425619, 46.066219999000054 ], [ 14.427778500000045, 46.067399999000031 ], [ 14.427798, 46.067975999000055 ], [ 14.428056500000025, 46.067977499000051 ], [ 14.429044500000032, 46.06743349900006 ], [ 14.429329500000051, 46.067407999000068 ], [ 14.429585, 46.067696999000077 ], [ 14.429257500000062, 46.068118499000036 ], [ 14.429124500000057, 46.068728499000031 ], [ 14.426870500000064, 46.068925499000045 ], [ 14.426154500000052, 46.06933649900003 ], [ 14.425885, 46.069226499000081 ], [ 14.425218500000028, 46.069924999000079 ], [ 14.422465, 46.071161499000027 ], [ 14.422306, 46.071538499000042 ], [ 14.422692, 46.071720499000037 ], [ 14.422751, 46.072251999000059 ], [ 14.422048, 46.074002999000072 ], [ 14.422755500000051, 46.075589999000044 ], [ 14.422919, 46.075986499000066 ], [ 14.424313, 46.077469499000074 ], [ 14.424122, 46.078421999000057 ], [ 14.423376, 46.079290999000079 ], [ 14.424321, 46.080202499000052 ], [ 14.423518, 46.080560499000057 ], [ 14.422943500000031, 46.081097499000066 ], [ 14.422387, 46.081157499000028 ], [ 14.421399500000064, 46.081638499000064 ], [ 14.420953, 46.08106949900008 ], [ 14.421040500000061, 46.080079999000077 ], [ 14.419595, 46.079874999000026 ], [ 14.418643, 46.079374999000038 ], [ 14.417732500000056, 46.07991049900005 ], [ 14.41692050000006, 46.080913999000074 ], [ 14.415675, 46.081330499000046 ], [ 14.415722, 46.081744499000081 ], [ 14.414956, 46.08203749900008 ], [ 14.412692500000048, 46.08212499900003 ], [ 14.411661, 46.081849999000042 ], [ 14.411289, 46.081577999000046 ], [ 14.410332, 46.081599999000048 ], [ 14.408912, 46.081358999000031 ], [ 14.408618, 46.08143749900006 ], [ 14.408964500000025, 46.082537999000067 ], [ 14.408819, 46.082833999000059 ], [ 14.409539500000051, 46.084367499000052 ], [ 14.410877500000026, 46.085021999000048 ], [ 14.41193, 46.085746999000037 ], [ 14.411131, 46.086696999000026 ], [ 14.411439, 46.088164999000071 ], [ 14.411268, 46.088433999000074 ], [ 14.411485, 46.088704999000072 ], [ 14.412566, 46.089205499000059 ], [ 14.413702500000056, 46.089346499000044 ], [ 14.413764, 46.089616499000044 ], [ 14.414792500000033, 46.090215499000067 ], [ 14.415006, 46.090828499000054 ], [ 14.414664500000072, 46.091285499000037 ], [ 14.415750500000058, 46.091318499000067 ], [ 14.417469500000038, 46.092658499000038 ], [ 14.418304500000033, 46.091978999000048 ], [ 14.419934, 46.091969499000072 ], [ 14.421307500000069, 46.091679499000065 ], [ 14.421666, 46.092067999000051 ], [ 14.424407, 46.092126999000072 ], [ 14.425104, 46.09225649900003 ], [ 14.425436500000046, 46.092617999000026 ], [ 14.427271, 46.092761999000061 ], [ 14.42782550000004, 46.092953499000032 ], [ 14.428070500000047, 46.092981999000074 ], [ 14.428876, 46.092652999000052 ], [ 14.429312, 46.092987999000059 ], [ 14.42990750000007, 46.094196999000076 ], [ 14.430626500000074, 46.094721999000058 ], [ 14.433661, 46.09391849900004 ], [ 14.434756, 46.09305099900007 ], [ 14.436501500000077, 46.093113499000026 ], [ 14.436226, 46.093489999000042 ], [ 14.436338, 46.093904499000075 ], [ 14.43714650000004, 46.094556499000078 ], [ 14.437842500000045, 46.094793999000046 ], [ 14.438682, 46.094860999000048 ], [ 14.439248500000076, 46.095142499000076 ], [ 14.440712500000075, 46.094861999000045 ], [ 14.441848500000049, 46.095074499000077 ], [ 14.442091, 46.095399499000052 ], [ 14.442619500000035, 46.095563999000035 ], [ 14.44231, 46.096803999000031 ], [ 14.440158500000052, 46.098520999000073 ], [ 14.43842, 46.099052499000038 ], [ 14.437874500000078, 46.099524999000039 ], [ 14.43560750000006, 46.10025149900008 ], [ 14.433934, 46.101436999000043 ], [ 14.43218950000005, 46.101117499000054 ], [ 14.430865500000039, 46.101425499000072 ], [ 14.430171500000029, 46.102248499000041 ], [ 14.431394, 46.10376399900008 ], [ 14.43098150000003, 46.10425249900004 ], [ 14.430947500000059, 46.105025999000077 ], [ 14.430545, 46.105167999000059 ], [ 14.429795500000068, 46.105001499000025 ], [ 14.429221, 46.10562999900003 ], [ 14.428766, 46.10634249900005 ], [ 14.42898450000007, 46.106470999000067 ], [ 14.428327500000023, 46.107225499000037 ], [ 14.427921500000025, 46.108180999000069 ], [ 14.427477, 46.110309999000037 ], [ 14.427615, 46.111354499000072 ], [ 14.427271, 46.112212999000064 ], [ 14.427280500000052, 46.112780999000051 ], [ 14.426707, 46.113366499000051 ], [ 14.42713150000003, 46.115078999000048 ], [ 14.426591500000029, 46.115387499000065 ], [ 14.424248500000033, 46.114859499000033 ], [ 14.421331, 46.114499999000031 ], [ 14.421255, 46.114012999000067 ], [ 14.420899500000075, 46.113961499000027 ], [ 14.420624500000031, 46.114170999000066 ], [ 14.420005, 46.11401999900005 ], [ 14.420393500000046, 46.114825499000062 ], [ 14.420741500000076, 46.114944499000046 ], [ 14.420652500000074, 46.117255999000065 ], [ 14.421171500000071, 46.11715999900008 ], [ 14.421299500000032, 46.117250499000079 ], [ 14.421229500000038, 46.11777199900007 ], [ 14.421637, 46.118421999000077 ], [ 14.422307, 46.121133499000052 ], [ 14.423382500000059, 46.121012999000072 ], [ 14.424596500000064, 46.121216999000069 ], [ 14.424905, 46.121416499000077 ], [ 14.424619, 46.121549999000081 ], [ 14.424742500000036, 46.122117499000069 ], [ 14.425556500000027, 46.122238499000048 ], [ 14.424941500000045, 46.122909999000058 ], [ 14.425687500000038, 46.123318999000048 ], [ 14.425827, 46.123589499000047 ], [ 14.42526950000007, 46.123730499000033 ], [ 14.425345, 46.124397999000053 ], [ 14.424926, 46.124883499000077 ], [ 14.425274, 46.125694999000075 ], [ 14.425816, 46.12568249900005 ], [ 14.425986, 46.126351499000066 ], [ 14.426467500000058, 46.126858499000036 ], [ 14.42698, 46.127090999000075 ], [ 14.426858500000037, 46.12837999900006 ], [ 14.426337500000045, 46.128463999000076 ], [ 14.425946, 46.128715999000065 ], [ 14.42673, 46.128893499000071 ], [ 14.427197500000034, 46.128715999000065 ], [ 14.427412500000059, 46.129202999000029 ], [ 14.428021, 46.129178999000032 ], [ 14.428835500000048, 46.129227999000079 ], [ 14.429035500000055, 46.128688999000076 ], [ 14.429346, 46.128690499000072 ], [ 14.429848, 46.128962999000066 ], [ 14.430147500000032, 46.128757499000073 ], [ 14.430375, 46.129316499000026 ], [ 14.430987, 46.12890599900004 ], [ 14.431389, 46.128862999000035 ], [ 14.431899500000043, 46.129539999000031 ], [ 14.433055500000023, 46.129131999000037 ], [ 14.437008, 46.128575499000078 ], [ 14.43784, 46.128228999000044 ], [ 14.438336500000048, 46.127763499000025 ], [ 14.438969500000042, 46.125282999000035 ], [ 14.440049500000043, 46.123416999000028 ], [ 14.441119, 46.122585499000081 ], [ 14.443771, 46.121338499000046 ], [ 14.443513500000051, 46.121202499000049 ], [ 14.443955500000072, 46.121033499000077 ], [ 14.444286500000032, 46.121574999000075 ], [ 14.446024500000021, 46.122446999000033 ], [ 14.44592, 46.122554499000046 ], [ 14.446391, 46.123285499000076 ], [ 14.44656, 46.123214499000028 ], [ 14.448217500000055, 46.124400999000045 ], [ 14.448965, 46.124728499000071 ], [ 14.449959, 46.12624499900005 ], [ 14.450038, 46.127441999000041 ], [ 14.449574, 46.128519499000049 ], [ 14.450814500000035, 46.128741499000057 ], [ 14.451696, 46.128565999000045 ], [ 14.454064500000072, 46.12852299900004 ], [ 14.453398500000048, 46.130472499000064 ], [ 14.454214, 46.130440499000031 ], [ 14.45555150000007, 46.129969999000025 ], [ 14.457034500000077, 46.130498499000055 ], [ 14.457321, 46.130310999000073 ], [ 14.458199500000035, 46.130458999000041 ], [ 14.458661500000062, 46.130883999000048 ], [ 14.459707, 46.13116799900007 ], [ 14.460271500000033, 46.131683499000076 ], [ 14.460023, 46.131925499000033 ], [ 14.460742500000038, 46.132459499000049 ], [ 14.460266, 46.13352799900008 ], [ 14.462015500000064, 46.133293499000047 ], [ 14.463174, 46.133964499000058 ], [ 14.464058, 46.134868499000049 ], [ 14.465593500000068, 46.135370499000032 ], [ 14.466822, 46.134134499000027 ], [ 14.4685, 46.134600999000043 ], [ 14.468297500000062, 46.135445999000069 ], [ 14.468608500000073, 46.136796999000069 ], [ 14.468323, 46.13686799900006 ], [ 14.467425500000047, 46.13598199900008 ], [ 14.464969500000052, 46.137013999000033 ], [ 14.464903500000048, 46.138489499000059 ], [ 14.464747500000044, 46.138533499000062 ], [ 14.464986500000066, 46.139272499000072 ], [ 14.467688500000065, 46.139563999000075 ], [ 14.467906, 46.13984399900005 ], [ 14.467064500000049, 46.139893999000037 ], [ 14.467993500000034, 46.141526999000064 ], [ 14.469573, 46.141480499000068 ] ] ] } }
]
}
