{
"type": "FeatureCollection",
"name": "lodz",
"crs": { "type": "name", "properties": { "name": "urn:ogc:def:crs:OGC:1.3:CRS84" } },
"features": [
{ "type": "Feature", "properties": { }, "geometry": { "type": "Polygon", "coordinates": [ [ [ 19.506737, 51.859440499000073 ], [ 19.507997, 51.858087999000077 ], [ 19.508693, 51.856634499000052 ], [ 19.509749, 51.855422999000041 ], [ 19.509862500000054, 51.85477049900004 ], [ 19.514372, 51.849776999000028 ], [ 19.524875, 51.847607999000047 ], [ 19.535819500000059, 51.84674349900007 ], [ 19.551507, 51.843531499000051 ], [ 19.556315, 51.84852199900007 ], [ 19.559446500000035, 51.846110499000076 ], [ 19.560258500000032, 51.846219999000027 ], [ 19.560000500000058, 51.845611499000029 ], [ 19.563060500000063, 51.845901499000036 ], [ 19.568034500000067, 51.83764349900008 ], [ 19.564268, 51.836399499000038 ], [ 19.559517500000027, 51.835754999000073 ], [ 19.558227500000044, 51.835204499000042 ], [ 19.557370500000047, 51.834801999000035 ], [ 19.547179, 51.828065499000047 ], [ 19.548337500000059, 51.826783499000044 ], [ 19.549263500000052, 51.825060499000074 ], [ 19.549337, 51.824609999000074 ], [ 19.547303, 51.816682999000079 ], [ 19.553848, 51.812829499000031 ], [ 19.554263, 51.812546499000064 ], [ 19.559844500000054, 51.809281999000063 ], [ 19.559956, 51.80892699900005 ], [ 19.562194500000032, 51.809158999000033 ], [ 19.566838500000074, 51.81117449900006 ], [ 19.569129500000031, 51.811776499000075 ], [ 19.570555500000069, 51.812856499000077 ], [ 19.572983, 51.814086499000041 ], [ 19.576571, 51.814779499000053 ], [ 19.577902, 51.815461499000037 ], [ 19.578629500000034, 51.815416499000037 ], [ 19.58062, 51.815883499000051 ], [ 19.582761500000061, 51.816055499000072 ], [ 19.588404500000024, 51.816075499000078 ], [ 19.588625, 51.815880999000058 ], [ 19.59226, 51.815691499000081 ], [ 19.598110500000075, 51.814915499000051 ], [ 19.599909, 51.815160499000058 ], [ 19.604672500000049, 51.815202499000065 ], [ 19.608025, 51.814905499000076 ], [ 19.610273500000062, 51.814408499000081 ], [ 19.611955500000022, 51.813925999000048 ], [ 19.611882, 51.813790499000049 ], [ 19.612394, 51.813725499000043 ], [ 19.613822500000026, 51.813870999000073 ], [ 19.616460500000073, 51.814403499000036 ], [ 19.614819, 51.811871999000061 ], [ 19.614069500000028, 51.809877499000038 ], [ 19.614348, 51.809299499000076 ], [ 19.613579500000071, 51.808110499000065 ], [ 19.614799, 51.806447499000058 ], [ 19.617028, 51.802567999000075 ], [ 19.617578, 51.801525499000036 ], [ 19.617848500000036, 51.800236999000049 ], [ 19.619358, 51.792230499000027 ], [ 19.618506500000024, 51.791993499000057 ], [ 19.617431500000066, 51.792051499000081 ], [ 19.617472, 51.788857499000073 ], [ 19.616453500000034, 51.785189999000067 ], [ 19.61830150000003, 51.783529999000052 ], [ 19.609280500000068, 51.778863999000066 ], [ 19.624315500000023, 51.767342499000051 ], [ 19.616974, 51.763575999000068 ], [ 19.624533500000041, 51.757707499000048 ], [ 19.6205, 51.755685499000037 ], [ 19.62065, 51.755554999000026 ], [ 19.639943, 51.754664999000056 ], [ 19.627679500000056, 51.748183999000048 ], [ 19.629511, 51.72348499900005 ], [ 19.607528500000058, 51.697649499000079 ], [ 19.603688, 51.702870499000028 ], [ 19.600541, 51.697902499000065 ], [ 19.599998500000027, 51.698115499000039 ], [ 19.599598, 51.697339499000066 ], [ 19.588229, 51.701859999000078 ], [ 19.588393, 51.70241549900004 ], [ 19.588857, 51.703153499000052 ], [ 19.589248, 51.704368999000053 ], [ 19.589835500000049, 51.705266499000061 ], [ 19.590233, 51.705636499000036 ], [ 19.59124950000006, 51.706078999000056 ], [ 19.590792500000077, 51.706389499000068 ], [ 19.59065, 51.706428499000026 ], [ 19.590819500000066, 51.70617149900005 ], [ 19.589783, 51.706407499000079 ], [ 19.58644, 51.707496999000057 ], [ 19.584506, 51.704651499000079 ], [ 19.581649500000026, 51.70279799900004 ], [ 19.577429, 51.704995999000062 ], [ 19.576589, 51.706555999000045 ], [ 19.569131500000026, 51.704555999000036 ], [ 19.566843500000061, 51.704090999000073 ], [ 19.564452500000073, 51.703614499000082 ], [ 19.564204, 51.704086499000027 ], [ 19.562832, 51.703809999000043 ], [ 19.563105, 51.703343499000027 ], [ 19.560063500000069, 51.702717499000073 ], [ 19.562047, 51.698997499000029 ], [ 19.560209, 51.698611999000036 ], [ 19.561463500000059, 51.697000499000069 ], [ 19.536415, 51.694978499000058 ], [ 19.533466500000031, 51.692329499000039 ], [ 19.532160500000032, 51.691871499000058 ], [ 19.533155500000078, 51.690692499000079 ], [ 19.518119500000068, 51.689578999000048 ], [ 19.518582500000036, 51.690585999000064 ], [ 19.517891, 51.691698999000039 ], [ 19.517717, 51.692483999000046 ], [ 19.514001, 51.692777499000044 ], [ 19.513316, 51.697689999000033 ], [ 19.505284, 51.697737999000026 ], [ 19.502446500000076, 51.697473499000068 ], [ 19.495700500000055, 51.698048499000038 ], [ 19.493325, 51.698442499000066 ], [ 19.484277500000076, 51.698097999000026 ], [ 19.474171500000068, 51.695907499000043 ], [ 19.469199500000059, 51.695773999000039 ], [ 19.467005500000027, 51.695399499000075 ], [ 19.468686500000047, 51.688252499000043 ], [ 19.453481, 51.688369499000032 ], [ 19.45278, 51.688791499000047 ], [ 19.452387500000043, 51.688791499000047 ], [ 19.449864, 51.687172499000042 ], [ 19.434502, 51.687288499000033 ], [ 19.43181050000004, 51.686604999000053 ], [ 19.431695, 51.68677449900008 ], [ 19.427484500000048, 51.68614399900008 ], [ 19.427484500000048, 51.686418999000068 ], [ 19.42474, 51.68660649900005 ], [ 19.424551, 51.687469999000029 ], [ 19.420488500000033, 51.687040499000034 ], [ 19.417879500000026, 51.690926499000057 ], [ 19.418606, 51.690905999000051 ], [ 19.418643, 51.693248999000048 ], [ 19.402118500000029, 51.696977999000069 ], [ 19.400326500000062, 51.693490999000062 ], [ 19.372437, 51.697409499000059 ], [ 19.359358500000042, 51.699200999000027 ], [ 19.359227500000031, 51.70260199900008 ], [ 19.354157, 51.702242999000077 ], [ 19.353927500000054, 51.70375449900007 ], [ 19.352604500000041, 51.706213499000057 ], [ 19.352140500000075, 51.706785999000033 ], [ 19.352013500000055, 51.707595999000034 ], [ 19.349260500000071, 51.711601999000038 ], [ 19.346658500000046, 51.713918499000044 ], [ 19.345936, 51.715254499000082 ], [ 19.344423, 51.716746499000067 ], [ 19.341930500000046, 51.717733999000075 ], [ 19.342385, 51.718987499000036 ], [ 19.343543, 51.721320499000058 ], [ 19.343497, 51.721732999000039 ], [ 19.343737500000032, 51.722171499000069 ], [ 19.344721500000048, 51.723150499000042 ], [ 19.345714500000042, 51.723801999000045 ], [ 19.346038, 51.723874499000033 ], [ 19.346338, 51.726940999000078 ], [ 19.346855, 51.727155499000048 ], [ 19.346996500000046, 51.727743499000042 ], [ 19.346913500000028, 51.728076499000053 ], [ 19.346608, 51.728410499000063 ], [ 19.345419, 51.728961999000035 ], [ 19.346824, 51.729495499000052 ], [ 19.346651, 51.729655499000046 ], [ 19.342461, 51.729359499000054 ], [ 19.342184, 51.72891899900003 ], [ 19.343289, 51.728619999000045 ], [ 19.343439, 51.728509999000039 ], [ 19.34330650000004, 51.728364499000065 ], [ 19.340549, 51.726758999000026 ], [ 19.336775500000044, 51.725477999000077 ], [ 19.336623, 51.725526499000068 ], [ 19.337938, 51.727927499000032 ], [ 19.337796, 51.728846499000042 ], [ 19.338235500000053, 51.72902349900005 ], [ 19.338986, 51.729061499000068 ], [ 19.339035, 51.729314999000053 ], [ 19.338365500000066, 51.730043499000033 ], [ 19.338601, 51.730863499000066 ], [ 19.337284500000067, 51.730961999000044 ], [ 19.336686500000042, 51.730853499000034 ], [ 19.33618, 51.729592499000034 ], [ 19.335677500000031, 51.730397999000047 ], [ 19.33491, 51.730286999000043 ], [ 19.335314500000038, 51.73166149900004 ], [ 19.335507500000062, 51.731959499000027 ], [ 19.336, 51.732248499000036 ], [ 19.336659500000053, 51.732416499000067 ], [ 19.339234500000032, 51.732289499000046 ], [ 19.339989, 51.732960499000058 ], [ 19.341547, 51.733874499000081 ], [ 19.342694, 51.733468499000026 ], [ 19.344418500000074, 51.733945499000072 ], [ 19.344203, 51.733979499000043 ], [ 19.338445500000034, 51.738877499000068 ], [ 19.341032, 51.739763499000048 ], [ 19.346456500000045, 51.740952499000059 ], [ 19.346652, 51.740380499000082 ], [ 19.347903, 51.740480499000057 ], [ 19.360858500000063, 51.742245499000035 ], [ 19.360997, 51.742220499000041 ], [ 19.361711500000069, 51.739755499000069 ], [ 19.366979, 51.741323999000031 ], [ 19.371736, 51.742093499000077 ], [ 19.371252500000026, 51.743454999000051 ], [ 19.371285, 51.744774999000072 ], [ 19.370319, 51.744637999000076 ], [ 19.37033450000007, 51.746263999000064 ], [ 19.369719, 51.746513999000058 ], [ 19.369794, 51.747790999000074 ], [ 19.370373500000028, 51.750273499000059 ], [ 19.370298500000047, 51.750904999000056 ], [ 19.371904, 51.751676499000041 ], [ 19.37271, 51.752297999000064 ], [ 19.373695, 51.754523999000071 ], [ 19.374123, 51.754946499000027 ], [ 19.374621, 51.755866499000035 ], [ 19.352541500000029, 51.75984949900004 ], [ 19.353545500000052, 51.763791999000034 ], [ 19.33755350000007, 51.767265499000075 ], [ 19.342511, 51.779445499000076 ], [ 19.335572500000069, 51.780471999000042 ], [ 19.337314500000048, 51.784072499000047 ], [ 19.339453, 51.784614499000043 ], [ 19.342233, 51.784925499000053 ], [ 19.347359, 51.784632499000054 ], [ 19.348905500000058, 51.784704999000041 ], [ 19.357273500000076, 51.792924499000037 ], [ 19.352697, 51.794474499000046 ], [ 19.348856, 51.795975499000065 ], [ 19.345508500000051, 51.797627499000043 ], [ 19.344683500000031, 51.798079499000039 ], [ 19.344430500000044, 51.798694999000077 ], [ 19.341994500000055, 51.800882999000066 ], [ 19.339945500000056, 51.800654999000074 ], [ 19.339163, 51.79632299900004 ], [ 19.329087, 51.795840499000064 ], [ 19.330122500000073, 51.801046499000051 ], [ 19.330113500000039, 51.801543999000046 ], [ 19.324119500000052, 51.801987999000062 ], [ 19.324851500000022, 51.805839499000058 ], [ 19.322178500000064, 51.805773499000054 ], [ 19.320876, 51.808070999000051 ], [ 19.323464, 51.80803449900003 ], [ 19.325477500000034, 51.807812499000079 ], [ 19.335549, 51.808040499000072 ], [ 19.337879500000042, 51.812406499000076 ], [ 19.34213950000003, 51.814152499000045 ], [ 19.341116, 51.815164499000048 ], [ 19.340964500000041, 51.816590499000029 ], [ 19.336688500000037, 51.81644699900005 ], [ 19.336625500000025, 51.820193999000026 ], [ 19.343765500000075, 51.820365499000047 ], [ 19.343589500000064, 51.830462999000076 ], [ 19.351475500000049, 51.829926999000065 ], [ 19.3519, 51.834969499000067 ], [ 19.34913750000004, 51.837524999000038 ], [ 19.351324, 51.838459499000066 ], [ 19.354820500000073, 51.835452499000041 ], [ 19.355223, 51.835416499000075 ], [ 19.357286, 51.835686999000075 ], [ 19.358196, 51.835484499000074 ], [ 19.360612, 51.835392999000078 ], [ 19.361986500000057, 51.835896499000057 ], [ 19.370335, 51.837121999000033 ], [ 19.373393500000077, 51.836779499000045 ], [ 19.373699500000043, 51.836883499000066 ], [ 19.374478500000066, 51.836938499000041 ], [ 19.375526, 51.836786999000026 ], [ 19.376587, 51.836880999000073 ], [ 19.37862, 51.837095499000043 ], [ 19.379867500000046, 51.836993999000072 ], [ 19.381142500000067, 51.837081999000077 ], [ 19.38280050000003, 51.83673249900005 ], [ 19.384426, 51.836191499000051 ], [ 19.383197500000051, 51.832401499000071 ], [ 19.383380500000044, 51.832086999000069 ], [ 19.383727500000077, 51.831654999000079 ], [ 19.382953, 51.830135999000049 ], [ 19.383236500000066, 51.829910999000049 ], [ 19.382660500000043, 51.828506499000071 ], [ 19.382882500000051, 51.828386499000032 ], [ 19.380759, 51.821634499000027 ], [ 19.381243500000039, 51.821485499000062 ], [ 19.382518, 51.822191499000041 ], [ 19.383759, 51.82360649900005 ], [ 19.384784500000023, 51.824135999000077 ], [ 19.387370500000031, 51.825928999000041 ], [ 19.396435, 51.826155499000038 ], [ 19.399077500000033, 51.829546999000058 ], [ 19.40078550000004, 51.829144499000051 ], [ 19.404574500000024, 51.828793499000028 ], [ 19.407623, 51.828197499000055 ], [ 19.410654, 51.828008999000076 ], [ 19.413829, 51.828445999000053 ], [ 19.423535500000071, 51.830922999000052 ], [ 19.424754500000063, 51.83111449900008 ], [ 19.429625500000043, 51.83115949900008 ], [ 19.432568, 51.831937999000047 ], [ 19.434238, 51.831994999000074 ], [ 19.436214500000062, 51.83229699900005 ], [ 19.436377, 51.833078999000065 ], [ 19.436949, 51.834050999000056 ], [ 19.44889, 51.835401999000055 ], [ 19.451097, 51.836021499000026 ], [ 19.455934, 51.836274999000068 ], [ 19.456352, 51.83743449900004 ], [ 19.456558, 51.839130999000076 ], [ 19.456764, 51.839666499000032 ], [ 19.455883500000027, 51.841661999000053 ], [ 19.454035, 51.842217499000071 ], [ 19.454642, 51.843117499000073 ], [ 19.455217, 51.843243999000038 ], [ 19.453985500000044, 51.845903999000029 ], [ 19.445451, 51.848887499000057 ], [ 19.445238, 51.850241499000049 ], [ 19.445324, 51.850452999000026 ], [ 19.457126500000072, 51.848681499000065 ], [ 19.490279, 51.859058499000071 ], [ 19.49111350000004, 51.859106499000063 ], [ 19.493614, 51.856543499000054 ], [ 19.504039, 51.859424499000056 ], [ 19.504185, 51.859229999000036 ], [ 19.50646850000004, 51.859918999000058 ], [ 19.506737, 51.859440499000073 ] ] ] } }
]
}
