{
"type": "FeatureCollection",
"name": "lublin",
"crs": { "type": "name", "properties": { "name": "urn:ogc:def:crs:OGC:1.3:CRS84" } },
"features": [
{ "type": "Feature", "properties": { }, "geometry": { "type": "Polygon", "coordinates": [ [ [ 22.638431500000024, 51.292752499000073 ], [ 22.637963, 51.292397999000059 ], [ 22.639589, 51.291634499000054 ], [ 22.641164, 51.292316999000036 ], [ 22.642467, 51.291696999000067 ], [ 22.642889500000024, 51.291625999000075 ], [ 22.643268500000033, 51.291801999000029 ], [ 22.644197500000075, 51.291135999000062 ], [ 22.645429500000034, 51.291022499000064 ], [ 22.646724500000062, 51.290563499000029 ], [ 22.647662, 51.289966999000058 ], [ 22.648138500000073, 51.290005999000073 ], [ 22.64731, 51.288837499000067 ], [ 22.647164, 51.288344499000061 ], [ 22.645947, 51.287698999000042 ], [ 22.647366, 51.286557999000081 ], [ 22.64889450000004, 51.285987499000043 ], [ 22.64908, 51.285842999000067 ], [ 22.649294500000053, 51.285184499000081 ], [ 22.650405500000033, 51.284594999000035 ], [ 22.647388500000034, 51.283785999000031 ], [ 22.643628500000034, 51.283408999000073 ], [ 22.640949, 51.282191999000077 ], [ 22.638573, 51.281876499000077 ], [ 22.637474, 51.280678499000032 ], [ 22.637482, 51.27971149900003 ], [ 22.63659750000005, 51.278989499000033 ], [ 22.63378350000005, 51.27714449900003 ], [ 22.631154500000036, 51.275937999000064 ], [ 22.63117950000003, 51.274227499000062 ], [ 22.630275, 51.273335499000041 ], [ 22.632818500000042, 51.271734999000046 ], [ 22.633341, 51.271267999000031 ], [ 22.6308, 51.270053999000027 ], [ 22.633376, 51.266926499000078 ], [ 22.633027500000026, 51.265874499000063 ], [ 22.632898500000067, 51.264752499000053 ], [ 22.632055, 51.264332999000032 ], [ 22.633569, 51.263246499000047 ], [ 22.634393, 51.262067999000067 ], [ 22.636492, 51.261010999000064 ], [ 22.637751500000036, 51.261061999000049 ], [ 22.638487500000053, 51.260577499000078 ], [ 22.639824500000032, 51.260015999000075 ], [ 22.642173, 51.259993999000073 ], [ 22.643282500000055, 51.259747499000071 ], [ 22.644240500000024, 51.259735499000044 ], [ 22.645120500000075, 51.259479999000064 ], [ 22.645346500000073, 51.259259499000052 ], [ 22.645239500000059, 51.259034499000052 ], [ 22.64587350000005, 51.25865249900005 ], [ 22.647627500000056, 51.258143499000028 ], [ 22.649093, 51.256942499000047 ], [ 22.64958850000005, 51.255401999000071 ], [ 22.650705500000072, 51.254979999000057 ], [ 22.652495500000043, 51.25494149900004 ], [ 22.652631, 51.255172999000081 ], [ 22.653812, 51.255250999000054 ], [ 22.654643, 51.25498649900004 ], [ 22.656321500000047, 51.254897499000037 ], [ 22.657454, 51.254477999000073 ], [ 22.658595, 51.253134499000055 ], [ 22.65996, 51.252789499000073 ], [ 22.660485, 51.252859999000066 ], [ 22.661029500000041, 51.25322649900005 ], [ 22.662778500000059, 51.25321849900007 ], [ 22.664103500000067, 51.25376699900005 ], [ 22.664708, 51.253645499000072 ], [ 22.665526, 51.253530999000077 ], [ 22.670734, 51.252825999000038 ], [ 22.670984, 51.253562499000054 ], [ 22.673542500000053, 51.253178499000057 ], [ 22.67167, 51.247978999000054 ], [ 22.666816500000039, 51.248662499000034 ], [ 22.664546, 51.242461499000058 ], [ 22.651824500000032, 51.24396899900006 ], [ 22.651814, 51.24289649900004 ], [ 22.652451, 51.241521999000042 ], [ 22.652629, 51.240344499000059 ], [ 22.653884500000061, 51.237130999000044 ], [ 22.654312, 51.234934499000076 ], [ 22.654137, 51.233273499000063 ], [ 22.654213500000026, 51.229575499000077 ], [ 22.653939, 51.227103999000065 ], [ 22.653949, 51.22546999900004 ], [ 22.653572500000053, 51.22342149900004 ], [ 22.652176, 51.220371499000066 ], [ 22.651371500000039, 51.216811499000073 ], [ 22.650906500000076, 51.215804499000058 ], [ 22.648502500000063, 51.214281499000037 ], [ 22.647900500000048, 51.214354999000079 ], [ 22.646495500000071, 51.214979499000037 ], [ 22.643282500000055, 51.214580999000077 ], [ 22.641479, 51.214206999000055 ], [ 22.638795500000072, 51.213971499000081 ], [ 22.634885, 51.213454499000079 ], [ 22.62781, 51.211928999000065 ], [ 22.623396, 51.211351999000044 ], [ 22.618549500000029, 51.210996999000031 ], [ 22.611966500000051, 51.209434499000054 ], [ 22.612857500000075, 51.204303499000048 ], [ 22.611847, 51.204152499000031 ], [ 22.612413, 51.20084599900008 ], [ 22.612879500000076, 51.200878999000054 ], [ 22.613192500000025, 51.199423499000034 ], [ 22.613626, 51.199446499000032 ], [ 22.613742500000058, 51.196828999000047 ], [ 22.617045500000074, 51.196463999000059 ], [ 22.621051, 51.195497999000054 ], [ 22.62224150000003, 51.19548099900004 ], [ 22.621390500000075, 51.194524499000067 ], [ 22.621163500000023, 51.19381899900003 ], [ 22.621265, 51.192585999000073 ], [ 22.621188, 51.190122999000039 ], [ 22.620825500000024, 51.190148499000031 ], [ 22.620765500000061, 51.189202499000032 ], [ 22.621006500000078, 51.187954499000057 ], [ 22.622848, 51.188214499000026 ], [ 22.624607, 51.188161999000044 ], [ 22.624396500000046, 51.187100499000053 ], [ 22.623541, 51.184861499000078 ], [ 22.62319350000007, 51.184329999000056 ], [ 22.622355500000026, 51.184428499000035 ], [ 22.621935500000063, 51.184187499000075 ], [ 22.621069500000033, 51.182801999000048 ], [ 22.619892, 51.179668999000057 ], [ 22.619668, 51.179514999000048 ], [ 22.616116, 51.179282999000066 ], [ 22.614101500000061, 51.179463499000065 ], [ 22.613830500000063, 51.178843999000037 ], [ 22.61246, 51.178967499000066 ], [ 22.607478, 51.178921999000067 ], [ 22.599444, 51.178693499000076 ], [ 22.599856, 51.17961499900008 ], [ 22.599954500000024, 51.180227499000068 ], [ 22.599179500000048, 51.181081999000071 ], [ 22.59732850000006, 51.18219349900005 ], [ 22.597051500000077, 51.18310199900003 ], [ 22.593816500000059, 51.183247499000061 ], [ 22.592918500000053, 51.182900999000026 ], [ 22.590262500000051, 51.181372999000075 ], [ 22.589257, 51.180469999000081 ], [ 22.589276, 51.180316499000071 ], [ 22.589484, 51.180270499000073 ], [ 22.589434, 51.179919999000049 ], [ 22.58884050000006, 51.17974749900003 ], [ 22.588607, 51.179742999000041 ], [ 22.588095500000065, 51.179760499000054 ], [ 22.58759, 51.179359999000042 ], [ 22.587872, 51.178190499000038 ], [ 22.588264500000037, 51.177610499000082 ], [ 22.588793, 51.177567499000077 ], [ 22.588927500000068, 51.177131499000041 ], [ 22.588892500000043, 51.176488999000071 ], [ 22.58819150000005, 51.175745999000071 ], [ 22.589079, 51.175426999000081 ], [ 22.588239, 51.174390999000082 ], [ 22.587458, 51.174567999000033 ], [ 22.585466, 51.174692499000059 ], [ 22.585391, 51.174201499000048 ], [ 22.578131, 51.174581999000054 ], [ 22.578382, 51.176903999000046 ], [ 22.554089500000032, 51.176522499000043 ], [ 22.554297500000075, 51.176137999000048 ], [ 22.554365500000074, 51.175053499000057 ], [ 22.554191, 51.173062499000082 ], [ 22.55435, 51.169475999000042 ], [ 22.554269500000032, 51.166016999000078 ], [ 22.554496500000027, 51.163194999000041 ], [ 22.554398500000048, 51.16259799900007 ], [ 22.554777, 51.160679999000081 ], [ 22.554878, 51.157750999000029 ], [ 22.554506, 51.156112999000072 ], [ 22.554297, 51.154323499000043 ], [ 22.554433500000073, 51.154034999000032 ], [ 22.554924500000027, 51.148681499000077 ], [ 22.554083500000047, 51.14850799900006 ], [ 22.546070500000042, 51.14876749900003 ], [ 22.543037, 51.148696999000038 ], [ 22.541670500000066, 51.148512999000047 ], [ 22.534804, 51.148877499000037 ], [ 22.535085500000037, 51.146768499000075 ], [ 22.509478, 51.146818999000061 ], [ 22.508087, 51.145581499000059 ], [ 22.506466, 51.144600499000035 ], [ 22.505902500000047, 51.144086499000082 ], [ 22.50484, 51.142415999000036 ], [ 22.504427500000077, 51.141147499000056 ], [ 22.50446450000004, 51.140701499000045 ], [ 22.503052500000024, 51.140783999000064 ], [ 22.499856500000078, 51.140359499000056 ], [ 22.498484500000075, 51.140504999000029 ], [ 22.496133, 51.13980949900008 ], [ 22.495667500000025, 51.140060499000072 ], [ 22.494867, 51.14009149900005 ], [ 22.494710500000053, 51.139959999000041 ], [ 22.493870500000071, 51.140217999000072 ], [ 22.493457500000034, 51.141244499000038 ], [ 22.493106, 51.141480999000066 ], [ 22.48888850000003, 51.142642499000033 ], [ 22.485430500000064, 51.143201499000043 ], [ 22.484227, 51.14393749900006 ], [ 22.478418500000032, 51.148921499000039 ], [ 22.478441, 51.149291499000071 ], [ 22.4791, 51.149814499000058 ], [ 22.479429500000037, 51.150312499000052 ], [ 22.479592, 51.15093949900006 ], [ 22.47877550000004, 51.151084999000034 ], [ 22.477949500000022, 51.152037499000073 ], [ 22.477898, 51.152174499000068 ], [ 22.478365, 51.152786499000058 ], [ 22.476705500000037, 51.153983499000049 ], [ 22.475495500000022, 51.155696999000043 ], [ 22.472079, 51.158453999000074 ], [ 22.471380500000066, 51.158869999000046 ], [ 22.487182, 51.169265499000062 ], [ 22.484072, 51.171127999000078 ], [ 22.495949, 51.178924499000061 ], [ 22.495652, 51.17910499900006 ], [ 22.497764500000073, 51.180405499000074 ], [ 22.497062, 51.180839499000058 ], [ 22.497726500000056, 51.181273999000041 ], [ 22.502913500000034, 51.17809199900006 ], [ 22.515908500000023, 51.186491499000056 ], [ 22.484979, 51.205358999000055 ], [ 22.486501500000031, 51.205562499000052 ], [ 22.487807, 51.206017999000039 ], [ 22.489851, 51.206248999000081 ], [ 22.49074550000006, 51.206533999000044 ], [ 22.49202, 51.206713999000044 ], [ 22.495152500000074, 51.207456499000045 ], [ 22.495801500000027, 51.207795999000041 ], [ 22.496680500000025, 51.208816999000078 ], [ 22.496712500000058, 51.209693499000082 ], [ 22.497319, 51.210393499000077 ], [ 22.497771, 51.210538499000052 ], [ 22.498291, 51.211162999000067 ], [ 22.498786500000051, 51.211356999000031 ], [ 22.499529500000051, 51.212019999000063 ], [ 22.500740500000063, 51.212485499000081 ], [ 22.502046, 51.212790999000049 ], [ 22.501108500000043, 51.217396499000074 ], [ 22.49999, 51.217551499000081 ], [ 22.496881, 51.217524999000034 ], [ 22.49593550000003, 51.217260499000076 ], [ 22.494862, 51.217155999000056 ], [ 22.492288500000029, 51.217150999000069 ], [ 22.487779, 51.216748499000062 ], [ 22.48778150000004, 51.216591999000059 ], [ 22.485189500000047, 51.21644199900004 ], [ 22.482059, 51.215655499000036 ], [ 22.482185500000071, 51.21548849900006 ], [ 22.478281500000037, 51.214025999000057 ], [ 22.478125, 51.214189999000041 ], [ 22.475331500000038, 51.213340499000026 ], [ 22.470657500000073, 51.212741999000059 ], [ 22.466015500000026, 51.212716499000067 ], [ 22.461432500000058, 51.213216499000055 ], [ 22.454282, 51.214758499000027 ], [ 22.454303500000037, 51.215138999000033 ], [ 22.455781, 51.216606499000079 ], [ 22.457165, 51.217495499000051 ], [ 22.456792, 51.217713999000068 ], [ 22.463038500000039, 51.221785499000077 ], [ 22.481505500000026, 51.231150999000079 ], [ 22.481332500000065, 51.231286999000076 ], [ 22.470119500000067, 51.231000999000059 ], [ 22.467511500000057, 51.23106049900008 ], [ 22.465846500000055, 51.230802999000048 ], [ 22.463683, 51.230751499000064 ], [ 22.462098500000025, 51.230523499000071 ], [ 22.462142, 51.23073449900005 ], [ 22.463255500000059, 51.230907499000068 ], [ 22.463402500000029, 51.23120749900005 ], [ 22.462471500000049, 51.232458999000073 ], [ 22.462691500000062, 51.233909999000048 ], [ 22.46338650000007, 51.234471499000051 ], [ 22.463617500000055, 51.235129499000038 ], [ 22.46452, 51.235471499000028 ], [ 22.465393500000062, 51.236210499000038 ], [ 22.465404500000034, 51.23645699900004 ], [ 22.466018, 51.236835499000051 ], [ 22.471154, 51.238531999000031 ], [ 22.473869500000035, 51.238979999000037 ], [ 22.47938350000004, 51.240319499000066 ], [ 22.479761500000052, 51.240549999000052 ], [ 22.479689500000063, 51.240619999000046 ], [ 22.480377, 51.241702499000041 ], [ 22.481356, 51.24212699900005 ], [ 22.481673, 51.242613499000072 ], [ 22.484052, 51.243512499000076 ], [ 22.48382950000007, 51.246814499000038 ], [ 22.484503, 51.246878999000046 ], [ 22.486727500000029, 51.25544749900007 ], [ 22.481057500000077, 51.254769999000075 ], [ 22.47562350000004, 51.254608999000027 ], [ 22.468416500000046, 51.255352499000026 ], [ 22.46609, 51.255381999000065 ], [ 22.466949500000055, 51.260172499000078 ], [ 22.468138500000066, 51.263431499000035 ], [ 22.471266, 51.266194999000049 ], [ 22.47382250000004, 51.266526499000065 ], [ 22.473883, 51.26667799900008 ], [ 22.474757500000067, 51.266860999000073 ], [ 22.475453500000071, 51.266845999000054 ], [ 22.476259, 51.26646099900006 ], [ 22.484938, 51.274807999000075 ], [ 22.485953, 51.277090499000053 ], [ 22.487764500000026, 51.276084999000034 ], [ 22.488822500000026, 51.275287999000057 ], [ 22.49161, 51.273814499000082 ], [ 22.494928, 51.272678499000051 ], [ 22.496586500000035, 51.271667999000044 ], [ 22.496632, 51.27185649900008 ], [ 22.497794500000055, 51.271209999000064 ], [ 22.498699500000043, 51.271237499000051 ], [ 22.499729, 51.271903499000075 ], [ 22.49978, 51.272392999000033 ], [ 22.500005, 51.272816999000042 ], [ 22.500585500000057, 51.272759999000073 ], [ 22.500696, 51.272990499000059 ], [ 22.498171, 51.27330549900006 ], [ 22.496749500000078, 51.273713999000051 ], [ 22.494793, 51.274045999000066 ], [ 22.494605500000034, 51.274668999000028 ], [ 22.494035, 51.275207999000031 ], [ 22.493739, 51.27614599900005 ], [ 22.494114, 51.276707999000052 ], [ 22.49417950000003, 51.277412499000036 ], [ 22.494935, 51.278145499000061 ], [ 22.494909, 51.278337499000031 ], [ 22.492835500000069, 51.281576999000038 ], [ 22.493913, 51.285010999000065 ], [ 22.496078, 51.284237999000027 ], [ 22.498652, 51.283701999000073 ], [ 22.500522500000045, 51.28360899900008 ], [ 22.511246500000027, 51.285558999000045 ], [ 22.513230500000077, 51.285457499000074 ], [ 22.517568, 51.285540999000034 ], [ 22.520741500000042, 51.28595049900008 ], [ 22.521227, 51.285915499000055 ], [ 22.522364500000037, 51.28613849900006 ], [ 22.522417500000074, 51.284634999000048 ], [ 22.524280500000032, 51.284668499000077 ], [ 22.527262, 51.285290499000041 ], [ 22.531279500000039, 51.285824499000057 ], [ 22.536482500000034, 51.28508849900004 ], [ 22.537868, 51.284758999000076 ], [ 22.539986, 51.284693999000069 ], [ 22.543210500000043, 51.283835499000077 ], [ 22.54423, 51.28338799900007 ], [ 22.54481, 51.282959499000071 ], [ 22.546258, 51.282787499000051 ], [ 22.548414500000035, 51.282176499000059 ], [ 22.548499, 51.283394999000052 ], [ 22.548068500000056, 51.284413999000037 ], [ 22.556700500000034, 51.285438999000064 ], [ 22.563563, 51.285460499000067 ], [ 22.566465500000049, 51.28582349900006 ], [ 22.571238500000049, 51.286010499000042 ], [ 22.581091, 51.284489499000074 ], [ 22.58286, 51.284629499000062 ], [ 22.586527, 51.285430499000029 ], [ 22.588678500000071, 51.285962999000049 ], [ 22.590312500000039, 51.286028499000054 ], [ 22.591071, 51.285543999000026 ], [ 22.591130500000077, 51.28405949900008 ], [ 22.591265500000077, 51.283660999000062 ], [ 22.591504, 51.283467999000038 ], [ 22.594811500000048, 51.282842999000081 ], [ 22.595576, 51.282907999000031 ], [ 22.59589, 51.282812499000045 ], [ 22.596152, 51.282332999000062 ], [ 22.596665, 51.282070999000041 ], [ 22.599017, 51.281774499000051 ], [ 22.60010950000003, 51.28113249900008 ], [ 22.601128, 51.280872999000053 ], [ 22.603578500000026, 51.280758499000058 ], [ 22.604732, 51.280596499000069 ], [ 22.605704, 51.280924999000035 ], [ 22.606494500000053, 51.281532499000036 ], [ 22.608273, 51.282090499000049 ], [ 22.610417, 51.281562999000073 ], [ 22.611548, 51.281501499000058 ], [ 22.612524, 51.281642999000042 ], [ 22.613611500000047, 51.282024499000045 ], [ 22.613449, 51.282879999000045 ], [ 22.618467, 51.287783499000057 ], [ 22.618641500000024, 51.287872499000059 ], [ 22.620856, 51.287062999000057 ], [ 22.62263850000005, 51.288420999000039 ], [ 22.62287850000007, 51.288296999000067 ], [ 22.62621850000005, 51.290681499000073 ], [ 22.627035500000034, 51.291606999000066 ], [ 22.627364500000056, 51.29247699900003 ], [ 22.627380500000072, 51.293349499000044 ], [ 22.626922, 51.294058499000073 ], [ 22.630105, 51.296559499000068 ], [ 22.638431500000024, 51.292752499000073 ] ] ] } }
]
}
