{
"type": "FeatureCollection",
"name": "nicosia",
"crs": { "type": "name", "properties": { "name": "urn:ogc:def:crs:OGC:1.3:CRS84" } },
"features": [
{ "type": "Feature", "properties": { }, "geometry": { "type": "Polygon", "coordinates": [ [ [ 33.321649, 35.234841999000025 ], [ 33.32168450000006, 35.234620499000073 ], [ 33.32442, 35.234799999000074 ], [ 33.324809, 35.234488499000065 ], [ 33.326134, 35.234749499000031 ], [ 33.326486, 35.234645999000065 ], [ 33.326185, 35.234365499000035 ], [ 33.325628, 35.234266999000056 ], [ 33.325592, 35.234077999000078 ], [ 33.325875, 35.23304549900007 ], [ 33.325322, 35.231880999000055 ], [ 33.325773500000025, 35.230507499000055 ], [ 33.326083, 35.230159499000024 ], [ 33.326376, 35.230265499000041 ], [ 33.326586500000076, 35.230354499000043 ], [ 33.328175500000043, 35.230115499000078 ], [ 33.329341, 35.22997299900004 ], [ 33.329787, 35.230154499000037 ], [ 33.330244500000049, 35.230636999000069 ], [ 33.330725500000028, 35.22999549900004 ], [ 33.331395, 35.229427999000052 ], [ 33.332165500000031, 35.229102499000078 ], [ 33.332496, 35.228558999000029 ], [ 33.331970500000068, 35.228357999000025 ], [ 33.332204, 35.226412999000047 ], [ 33.333038, 35.224402499000064 ], [ 33.332970500000044, 35.223312499000031 ], [ 33.33276950000004, 35.223267999000029 ], [ 33.332801500000073, 35.222652999000047 ], [ 33.336957, 35.223209999000062 ], [ 33.337445, 35.222963499000059 ], [ 33.337892, 35.222939999000062 ], [ 33.340295, 35.223237999000048 ], [ 33.34051850000003, 35.223463499000047 ], [ 33.340474, 35.223903499000073 ], [ 33.340672, 35.224128499000074 ], [ 33.342035, 35.224465999000074 ], [ 33.342008500000077, 35.226130499000078 ], [ 33.344653, 35.225913999000056 ], [ 33.345579500000042, 35.225433499000076 ], [ 33.347176, 35.22498949900006 ], [ 33.348508, 35.224804999000071 ], [ 33.349492, 35.224762499000065 ], [ 33.352664, 35.224206999000046 ], [ 33.352637, 35.223810499000024 ], [ 33.3528, 35.223273499000072 ], [ 33.353034, 35.222847999000066 ], [ 33.353668500000026, 35.222398999000063 ], [ 33.354419, 35.222150999000064 ], [ 33.354619, 35.221854999000072 ], [ 33.354538500000046, 35.221238999000036 ], [ 33.353943500000071, 35.220421499000054 ], [ 33.351476500000047, 35.220204499000033 ], [ 33.351492500000063, 35.21976599900006 ], [ 33.351711500000079, 35.219326499000033 ], [ 33.353058, 35.219388499000047 ], [ 33.353067500000066, 35.219100999000034 ], [ 33.353001, 35.218944499000031 ], [ 33.351938, 35.218477499000073 ], [ 33.352269, 35.217197499000065 ], [ 33.351229, 35.217177999000057 ], [ 33.350835, 35.216145499000049 ], [ 33.350711500000045, 35.215142499000024 ], [ 33.351507500000025, 35.215077499000074 ], [ 33.352714500000047, 35.215534999000056 ], [ 33.353367500000047, 35.21519949900005 ], [ 33.353454500000055, 35.21482099900004 ], [ 33.354691, 35.21488049900006 ], [ 33.355111, 35.214748499000052 ], [ 33.354944500000045, 35.214254499000049 ], [ 33.354686500000071, 35.213916999000048 ], [ 33.354239500000062, 35.21367649900003 ], [ 33.354258500000071, 35.213552499000059 ], [ 33.354399500000056, 35.213301999000066 ], [ 33.354945, 35.212734999000077 ], [ 33.355755, 35.213038999000048 ], [ 33.355888, 35.212645499000075 ], [ 33.355029500000057, 35.212278999000034 ], [ 33.354706, 35.211952999000061 ], [ 33.354652, 35.211216999000044 ], [ 33.355269500000077, 35.210542499000042 ], [ 33.355711, 35.210406999000043 ], [ 33.356659, 35.21016449900003 ], [ 33.357686, 35.21010349900007 ], [ 33.357587, 35.210395499000072 ], [ 33.357662, 35.211703999000065 ], [ 33.357908500000065, 35.212690499000075 ], [ 33.358408500000053, 35.213752499000066 ], [ 33.358127, 35.215232499000024 ], [ 33.358512500000074, 35.217400499000064 ], [ 33.358582, 35.218744499000024 ], [ 33.359407500000032, 35.218701499000076 ], [ 33.360085500000025, 35.218705999000065 ], [ 33.362021, 35.21873449900005 ], [ 33.362046, 35.219087499000068 ], [ 33.361898500000052, 35.219247999000061 ], [ 33.362046500000076, 35.219385999000053 ], [ 33.366444, 35.219756499000027 ], [ 33.366933, 35.220092499000032 ], [ 33.367169500000045, 35.219892499000025 ], [ 33.367044, 35.218756499000051 ], [ 33.36663150000004, 35.21771349900007 ], [ 33.366448500000047, 35.217646499000068 ], [ 33.366444, 35.21718099900005 ], [ 33.367257, 35.216861999000059 ], [ 33.367302, 35.216512999000031 ], [ 33.367037500000038, 35.215966499000046 ], [ 33.36694, 35.215843999000072 ], [ 33.365292500000066, 35.215521999000032 ], [ 33.364775500000064, 35.215818999000078 ], [ 33.364224, 35.215753999000071 ], [ 33.363333, 35.215147999000067 ], [ 33.363623500000074, 35.213374999000052 ], [ 33.36267, 35.213453499000025 ], [ 33.362491, 35.212577999000075 ], [ 33.364032, 35.212480999000036 ], [ 33.364337, 35.212054499000033 ], [ 33.36430050000007, 35.21119599900004 ], [ 33.363868500000024, 35.211108999000032 ], [ 33.364319, 35.210457999000027 ], [ 33.365137, 35.210281999000074 ], [ 33.365461500000038, 35.209363999000061 ], [ 33.364828, 35.209074499000053 ], [ 33.365563500000064, 35.20825049900003 ], [ 33.366019, 35.207815499000048 ], [ 33.366164, 35.206174499000042 ], [ 33.367310500000031, 35.206187499000066 ], [ 33.368322500000033, 35.20754849900004 ], [ 33.368828, 35.207992499000056 ], [ 33.369727500000067, 35.208511999000052 ], [ 33.370922500000063, 35.208795499000075 ], [ 33.371022, 35.208673999000041 ], [ 33.37083350000006, 35.208096999000077 ], [ 33.370935, 35.206791499000076 ], [ 33.370533500000079, 35.205869999000072 ], [ 33.37179, 35.204753499000049 ], [ 33.374174500000038, 35.204722999000069 ], [ 33.374969, 35.206925499000079 ], [ 33.375111, 35.207856999000057 ], [ 33.37561050000005, 35.208285499000056 ], [ 33.376386500000024, 35.208388999000078 ], [ 33.376461, 35.208977999000069 ], [ 33.376144, 35.20996849900007 ], [ 33.374562500000025, 35.210627999000053 ], [ 33.375222500000064, 35.211177999000029 ], [ 33.376123500000062, 35.210989999000049 ], [ 33.376196500000049, 35.210844999000074 ], [ 33.378535500000055, 35.210674999000048 ], [ 33.378529, 35.210866999000075 ], [ 33.379255500000056, 35.210972999000035 ], [ 33.380019, 35.209081499000035 ], [ 33.380309500000067, 35.209073999000054 ], [ 33.380476, 35.210518499000045 ], [ 33.382722500000057, 35.210343999000031 ], [ 33.383045500000037, 35.211677499000075 ], [ 33.383039500000052, 35.212234999000032 ], [ 33.383796500000074, 35.212162499000044 ], [ 33.384507, 35.211557499000037 ], [ 33.386159, 35.211247999000079 ], [ 33.387167500000032, 35.21115099900004 ], [ 33.388653500000032, 35.211316999000076 ], [ 33.389037500000029, 35.211215999000046 ], [ 33.389580500000079, 35.209929499000054 ], [ 33.389923, 35.209523999000055 ], [ 33.39031650000004, 35.209784499000079 ], [ 33.391033, 35.209934999000041 ], [ 33.392435, 35.209619499000041 ], [ 33.392196, 35.208779999000058 ], [ 33.39183950000006, 35.208368999000072 ], [ 33.39254950000003, 35.207870999000079 ], [ 33.393837, 35.207109999000068 ], [ 33.396159500000067, 35.20711699900005 ], [ 33.39610650000003, 35.207666999000025 ], [ 33.397844500000076, 35.207856999000057 ], [ 33.397947500000043, 35.207537499000068 ], [ 33.398238500000048, 35.20704149900007 ], [ 33.39864, 35.205402499000058 ], [ 33.402702, 35.205713999000068 ], [ 33.403028, 35.20500449900004 ], [ 33.403772, 35.205226999000047 ], [ 33.404447, 35.204927499000064 ], [ 33.40471, 35.204380499000024 ], [ 33.405728500000066, 35.204607999000075 ], [ 33.405904500000076, 35.204521999000065 ], [ 33.406013500000029, 35.204215999000041 ], [ 33.406326, 35.204078999000046 ], [ 33.407485, 35.204239499000039 ], [ 33.408502, 35.20413049900003 ], [ 33.409442500000068, 35.203860499000029 ], [ 33.41228, 35.203489499000057 ], [ 33.414366, 35.202255999000045 ], [ 33.414948, 35.201609499000028 ], [ 33.415501500000062, 35.201418999000055 ], [ 33.415913, 35.201422999000044 ], [ 33.416692, 35.201538499000037 ], [ 33.417198, 35.201274999000077 ], [ 33.418438500000036, 35.201546499000074 ], [ 33.419186500000023, 35.200954999000032 ], [ 33.419613, 35.200308499000073 ], [ 33.419958500000064, 35.199621999000044 ], [ 33.420103500000039, 35.198499999000035 ], [ 33.422300500000063, 35.197419499000034 ], [ 33.423510500000077, 35.19614849900006 ], [ 33.424557500000049, 35.195772499000043 ], [ 33.426805500000057, 35.194401499000037 ], [ 33.427059, 35.194378499000038 ], [ 33.428564, 35.194951999000068 ], [ 33.428931500000033, 35.19570199900005 ], [ 33.429216500000052, 35.198608999000044 ], [ 33.43129, 35.197271999000066 ], [ 33.434075, 35.196667499000057 ], [ 33.438310500000057, 35.196537999000043 ], [ 33.442088, 35.19704499900007 ], [ 33.44428750000003, 35.19568749900003 ], [ 33.444108, 35.194849499000043 ], [ 33.443935500000066, 35.194444499000042 ], [ 33.443778500000064, 35.194299499000067 ], [ 33.443013500000063, 35.194150999000044 ], [ 33.442855, 35.193291999000053 ], [ 33.443677500000035, 35.193359999000052 ], [ 33.446078500000056, 35.193974499000035 ], [ 33.447508500000026, 35.193883499000037 ], [ 33.44822, 35.19449699900008 ], [ 33.44868450000007, 35.194649499000036 ], [ 33.451279, 35.194884999000067 ], [ 33.452875500000061, 35.195178999000063 ], [ 33.454555500000026, 35.195026499000051 ], [ 33.454916500000024, 35.195070499000053 ], [ 33.455347500000073, 35.195219999000074 ], [ 33.457062500000063, 35.194861499000069 ], [ 33.45754850000003, 35.194588999000075 ], [ 33.458628, 35.194614999000066 ], [ 33.460003, 35.194312999000033 ], [ 33.460815, 35.19436199900008 ], [ 33.461505, 35.194702999000071 ], [ 33.461128500000029, 35.192016999000032 ], [ 33.461443, 35.190988999000069 ], [ 33.462209, 35.19137949900005 ], [ 33.463601, 35.191407999000035 ], [ 33.463879, 35.191317499000036 ], [ 33.464426, 35.190783499000077 ], [ 33.464802, 35.19006949900006 ], [ 33.466936, 35.190127499000027 ], [ 33.468259500000045, 35.190361999000061 ], [ 33.469059, 35.190011499000036 ], [ 33.469849500000066, 35.190085999000075 ], [ 33.470185500000071, 35.189882499000078 ], [ 33.470812500000079, 35.189774999000065 ], [ 33.47205450000007, 35.18992399900003 ], [ 33.473613500000056, 35.189337999000031 ], [ 33.474703, 35.189828499000043 ], [ 33.47488, 35.188115999000047 ], [ 33.474734500000068, 35.186243499000057 ], [ 33.474800500000072, 35.185776999000041 ], [ 33.474205500000039, 35.184606999000039 ], [ 33.474472500000047, 35.183718999000064 ], [ 33.474224, 35.183606499000064 ], [ 33.473779500000035, 35.184056999000063 ], [ 33.472952500000076, 35.18385949900005 ], [ 33.472547, 35.183474499000056 ], [ 33.471974500000044, 35.183623499000078 ], [ 33.471459, 35.18369799900006 ], [ 33.470513500000038, 35.183116999000049 ], [ 33.469920500000057, 35.182504499000061 ], [ 33.469972, 35.181793999000035 ], [ 33.46979250000004, 35.181376999000065 ], [ 33.468887500000051, 35.180588499000066 ], [ 33.468814500000065, 35.178940999000076 ], [ 33.469402, 35.177953999000067 ], [ 33.469971500000042, 35.178033999000036 ], [ 33.470188, 35.177911999000059 ], [ 33.47028350000005, 35.177595499000063 ], [ 33.470293, 35.176446999000063 ], [ 33.467523, 35.174306999000066 ], [ 33.467224, 35.173556499000028 ], [ 33.466894, 35.172727999000074 ], [ 33.466692, 35.172096999000075 ], [ 33.465858500000024, 35.171459999000035 ], [ 33.465013500000055, 35.170382999000026 ], [ 33.463957, 35.169347499000025 ], [ 33.463629500000025, 35.169317999000043 ], [ 33.462775, 35.167181499000037 ], [ 33.462063, 35.166911999000035 ], [ 33.461994, 35.166754999000034 ], [ 33.46379550000006, 35.166536999000073 ], [ 33.465936500000055, 35.165816999000072 ], [ 33.470377500000041, 35.165290499000037 ], [ 33.472409, 35.164448499000059 ], [ 33.472223, 35.164003499000046 ], [ 33.473323, 35.161745999000061 ], [ 33.473107500000026, 35.161319999000057 ], [ 33.472919500000046, 35.160339499000031 ], [ 33.472948, 35.159999999000036 ], [ 33.473162500000058, 35.159764499000062 ], [ 33.473613500000056, 35.159474499000055 ], [ 33.47449, 35.158319499000072 ], [ 33.474263500000063, 35.158030999000061 ], [ 33.474049, 35.157099999000025 ], [ 33.475135, 35.15626749900008 ], [ 33.475231, 35.155877499000042 ], [ 33.475168, 35.155707499000073 ], [ 33.474575, 35.155390999000076 ], [ 33.472311, 35.156343999000057 ], [ 33.472207, 35.155617499000073 ], [ 33.47292850000008, 35.154904999000053 ], [ 33.474022, 35.154315999000062 ], [ 33.473719500000072, 35.153746999000077 ], [ 33.473196, 35.153924499000027 ], [ 33.472749500000077, 35.153598999000053 ], [ 33.471877500000062, 35.152919499000063 ], [ 33.471768500000053, 35.152281499000026 ], [ 33.472043, 35.151426499000024 ], [ 33.471090500000059, 35.151212999000052 ], [ 33.471646500000077, 35.150453999000035 ], [ 33.471918500000072, 35.149072999000055 ], [ 33.472331500000053, 35.148186499000076 ], [ 33.472761500000047, 35.147465499000077 ], [ 33.47344, 35.14618099900008 ], [ 33.473424, 35.145579499000064 ], [ 33.472662500000069, 35.144712499000036 ], [ 33.471592500000042, 35.14454549900006 ], [ 33.471211500000038, 35.144679999000061 ], [ 33.471227, 35.145120999000028 ], [ 33.468844, 35.145429999000044 ], [ 33.468704500000058, 35.145185999000034 ], [ 33.469325500000025, 35.144717499000024 ], [ 33.468725, 35.143039499000054 ], [ 33.467684500000075, 35.143086999000047 ], [ 33.467078, 35.142936499000029 ], [ 33.467716, 35.142354999000077 ], [ 33.468225500000074, 35.142320999000049 ], [ 33.468128500000034, 35.14063199900005 ], [ 33.468488500000035, 35.14054599900004 ], [ 33.468343, 35.139159999000071 ], [ 33.466487500000028, 35.139636999000061 ], [ 33.46588550000007, 35.137694499000077 ], [ 33.464780500000074, 35.137841499000046 ], [ 33.464280500000029, 35.136255499000072 ], [ 33.46439950000007, 35.136021499000037 ], [ 33.465296500000079, 35.135735999000076 ], [ 33.465128500000048, 35.134958499000049 ], [ 33.468139500000063, 35.134651999000027 ], [ 33.470918500000039, 35.134901999000078 ], [ 33.471974500000044, 35.134745999000074 ], [ 33.471635500000048, 35.133797499000025 ], [ 33.471304, 35.133958999000072 ], [ 33.47112050000004, 35.133813499000041 ], [ 33.470624500000042, 35.132887499000049 ], [ 33.469771500000036, 35.132678499000065 ], [ 33.469146500000079, 35.132656999000062 ], [ 33.468503500000054, 35.132663999000044 ], [ 33.467872500000055, 35.132855499000073 ], [ 33.467775500000073, 35.132373499000039 ], [ 33.468454, 35.132209499000055 ], [ 33.467748500000027, 35.13092799900005 ], [ 33.46704150000005, 35.130470499000069 ], [ 33.46667750000006, 35.130352999000024 ], [ 33.465395, 35.130149999000025 ], [ 33.465791, 35.130764999000064 ], [ 33.465211500000066, 35.130863999000042 ], [ 33.464584, 35.130720499000063 ], [ 33.464405500000055, 35.129537999000036 ], [ 33.464501, 35.128159999000047 ], [ 33.465479500000072, 35.127535499000032 ], [ 33.466480500000046, 35.128261499000075 ], [ 33.467361500000038, 35.128561999000055 ], [ 33.470569, 35.129095499000073 ], [ 33.470308, 35.129438499000059 ], [ 33.471199500000068, 35.130294499000058 ], [ 33.472931500000072, 35.130827499000077 ], [ 33.47441450000008, 35.131225999000037 ], [ 33.475276500000064, 35.131365499000026 ], [ 33.475208500000065, 35.131023499000037 ], [ 33.477496, 35.130707499000039 ], [ 33.478696, 35.130323499000042 ], [ 33.479103500000065, 35.129664499000057 ], [ 33.480619, 35.12910449900005 ], [ 33.47984850000006, 35.128326499000025 ], [ 33.478975500000047, 35.128746999000043 ], [ 33.477624500000047, 35.129149999000049 ], [ 33.47697, 35.12825699900003 ], [ 33.476161, 35.128593999000032 ], [ 33.474978500000077, 35.128693999000063 ], [ 33.47506750000008, 35.12818549900004 ], [ 33.46924, 35.126300499000024 ], [ 33.468485, 35.125818999000046 ], [ 33.46915, 35.124812999000028 ], [ 33.468799, 35.124099499000067 ], [ 33.46921, 35.123827999000071 ], [ 33.470006, 35.12334099900005 ], [ 33.470914, 35.122882999000069 ], [ 33.471633, 35.123302499000033 ], [ 33.47294050000005, 35.12287599900003 ], [ 33.472809, 35.12188799900008 ], [ 33.472234, 35.121050999000033 ], [ 33.470599, 35.121325499000079 ], [ 33.469838, 35.120848999000032 ], [ 33.469267500000058, 35.11882349900003 ], [ 33.467924, 35.117676999000025 ], [ 33.467612, 35.11769749900003 ], [ 33.466672, 35.117977999000061 ], [ 33.465853500000037, 35.117779499000051 ], [ 33.464769, 35.117938999000046 ], [ 33.462658, 35.117915499000048 ], [ 33.460653500000035, 35.116911499000025 ], [ 33.460091, 35.116340999000045 ], [ 33.459313, 35.115450999000075 ], [ 33.458335500000032, 35.114666999000065 ], [ 33.456865500000049, 35.113123499000039 ], [ 33.455393500000071, 35.111977499000034 ], [ 33.45536450000003, 35.111808999000061 ], [ 33.457712, 35.11040949900007 ], [ 33.461097500000051, 35.106245499000067 ], [ 33.462752, 35.104424999000059 ], [ 33.462923500000045, 35.103914499000041 ], [ 33.462340500000039, 35.098028999000064 ], [ 33.462617500000079, 35.096384499000067 ], [ 33.462505500000077, 35.095981499000061 ], [ 33.461609, 35.094827499000075 ], [ 33.461437, 35.094827999000074 ], [ 33.460523500000079, 35.095538499000043 ], [ 33.459625500000072, 35.095893999000054 ], [ 33.459228500000052, 35.095977499000071 ], [ 33.458948500000076, 35.095413999000073 ], [ 33.45847, 35.095581499000048 ], [ 33.458253, 35.095254499000077 ], [ 33.458808, 35.09509599900008 ], [ 33.458207, 35.093875499000035 ], [ 33.457707500000026, 35.09400449900005 ], [ 33.457316500000047, 35.092796499000031 ], [ 33.457774, 35.092694499000061 ], [ 33.458064, 35.092607499000053 ], [ 33.457507500000077, 35.092313499000056 ], [ 33.455995, 35.092167999000026 ], [ 33.453909500000066, 35.092600999000069 ], [ 33.454219, 35.093189499000061 ], [ 33.453769, 35.093394999000054 ], [ 33.45265, 35.093092499000079 ], [ 33.452021500000058, 35.092672999000058 ], [ 33.4527, 35.092156999000053 ], [ 33.451812500000074, 35.091509999000039 ], [ 33.451552500000048, 35.091653499000074 ], [ 33.45110950000003, 35.091146499000047 ], [ 33.45223, 35.090376999000057 ], [ 33.45401650000008, 35.090136999000038 ], [ 33.453824500000053, 35.089916999000025 ], [ 33.453066, 35.089733999000032 ], [ 33.451262, 35.089813999000057 ], [ 33.451118500000064, 35.090029999000024 ], [ 33.450442500000065, 35.090049499000031 ], [ 33.449809500000072, 35.089526499000044 ], [ 33.448943500000041, 35.088783499000044 ], [ 33.44841, 35.088601999000048 ], [ 33.441515500000037, 35.088845999000057 ], [ 33.440876500000059, 35.089450999000064 ], [ 33.440128500000071, 35.089029499000048 ], [ 33.439779, 35.089415999000039 ], [ 33.440314, 35.089705999000046 ], [ 33.439869500000043, 35.089797999000041 ], [ 33.439097500000059, 35.089120999000045 ], [ 33.438034500000072, 35.087806499000067 ], [ 33.437337, 35.086532499000043 ], [ 33.437646, 35.085630499000047 ], [ 33.437539, 35.08487149900003 ], [ 33.437404, 35.084553499000037 ], [ 33.436825500000054, 35.084963499000025 ], [ 33.436427500000036, 35.08501749900006 ], [ 33.435773500000039, 35.083976499000073 ], [ 33.435376500000075, 35.083334499000046 ], [ 33.435099500000035, 35.08284149900004 ], [ 33.435197, 35.082186499000045 ], [ 33.435315, 35.081727999000066 ], [ 33.435413500000038, 35.081109499000036 ], [ 33.43509750000004, 35.080726499000036 ], [ 33.434221500000035, 35.080158999000048 ], [ 33.433797500000026, 35.081075499000065 ], [ 33.432301500000051, 35.080999999000028 ], [ 33.432204500000068, 35.080752499000027 ], [ 33.431738500000051, 35.080804999000065 ], [ 33.431929, 35.081597499000054 ], [ 33.432734500000038, 35.082450499000061 ], [ 33.433084500000064, 35.082319999000049 ], [ 33.433891500000072, 35.083245499000043 ], [ 33.434156500000029, 35.083639499000071 ], [ 33.433639, 35.083943999000041 ], [ 33.432914500000038, 35.084055999000043 ], [ 33.431870500000059, 35.083642999000062 ], [ 33.431548500000076, 35.083134999000038 ], [ 33.432387500000061, 35.082898499000066 ], [ 33.431634, 35.082093999000051 ], [ 33.430645500000026, 35.081468499000039 ], [ 33.430255, 35.080772499000034 ], [ 33.429869500000052, 35.080477999000038 ], [ 33.429242, 35.080117499000039 ], [ 33.429130500000042, 35.080205999000043 ], [ 33.428706500000033, 35.079870499000037 ], [ 33.429108, 35.078837499000031 ], [ 33.428705, 35.078566499000033 ], [ 33.427881, 35.079411499000059 ], [ 33.427428500000076, 35.07942999900007 ], [ 33.427193500000044, 35.079194999000038 ], [ 33.427137, 35.078925999000035 ], [ 33.426807500000052, 35.078605999000047 ], [ 33.425794, 35.077917999000078 ], [ 33.42566, 35.07813999900003 ], [ 33.424635, 35.077741499000069 ], [ 33.423854, 35.077722999000059 ], [ 33.423620500000027, 35.078336499000045 ], [ 33.423520500000052, 35.078533999000058 ], [ 33.422939500000041, 35.078839999000024 ], [ 33.422976500000061, 35.078548999000077 ], [ 33.422692500000039, 35.077987999000072 ], [ 33.421889, 35.078190999000071 ], [ 33.422361500000079, 35.079401499000028 ], [ 33.421691500000065, 35.079810499000075 ], [ 33.420381500000076, 35.079653999000072 ], [ 33.419995, 35.079912499000045 ], [ 33.419890500000065, 35.080896999000061 ], [ 33.41911, 35.080976999000029 ], [ 33.418188500000042, 35.080970999000044 ], [ 33.41841, 35.082343999000045 ], [ 33.417648, 35.082344999000043 ], [ 33.417068, 35.082508999000027 ], [ 33.417024, 35.082710499000029 ], [ 33.416714500000069, 35.083363499000029 ], [ 33.415988500000026, 35.083647499000051 ], [ 33.415563500000076, 35.083579999000051 ], [ 33.415272, 35.083358499000042 ], [ 33.415614500000061, 35.082495499000061 ], [ 33.414840500000025, 35.081734999000048 ], [ 33.414841, 35.080824499000073 ], [ 33.414305, 35.079987999000025 ], [ 33.413716, 35.080052499000033 ], [ 33.413122, 35.080175999000062 ], [ 33.412779500000056, 35.080511999000066 ], [ 33.41251, 35.081100999000057 ], [ 33.412139500000023, 35.081207999000071 ], [ 33.411626500000068, 35.080974499000035 ], [ 33.412294, 35.080142999000032 ], [ 33.411857, 35.07940349900008 ], [ 33.411437, 35.078722499000037 ], [ 33.410942500000033, 35.078513999000052 ], [ 33.410862, 35.078385999000034 ], [ 33.41200850000007, 35.077916999000024 ], [ 33.411925, 35.07702849900005 ], [ 33.4111, 35.075977999000031 ], [ 33.410206, 35.076382999000032 ], [ 33.41013, 35.07565549900005 ], [ 33.409910500000024, 35.075293999000053 ], [ 33.409215500000073, 35.075202499000056 ], [ 33.407310500000051, 35.076036999000053 ], [ 33.407585500000039, 35.076769499000079 ], [ 33.408133, 35.07733599900007 ], [ 33.408387, 35.077391499000043 ], [ 33.408010500000046, 35.077967499000067 ], [ 33.407498, 35.078111499000045 ], [ 33.406261, 35.078065999000046 ], [ 33.406278500000042, 35.077685999000039 ], [ 33.404874, 35.077649499000074 ], [ 33.404512, 35.077737999000078 ], [ 33.404605500000059, 35.077964499000075 ], [ 33.403529500000047, 35.078525499000079 ], [ 33.402258500000073, 35.079165499000055 ], [ 33.402039, 35.079796499000054 ], [ 33.400389500000074, 35.080772499000034 ], [ 33.400208500000076, 35.080660999000031 ], [ 33.399269, 35.081278999000062 ], [ 33.399487, 35.081911999000056 ], [ 33.399681500000042, 35.081795499000066 ], [ 33.399955, 35.082114999000055 ], [ 33.400056, 35.083226999000033 ], [ 33.401018500000077, 35.083230499000024 ], [ 33.400843, 35.084528499000044 ], [ 33.401179500000069, 35.084655499000064 ], [ 33.400040500000046, 35.085875999000052 ], [ 33.399242, 35.085867999000072 ], [ 33.398475500000075, 35.08539599900007 ], [ 33.398302500000057, 35.08518949900008 ], [ 33.39835, 35.084963499000025 ], [ 33.398433500000067, 35.084703499000057 ], [ 33.397985, 35.084336999000072 ], [ 33.396682, 35.083654499000033 ], [ 33.396636, 35.083246999000039 ], [ 33.396208, 35.082416999000031 ], [ 33.395654, 35.082412999000042 ], [ 33.395033, 35.082051499000045 ], [ 33.394314, 35.081500499000072 ], [ 33.393458500000065, 35.080370999000024 ], [ 33.392895500000066, 35.080163499000037 ], [ 33.392036500000074, 35.080239999000071 ], [ 33.391829, 35.080284999000071 ], [ 33.391652500000077, 35.080439999000077 ], [ 33.391713500000037, 35.080734999000072 ], [ 33.389228500000058, 35.080480999000031 ], [ 33.388000500000032, 35.080317999000044 ], [ 33.387283500000024, 35.080181499000048 ], [ 33.386552, 35.080073499000036 ], [ 33.386191, 35.081074499000067 ], [ 33.385022, 35.081083499000044 ], [ 33.384628, 35.080065499000057 ], [ 33.384743, 35.079085999000029 ], [ 33.384347, 35.078943499000047 ], [ 33.384156500000074, 35.081208999000069 ], [ 33.383306, 35.081234499000061 ], [ 33.383030500000075, 35.08080299900007 ], [ 33.383296500000029, 35.078420999000059 ], [ 33.38126, 35.078220999000052 ], [ 33.381409, 35.075984499000072 ], [ 33.380660500000033, 35.073140999000032 ], [ 33.381202, 35.071106499000052 ], [ 33.378904500000033, 35.070852999000067 ], [ 33.377148500000033, 35.070370499000035 ], [ 33.37232750000004, 35.070376499000076 ], [ 33.37060850000006, 35.069632499000079 ], [ 33.368652, 35.069466999000042 ], [ 33.367713, 35.069179499000029 ], [ 33.366005500000028, 35.069390499000065 ], [ 33.364757500000053, 35.069228999000075 ], [ 33.363868, 35.070756499000026 ], [ 33.362451500000077, 35.071070499000029 ], [ 33.361993, 35.070871999000076 ], [ 33.361870500000066, 35.070457999000041 ], [ 33.361601, 35.070161499000051 ], [ 33.361085, 35.070391499000038 ], [ 33.360854500000073, 35.071007499000075 ], [ 33.360857, 35.072188999000048 ], [ 33.361234, 35.07290049900007 ], [ 33.360190500000044, 35.074060499000041 ], [ 33.361225, 35.07498399900004 ], [ 33.362155, 35.076219499000047 ], [ 33.360932, 35.076075499000069 ], [ 33.35953550000005, 35.076170499000057 ], [ 33.359505, 35.076399499000047 ], [ 33.360877500000072, 35.076841999000067 ], [ 33.359098, 35.07754649900005 ], [ 33.358243, 35.077633499000058 ], [ 33.357704, 35.078236999000069 ], [ 33.35707, 35.077931499000044 ], [ 33.356310500000063, 35.078206999000031 ], [ 33.356043500000055, 35.078636499000027 ], [ 33.355835500000069, 35.078677999000035 ], [ 33.354041, 35.077888999000038 ], [ 33.354812500000037, 35.077669499000024 ], [ 33.353824, 35.077204499000061 ], [ 33.352796, 35.077064999000072 ], [ 33.352597, 35.07723149900005 ], [ 33.353096, 35.077638999000044 ], [ 33.352711, 35.078429999000036 ], [ 33.351445500000068, 35.078394499000069 ], [ 33.35047, 35.07809749900008 ], [ 33.35029650000007, 35.078185999000027 ], [ 33.351434, 35.078578999000058 ], [ 33.352688500000056, 35.078779499000063 ], [ 33.353381500000069, 35.079342499000063 ], [ 33.353537500000073, 35.079824999000039 ], [ 33.353967500000067, 35.080239499000072 ], [ 33.354700500000035, 35.080672999000058 ], [ 33.354936, 35.081862499000067 ], [ 33.355623, 35.082661499000039 ], [ 33.356303500000024, 35.084319999000058 ], [ 33.356447, 35.084465999000031 ], [ 33.357081, 35.084187999000051 ], [ 33.357311, 35.083936999000059 ], [ 33.357579500000043, 35.084149999000033 ], [ 33.35780550000004, 35.08479999900004 ], [ 33.357383, 35.08530199900008 ], [ 33.357182500000079, 35.085553999000069 ], [ 33.356352500000071, 35.086618499000053 ], [ 33.356227500000045, 35.087143499000035 ], [ 33.356601500000068, 35.087862999000038 ], [ 33.356771, 35.088666499000055 ], [ 33.356232, 35.088489499000048 ], [ 33.356092500000045, 35.088261999000053 ], [ 33.356141, 35.088073999000073 ], [ 33.356371, 35.088057999000057 ], [ 33.356394500000079, 35.08788849900003 ], [ 33.356033500000024, 35.087441999000077 ], [ 33.355019500000026, 35.087814499000046 ], [ 33.35471, 35.087454499000046 ], [ 33.355127500000037, 35.08710049900003 ], [ 33.354977, 35.086972499000069 ], [ 33.353423500000076, 35.087054499000033 ], [ 33.352557500000046, 35.087702499000045 ], [ 33.353359, 35.088646999000048 ], [ 33.353496, 35.089124999000035 ], [ 33.353265, 35.089503999000044 ], [ 33.353520500000059, 35.09050699900007 ], [ 33.353652, 35.090799999000069 ], [ 33.353791, 35.091652499000077 ], [ 33.353837, 35.092357499000059 ], [ 33.352957, 35.093332499000041 ], [ 33.352179500000034, 35.093242499000041 ], [ 33.351565, 35.093410499000072 ], [ 33.351312500000063, 35.093647999000041 ], [ 33.350789500000076, 35.094335499000067 ], [ 33.350946, 35.095259499000065 ], [ 33.350386, 35.095711999000059 ], [ 33.349914, 35.095895499000051 ], [ 33.349603, 35.095656999000028 ], [ 33.34927, 35.095646999000053 ], [ 33.348117, 35.096137999000064 ], [ 33.347763, 35.096452499000065 ], [ 33.346448, 35.095886999000072 ], [ 33.345499500000074, 35.09511849900008 ], [ 33.344018500000061, 35.094114499000057 ], [ 33.343789, 35.093941999000037 ], [ 33.342876500000045, 35.09263499900004 ], [ 33.341771, 35.092439499000079 ], [ 33.341615, 35.092613999000037 ], [ 33.341502500000047, 35.093495499000028 ], [ 33.341733, 35.093923499000027 ], [ 33.341174, 35.095577999000056 ], [ 33.340572500000064, 35.095819499000072 ], [ 33.340663500000062, 35.095554999000058 ], [ 33.340485, 35.095175999000048 ], [ 33.340118500000074, 35.095078499000067 ], [ 33.339525500000036, 35.095327999000062 ], [ 33.339734500000077, 35.096744999000066 ], [ 33.339442500000075, 35.096719999000072 ], [ 33.339088500000059, 35.096385999000063 ], [ 33.339438500000028, 35.095847499000058 ], [ 33.339278500000034, 35.095354999000051 ], [ 33.338386, 35.095319499000027 ], [ 33.337347500000078, 35.095705999000074 ], [ 33.336303500000042, 35.095848999000054 ], [ 33.336313500000074, 35.096571499000049 ], [ 33.336047, 35.097151499000063 ], [ 33.335764, 35.097355499000059 ], [ 33.334381, 35.097590999000033 ], [ 33.332315, 35.09774599900004 ], [ 33.330831500000045, 35.09682299900004 ], [ 33.330577500000061, 35.096474499000067 ], [ 33.330665, 35.096250999000063 ], [ 33.331133, 35.096219499000028 ], [ 33.331468500000028, 35.095888499000068 ], [ 33.331405500000074, 35.095333499000049 ], [ 33.331212500000049, 35.095049499000027 ], [ 33.330903500000034, 35.094914999000025 ], [ 33.330461500000069, 35.094839499000045 ], [ 33.329177500000071, 35.095130499000049 ], [ 33.328466500000047, 35.095517999000037 ], [ 33.327279500000031, 35.095967499000039 ], [ 33.326032500000053, 35.095438999000066 ], [ 33.325172500000065, 35.094987499000069 ], [ 33.325063, 35.094915499000024 ], [ 33.324151500000028, 35.094159499000057 ], [ 33.323228, 35.093271999000024 ], [ 33.323106, 35.092052499000033 ], [ 33.322785500000066, 35.090764999000044 ], [ 33.322511, 35.089987999000073 ], [ 33.321245500000032, 35.090276999000025 ], [ 33.321130500000038, 35.089909999000042 ], [ 33.319884500000057, 35.090123499000072 ], [ 33.31983, 35.089759499000024 ], [ 33.318739500000049, 35.089357999000072 ], [ 33.317151, 35.089344999000048 ], [ 33.316746500000079, 35.088926499000024 ], [ 33.316659500000071, 35.088217999000051 ], [ 33.31660050000005, 35.087244499000064 ], [ 33.316586500000028, 35.086759499000038 ], [ 33.316329500000052, 35.086301999000057 ], [ 33.315895, 35.085582499000054 ], [ 33.315411, 35.084679999000059 ], [ 33.31511050000006, 35.083912999000063 ], [ 33.315201500000057, 35.083871499000054 ], [ 33.314677, 35.083073999000078 ], [ 33.313849, 35.082569999000043 ], [ 33.313216500000067, 35.082226999000056 ], [ 33.313065, 35.082322499000043 ], [ 33.312540500000068, 35.082187999000041 ], [ 33.311925500000029, 35.081912499000055 ], [ 33.31145250000003, 35.081422499000041 ], [ 33.310706, 35.080879499000048 ], [ 33.309805, 35.081242499000041 ], [ 33.309618, 35.081802999000047 ], [ 33.308855, 35.082074999000042 ], [ 33.308515, 35.082013999000026 ], [ 33.308509, 35.081769499000075 ], [ 33.308715500000062, 35.081570499000065 ], [ 33.308688500000073, 35.080690999000069 ], [ 33.308527500000025, 35.080528499000025 ], [ 33.307879, 35.080591499000036 ], [ 33.307471, 35.08090099900005 ], [ 33.307509, 35.081367499000066 ], [ 33.307195, 35.081949999000074 ], [ 33.306890500000065, 35.082051999000043 ], [ 33.305995, 35.082263499000078 ], [ 33.305587500000058, 35.08234199900005 ], [ 33.305205, 35.082909999000037 ], [ 33.304783500000042, 35.083589999000026 ], [ 33.30486, 35.083843999000067 ], [ 33.305286, 35.083847499000058 ], [ 33.305719500000066, 35.084536999000079 ], [ 33.305681, 35.084745999000063 ], [ 33.305213500000036, 35.084846999000035 ], [ 33.305432500000052, 35.085470999000052 ], [ 33.30645, 35.086550999000053 ], [ 33.307023500000071, 35.086977999000055 ], [ 33.306436, 35.087697999000056 ], [ 33.302895500000034, 35.088330499000051 ], [ 33.303022500000054, 35.088785999000038 ], [ 33.303201500000057, 35.088747499000078 ], [ 33.303326, 35.089147499000035 ], [ 33.303372, 35.089609499000062 ], [ 33.303409500000043, 35.090121999000075 ], [ 33.30351950000005, 35.090499499000032 ], [ 33.30393250000003, 35.091179499000077 ], [ 33.304195500000048, 35.091622999000037 ], [ 33.304513500000041, 35.092437999000026 ], [ 33.303995500000042, 35.092634499000042 ], [ 33.303492500000061, 35.091738999000029 ], [ 33.301359500000046, 35.092586499000049 ], [ 33.301289500000053, 35.092473999000049 ], [ 33.300885500000049, 35.092564499000048 ], [ 33.300924, 35.093006999000067 ], [ 33.301142500000026, 35.093863999000064 ], [ 33.300371, 35.094579999000075 ], [ 33.299056500000063, 35.094543999000052 ], [ 33.299194500000056, 35.094152999000073 ], [ 33.297932500000059, 35.09378749900003 ], [ 33.29776650000008, 35.094540499000061 ], [ 33.297699, 35.095082999000056 ], [ 33.297408500000074, 35.095299499000078 ], [ 33.297232, 35.095307999000056 ], [ 33.296786500000053, 35.095016499000053 ], [ 33.296579, 35.094429499000057 ], [ 33.296922500000051, 35.093639999000061 ], [ 33.297002500000076, 35.092474499000048 ], [ 33.296811500000047, 35.092129499000066 ], [ 33.295867500000043, 35.092438499000025 ], [ 33.295389500000056, 35.092765999000051 ], [ 33.29573350000004, 35.093926499000077 ], [ 33.295164500000055, 35.094269999000062 ], [ 33.294869, 35.094386999000051 ], [ 33.294560500000046, 35.094415499000036 ], [ 33.294145, 35.094080499000029 ], [ 33.29306, 35.094787999000062 ], [ 33.293069, 35.09548249900007 ], [ 33.291639500000031, 35.096096499000055 ], [ 33.291847, 35.096613999000056 ], [ 33.291725, 35.096982999000033 ], [ 33.291402500000061, 35.097309499000062 ], [ 33.290938500000038, 35.09772749900003 ], [ 33.290599, 35.097894999000061 ], [ 33.29017250000004, 35.097745499000041 ], [ 33.288171, 35.098426999000026 ], [ 33.28798850000004, 35.098234999000056 ], [ 33.287607, 35.098444499000038 ], [ 33.288067, 35.099346499000035 ], [ 33.288697500000069, 35.100089999000033 ], [ 33.289368500000023, 35.101132499000073 ], [ 33.289376, 35.101646499000026 ], [ 33.28782, 35.101165499000047 ], [ 33.287137500000028, 35.10100249900006 ], [ 33.286850500000071, 35.101029499000049 ], [ 33.286032500000033, 35.100954999000066 ], [ 33.285126500000047, 35.10098799900004 ], [ 33.283779, 35.101266999000075 ], [ 33.283058500000038, 35.101993499000059 ], [ 33.283079500000042, 35.102153499000053 ], [ 33.283633500000064, 35.102602999000055 ], [ 33.283071, 35.103263499000036 ], [ 33.282834500000035, 35.103346499000054 ], [ 33.282537, 35.103195999000036 ], [ 33.282083, 35.103515999000024 ], [ 33.282045500000038, 35.103787499000077 ], [ 33.28237850000005, 35.10448149900003 ], [ 33.28324, 35.104913499000077 ], [ 33.282525, 35.105416999000056 ], [ 33.282568500000025, 35.106797499000038 ], [ 33.282185, 35.107236999000065 ], [ 33.282344500000079, 35.108416999000042 ], [ 33.282173500000056, 35.108907499000054 ], [ 33.281399, 35.108782499000029 ], [ 33.281613500000049, 35.108333999000024 ], [ 33.281458, 35.108307999000033 ], [ 33.280741500000033, 35.108665999000038 ], [ 33.280760500000042, 35.109175999000058 ], [ 33.28098250000005, 35.109301499000026 ], [ 33.281103, 35.109965499000054 ], [ 33.280774500000064, 35.110736499000041 ], [ 33.280811, 35.110952999000062 ], [ 33.28108050000003, 35.112072499000078 ], [ 33.281944, 35.114560999000048 ], [ 33.281126500000028, 35.115101999000046 ], [ 33.28055, 35.115238999000042 ], [ 33.280352, 35.115034999000045 ], [ 33.279758, 35.115203999000073 ], [ 33.279747500000042, 35.11583549900007 ], [ 33.279381500000056, 35.116605499000059 ], [ 33.27918, 35.116939499000068 ], [ 33.278574, 35.11724349900004 ], [ 33.278444500000035, 35.116699499000049 ], [ 33.278235, 35.116493999000056 ], [ 33.277646, 35.116558999000063 ], [ 33.277158500000041, 35.117370999000059 ], [ 33.277367500000025, 35.118014499000026 ], [ 33.278667, 35.11762999900003 ], [ 33.278535, 35.118152499000075 ], [ 33.278602500000034, 35.119225999000037 ], [ 33.279025, 35.121193499000071 ], [ 33.279286500000069, 35.124356499000044 ], [ 33.277541, 35.12625599900008 ], [ 33.276826, 35.126750999000024 ], [ 33.275698500000033, 35.127975499000058 ], [ 33.274251, 35.12919049900006 ], [ 33.273601, 35.130216499000028 ], [ 33.273127, 35.130454499000052 ], [ 33.27165, 35.130223499000067 ], [ 33.271107500000028, 35.13026349900008 ], [ 33.271404, 35.130843499000036 ], [ 33.271882, 35.131405999000037 ], [ 33.271867, 35.131691499000056 ], [ 33.27179, 35.132294999000067 ], [ 33.271623500000032, 35.132404999000073 ], [ 33.270308500000056, 35.132275999000058 ], [ 33.269738500000074, 35.132728999000051 ], [ 33.269905, 35.13285249900008 ], [ 33.271050500000058, 35.132873999000026 ], [ 33.271500500000059, 35.132765499000072 ], [ 33.271296500000062, 35.133424499000057 ], [ 33.27106, 35.134302999000056 ], [ 33.271483500000045, 35.134398999000041 ], [ 33.271147500000041, 35.135166999000035 ], [ 33.270957, 35.135110999000062 ], [ 33.270633500000031, 35.135807999000065 ], [ 33.270378500000049, 35.137228999000058 ], [ 33.272333500000059, 35.137683999000046 ], [ 33.273209, 35.137800999000035 ], [ 33.273399500000039, 35.137124999000036 ], [ 33.274575, 35.137212999000042 ], [ 33.275755, 35.136970999000027 ], [ 33.276134, 35.136838999000076 ], [ 33.276287500000024, 35.136628999000038 ], [ 33.276288, 35.135949999000047 ], [ 33.276935500000036, 35.136086999000042 ], [ 33.276734500000032, 35.136836499000026 ], [ 33.276866, 35.137231999000051 ], [ 33.277266500000053, 35.137515499000074 ], [ 33.277529500000071, 35.137781499000027 ], [ 33.277308500000061, 35.13872599900003 ], [ 33.276806500000077, 35.138727499000026 ], [ 33.275874500000043, 35.140267999000059 ], [ 33.27568, 35.141215499000054 ], [ 33.275310500000046, 35.141620999000054 ], [ 33.274706, 35.141515499000036 ], [ 33.274440500000026, 35.142186499000047 ], [ 33.275082500000053, 35.142726499000048 ], [ 33.278035500000044, 35.14304899900003 ], [ 33.280227, 35.143703999000024 ], [ 33.282936, 35.144612499000061 ], [ 33.284688, 35.145536999000058 ], [ 33.286051500000042, 35.145938999000066 ], [ 33.286554500000079, 35.146248999000079 ], [ 33.286728, 35.146524999000064 ], [ 33.286676500000056, 35.14682749900004 ], [ 33.286317, 35.146933999000055 ], [ 33.285905500000069, 35.146856999000079 ], [ 33.285561, 35.147061499000074 ], [ 33.285787500000026, 35.147485999000025 ], [ 33.286016, 35.14811449900003 ], [ 33.285968, 35.148935499000061 ], [ 33.286732500000028, 35.149772499000051 ], [ 33.287302, 35.150039499000059 ], [ 33.287502, 35.150323999000079 ], [ 33.287497, 35.150555999000062 ], [ 33.287066500000037, 35.150893999000061 ], [ 33.286991500000056, 35.151602499000035 ], [ 33.287286, 35.15212199900003 ], [ 33.287508, 35.152256499000032 ], [ 33.284834500000045, 35.153912499000057 ], [ 33.28399150000007, 35.154127499000026 ], [ 33.283427, 35.154584499000066 ], [ 33.283504, 35.155061499000055 ], [ 33.283517500000073, 35.155697499000041 ], [ 33.283277500000054, 35.156409999000061 ], [ 33.283220500000027, 35.157405999000048 ], [ 33.283478500000058, 35.158019499000034 ], [ 33.284341, 35.158676999000079 ], [ 33.286216, 35.159250999000051 ], [ 33.290163, 35.159810499000059 ], [ 33.28996, 35.160307999000054 ], [ 33.290062500000033, 35.160434499000075 ], [ 33.29038, 35.16056499900003 ], [ 33.291224, 35.160499499000025 ], [ 33.292918, 35.161145999000041 ], [ 33.293064, 35.161386499000059 ], [ 33.293213500000036, 35.161950499000056 ], [ 33.293869, 35.162582499000052 ], [ 33.294094500000028, 35.16264699900006 ], [ 33.294636, 35.162427999000045 ], [ 33.295355, 35.162827999000058 ], [ 33.295836, 35.16359649900005 ], [ 33.296728, 35.164461499000026 ], [ 33.297514500000034, 35.164840999000035 ], [ 33.299261500000057, 35.165277499000069 ], [ 33.299763, 35.165618499000061 ], [ 33.301048500000036, 35.16592999900007 ], [ 33.301507, 35.166348999000036 ], [ 33.302762, 35.166725499000052 ], [ 33.303148, 35.167043499000044 ], [ 33.302681500000062, 35.167121499000075 ], [ 33.302198500000031, 35.167810499000041 ], [ 33.302208, 35.16816299900006 ], [ 33.303073500000039, 35.168956999000045 ], [ 33.302053500000056, 35.169360999000048 ], [ 33.300941500000079, 35.169258999000078 ], [ 33.298725500000046, 35.168227999000067 ], [ 33.296768500000042, 35.167947499000036 ], [ 33.29521550000004, 35.167958499000065 ], [ 33.293316, 35.168494499000076 ], [ 33.291700500000047, 35.168339499000069 ], [ 33.291423, 35.168614999000056 ], [ 33.292797500000063, 35.168908999000053 ], [ 33.295529, 35.168634999000062 ], [ 33.296448500000054, 35.168945999000073 ], [ 33.297689, 35.169606499000054 ], [ 33.29984950000005, 35.17032849900005 ], [ 33.300132, 35.171117499000047 ], [ 33.300122500000043, 35.171615999000039 ], [ 33.300484500000039, 35.171969999000055 ], [ 33.301954500000079, 35.172658499000079 ], [ 33.301765, 35.173034999000038 ], [ 33.301858500000037, 35.17324749900007 ], [ 33.30281350000007, 35.173624999000026 ], [ 33.306909, 35.173971499000061 ], [ 33.307547500000055, 35.173925999000062 ], [ 33.307017500000029, 35.174414499000079 ], [ 33.305377, 35.174862499000028 ], [ 33.304879500000027, 35.175321999000062 ], [ 33.304621, 35.175679499000069 ], [ 33.303575500000079, 35.175750999000059 ], [ 33.301752, 35.176525499000036 ], [ 33.300888, 35.176717999000061 ], [ 33.29805650000003, 35.176972499000044 ], [ 33.298071500000049, 35.177566999000078 ], [ 33.298425, 35.177546499000073 ], [ 33.299367500000074, 35.177877999000032 ], [ 33.299236, 35.178421499000024 ], [ 33.29970650000007, 35.179365999000026 ], [ 33.298894, 35.17962299900006 ], [ 33.298684500000036, 35.179643999000064 ], [ 33.296315, 35.179597499000067 ], [ 33.29524, 35.180126499000039 ], [ 33.294889, 35.180844499000045 ], [ 33.295304, 35.181764999000052 ], [ 33.296792500000038, 35.182761999000036 ], [ 33.297442500000045, 35.183430999000052 ], [ 33.298409500000048, 35.183252999000047 ], [ 33.299874500000044, 35.183803999000077 ], [ 33.30013850000006, 35.184367999000074 ], [ 33.300129500000025, 35.184925999000029 ], [ 33.29975950000005, 35.185015499000031 ], [ 33.299881500000026, 35.185950499000057 ], [ 33.30021, 35.187280499000053 ], [ 33.300702, 35.187740499000029 ], [ 33.301282, 35.187439999000048 ], [ 33.30221, 35.187640499000054 ], [ 33.302741, 35.187963999000033 ], [ 33.3036, 35.187711499000045 ], [ 33.304289500000039, 35.18822349900006 ], [ 33.304809, 35.188341499000046 ], [ 33.305202, 35.188064499000063 ], [ 33.306198, 35.187949999000068 ], [ 33.306613500000026, 35.18862849900006 ], [ 33.304641, 35.189493499000037 ], [ 33.302911, 35.190038999000024 ], [ 33.300499500000058, 35.191259999000067 ], [ 33.296422500000062, 35.192492499000025 ], [ 33.296850500000062, 35.194115499000077 ], [ 33.297288500000036, 35.195155499000066 ], [ 33.298530500000027, 35.194914999000048 ], [ 33.298629500000061, 35.195278999000038 ], [ 33.295899500000075, 35.195861999000044 ], [ 33.295959, 35.196176499000046 ], [ 33.297183, 35.19601749900005 ], [ 33.297431, 35.197220499000025 ], [ 33.296790500000043, 35.19749149900008 ], [ 33.297216500000047, 35.198744999000041 ], [ 33.296810500000049, 35.199111999000024 ], [ 33.297288, 35.199607499000024 ], [ 33.299869500000057, 35.199017499000036 ], [ 33.29954, 35.19780649900008 ], [ 33.299563500000033, 35.196534499000052 ], [ 33.300251, 35.196435499000074 ], [ 33.300821, 35.198212999000077 ], [ 33.301149500000065, 35.20010299900008 ], [ 33.301922, 35.200126499000078 ], [ 33.302838, 35.200612999000043 ], [ 33.303442500000074, 35.200520999000048 ], [ 33.304702500000076, 35.200785999000061 ], [ 33.305034500000033, 35.200975999000036 ], [ 33.305605, 35.201736499000049 ], [ 33.306266500000049, 35.202013499000032 ], [ 33.307296500000064, 35.201714499000047 ], [ 33.307603500000027, 35.201313999000035 ], [ 33.308035, 35.201175999000043 ], [ 33.309944, 35.201481499000067 ], [ 33.310267500000066, 35.201524499000072 ], [ 33.311745, 35.201187999000069 ], [ 33.311921, 35.200830499000062 ], [ 33.310888, 35.199028999000063 ], [ 33.311054, 35.198608499000045 ], [ 33.311392500000068, 35.19818949900008 ], [ 33.31273850000008, 35.197200999000074 ], [ 33.312255, 35.196887999000069 ], [ 33.311841, 35.196395499000062 ], [ 33.311571, 35.195379499000069 ], [ 33.31185, 35.195383499000059 ], [ 33.312334500000077, 35.19639199900007 ], [ 33.312887, 35.196806999000046 ], [ 33.313428500000043, 35.196754499000065 ], [ 33.314323500000057, 35.196355999000048 ], [ 33.315585500000054, 35.196701499000028 ], [ 33.316275500000074, 35.196526999000071 ], [ 33.316721, 35.196569499000077 ], [ 33.316971500000079, 35.196650499000043 ], [ 33.317093500000055, 35.196943499000042 ], [ 33.318082, 35.197502999000051 ], [ 33.319054, 35.198121499000024 ], [ 33.319469, 35.19821199900008 ], [ 33.320406500000047, 35.197776999000041 ], [ 33.320793500000036, 35.197826999000029 ], [ 33.321072500000071, 35.198090499000045 ], [ 33.321229500000072, 35.19870049900004 ], [ 33.321734, 35.199268499000027 ], [ 33.322751, 35.198850499000059 ], [ 33.323572, 35.199092999000072 ], [ 33.324153500000079, 35.199493499000027 ], [ 33.326209500000061, 35.199987499000031 ], [ 33.326542500000073, 35.200487999000075 ], [ 33.326273, 35.200851999000065 ], [ 33.325991500000043, 35.201677499000027 ], [ 33.326911, 35.202419999000028 ], [ 33.325593500000025, 35.203028499000027 ], [ 33.325833, 35.20382599900006 ], [ 33.326428500000077, 35.203755499000067 ], [ 33.326527500000054, 35.205531999000073 ], [ 33.328518, 35.205114499000047 ], [ 33.328793500000074, 35.20575799900007 ], [ 33.325497, 35.207339499000057 ], [ 33.325964, 35.209809499000073 ], [ 33.325078500000075, 35.21020949900003 ], [ 33.324187, 35.21110199900005 ], [ 33.323453500000028, 35.211775499000055 ], [ 33.321931500000062, 35.211715999000035 ], [ 33.321389, 35.211862999000061 ], [ 33.321399, 35.212739499000065 ], [ 33.324295, 35.212600999000074 ], [ 33.324357500000076, 35.213424499000041 ], [ 33.325404, 35.213393499000063 ], [ 33.325480500000026, 35.213819499000067 ], [ 33.324583500000074, 35.21426849900007 ], [ 33.324447500000076, 35.214163499000051 ], [ 33.324429, 35.213783499000044 ], [ 33.323991500000034, 35.213586999000029 ], [ 33.323270500000035, 35.213629999000034 ], [ 33.322724, 35.213982999000052 ], [ 33.320888, 35.213418499000056 ], [ 33.320255, 35.213960499000052 ], [ 33.320315, 35.216213499000048 ], [ 33.320134500000052, 35.217195999000069 ], [ 33.321692, 35.217049999000039 ], [ 33.321839500000067, 35.217500999000038 ], [ 33.321961, 35.219057999000029 ], [ 33.321798500000057, 35.220123499000067 ], [ 33.321521, 35.220075999000073 ], [ 33.321378, 35.222382999000047 ], [ 33.322995, 35.222224999000048 ], [ 33.323196, 35.223114499000076 ], [ 33.323083500000052, 35.223735499000043 ], [ 33.32270950000003, 35.224565999000049 ], [ 33.322338, 35.224597499000026 ], [ 33.32160650000003, 35.225062499000046 ], [ 33.320752500000026, 35.22593099900007 ], [ 33.319897500000025, 35.227143999000077 ], [ 33.319232, 35.227323999000077 ], [ 33.318854, 35.227859499000033 ], [ 33.317783, 35.229921499000056 ], [ 33.317799500000035, 35.23024999900008 ], [ 33.318203, 35.230503999000064 ], [ 33.318566500000031, 35.230974499000069 ], [ 33.318966500000045, 35.23164299900003 ], [ 33.318939, 35.231884999000044 ], [ 33.318642, 35.232208999000079 ], [ 33.318648500000052, 35.232709999000065 ], [ 33.319023, 35.233371999000042 ], [ 33.319215, 35.233261499000037 ], [ 33.320099, 35.233535499000027 ], [ 33.320329500000071, 35.233988499000077 ], [ 33.32089650000006, 35.23434099900004 ], [ 33.321249500000079, 35.234338999000045 ], [ 33.321649, 35.234841999000025 ] ] ] } }
]
}
