{
"type": "FeatureCollection",
"name": "poznan",
"crs": { "type": "name", "properties": { "name": "urn:ogc:def:crs:OGC:1.3:CRS84" } },
"features": [
{ "type": "Feature", "properties": { }, "geometry": { "type": "Polygon", "coordinates": [ [ [ 16.970175, 52.508523999000033 ], [ 16.968372500000044, 52.506605499000045 ], [ 16.967946, 52.504991499000027 ], [ 16.969203, 52.503823999000076 ], [ 16.969814, 52.503552999000078 ], [ 16.970244500000035, 52.50317349900007 ], [ 16.971617, 52.501197999000055 ], [ 16.972117, 52.49996199900005 ], [ 16.972353500000054, 52.498837499000047 ], [ 16.972572, 52.496490999000059 ], [ 16.972989, 52.494643999000061 ], [ 16.973972500000059, 52.492244999000036 ], [ 16.97468, 52.49085149900003 ], [ 16.975087500000029, 52.490338499000075 ], [ 16.975318500000071, 52.489592999000081 ], [ 16.975100500000053, 52.488829499000076 ], [ 16.972423, 52.487443499000051 ], [ 16.971724, 52.486763499000062 ], [ 16.971086500000069, 52.485563999000078 ], [ 16.970991500000025, 52.48363899900005 ], [ 16.971307500000023, 52.482090499000037 ], [ 16.97195, 52.48039699900005 ], [ 16.97219, 52.478598499000043 ], [ 16.972237, 52.477716999000052 ], [ 16.971956500000033, 52.475738999000043 ], [ 16.972031500000071, 52.474022999000056 ], [ 16.972423500000048, 52.473210499000061 ], [ 16.974310500000058, 52.471310499000026 ], [ 16.974881500000038, 52.470560999000043 ], [ 16.975262, 52.469763499000067 ], [ 16.975141, 52.469152999000073 ], [ 16.975528500000053, 52.468597999000053 ], [ 16.975875500000029, 52.466084499000033 ], [ 16.975860500000067, 52.464839999000048 ], [ 16.976206500000046, 52.46346199900006 ], [ 16.976715, 52.462859999000045 ], [ 16.978802500000029, 52.461288999000033 ], [ 16.979490500000054, 52.460455999000033 ], [ 16.979731, 52.459552999000039 ], [ 16.979772, 52.458676499000035 ], [ 16.979423, 52.457755499000029 ], [ 16.978119, 52.456243499000038 ], [ 16.977287, 52.455820499000026 ], [ 16.974132500000053, 52.455085999000062 ], [ 16.972648500000048, 52.454596999000046 ], [ 16.971639500000038, 52.453978499000073 ], [ 16.971278, 52.453524499000082 ], [ 16.971133500000064, 52.45305649900007 ], [ 16.971218500000077, 52.452170499000033 ], [ 16.971476500000051, 52.451685499000064 ], [ 16.974580500000059, 52.447834999000065 ], [ 16.975609, 52.446196499000052 ], [ 16.975885, 52.444011499000055 ], [ 16.975661, 52.441485499000066 ], [ 16.977273, 52.441361499000038 ], [ 16.978197500000022, 52.441443499000059 ], [ 16.978254500000048, 52.441200499000047 ], [ 16.983822, 52.440302999000039 ], [ 16.987783500000035, 52.440071999000054 ], [ 16.993960500000071, 52.439291999000034 ], [ 16.993995, 52.439424999000039 ], [ 16.995412, 52.439332499000045 ], [ 17.009395, 52.439523499000074 ], [ 17.011102, 52.440823499000032 ], [ 17.011247, 52.441347999000072 ], [ 17.009973, 52.44133049900006 ], [ 17.009412500000053, 52.441455999000027 ], [ 17.005689, 52.443085499000063 ], [ 17.006638, 52.443844499000079 ], [ 17.008911500000067, 52.444935499000053 ], [ 17.014183500000058, 52.446938499000055 ], [ 17.016905500000064, 52.447528499000043 ], [ 17.018377, 52.448040999000057 ], [ 17.019588500000054, 52.448752999000078 ], [ 17.019956, 52.449243499000033 ], [ 17.020076, 52.44922249900003 ], [ 17.020432500000027, 52.448095499000033 ], [ 17.02102, 52.448094499000035 ], [ 17.021385, 52.446609999000032 ], [ 17.022822500000075, 52.445764999000062 ], [ 17.023242500000038, 52.443907999000032 ], [ 17.02482150000003, 52.443982499000072 ], [ 17.025546, 52.441244499000049 ], [ 17.023945500000025, 52.440316999000061 ], [ 17.022163500000033, 52.439600499000051 ], [ 17.024302, 52.439412999000069 ], [ 17.024087, 52.439167999000063 ], [ 17.026637, 52.438536999000064 ], [ 17.027166, 52.439002999000081 ], [ 17.027588, 52.438863999000034 ], [ 17.027308, 52.43843399900004 ], [ 17.025658, 52.438130999000066 ], [ 17.026045500000066, 52.437782999000035 ], [ 17.024774, 52.437648499000034 ], [ 17.024059, 52.437750999000059 ], [ 17.023788, 52.437602999000035 ], [ 17.023599, 52.437207499000067 ], [ 17.021536, 52.435910499000045 ], [ 17.019630500000062, 52.435751499000048 ], [ 17.019413, 52.436027499000033 ], [ 17.015516, 52.434895999000048 ], [ 17.015655, 52.434700999000029 ], [ 17.014814500000057, 52.434348499000066 ], [ 17.014236, 52.434143999000071 ], [ 17.010926500000039, 52.433681499000045 ], [ 17.007629, 52.433768999000051 ], [ 17.00748550000003, 52.433938999000077 ], [ 17.005787, 52.433844499000031 ], [ 17.006049, 52.433183499000052 ], [ 17.006507, 52.43263599900007 ], [ 17.006902500000024, 52.432531499000049 ], [ 17.00813, 52.432719999000028 ], [ 17.008777, 52.432485499000052 ], [ 17.011576, 52.427967499000033 ], [ 17.033003500000063, 52.429825999000059 ], [ 17.036891500000024, 52.423871499000029 ], [ 17.039814, 52.428665999000032 ], [ 17.054001, 52.420995499000071 ], [ 17.061342500000023, 52.424769499000035 ], [ 17.060735500000078, 52.426641499000027 ], [ 17.064216, 52.427342999000075 ], [ 17.065593, 52.427826499000048 ], [ 17.068946, 52.42513199900003 ], [ 17.070613, 52.426423999000065 ], [ 17.070796, 52.426773999000034 ], [ 17.071492, 52.426827999000068 ], [ 17.071685500000058, 52.426569499000038 ], [ 17.071706500000062, 52.425900499000079 ], [ 17.070624500000065, 52.425118499000064 ], [ 17.069584500000076, 52.424617999000077 ], [ 17.069335500000022, 52.424265999000056 ], [ 17.068919, 52.423583999000073 ], [ 17.068204, 52.422566999000026 ], [ 17.066558500000042, 52.420417999000051 ], [ 17.06644, 52.41926249900007 ], [ 17.066603500000042, 52.418606499000077 ], [ 17.066539500000033, 52.417574999000067 ], [ 17.066396, 52.417252499000028 ], [ 17.065451, 52.416330999000081 ], [ 17.063378, 52.415136999000026 ], [ 17.06122750000003, 52.414174999000068 ], [ 17.059844, 52.413328499000045 ], [ 17.057263500000033, 52.413287499000035 ], [ 17.054428, 52.412574999000071 ], [ 17.053889500000025, 52.412207999000032 ], [ 17.053281, 52.411442499000032 ], [ 17.050639, 52.41087249900005 ], [ 17.049750500000073, 52.410566999000082 ], [ 17.048123, 52.409637499000041 ], [ 17.045963500000028, 52.408933999000055 ], [ 17.044972, 52.40859449900006 ], [ 17.0447, 52.408261999000047 ], [ 17.045068, 52.407860499000037 ], [ 17.045673500000078, 52.407841999000027 ], [ 17.045662500000049, 52.407967499000051 ], [ 17.046373500000072, 52.408088999000029 ], [ 17.046988, 52.407854499000052 ], [ 17.047045500000024, 52.407549499000027 ], [ 17.046765500000049, 52.406845999000041 ], [ 17.046392, 52.405998999000076 ], [ 17.044832500000041, 52.404089999000064 ], [ 17.044082500000059, 52.403798499000061 ], [ 17.040740500000027, 52.403150499000049 ], [ 17.039092, 52.403430499000081 ], [ 17.038151500000026, 52.403819999000063 ], [ 17.037634, 52.403310499000042 ], [ 17.036890500000027, 52.402041499000063 ], [ 17.038058500000034, 52.401688999000044 ], [ 17.041857500000049, 52.400051499000028 ], [ 17.045301500000051, 52.398349999000061 ], [ 17.048336500000062, 52.39626849900003 ], [ 17.049328, 52.395133499000053 ], [ 17.049501, 52.394391499000051 ], [ 17.048492, 52.39146499900005 ], [ 17.047811, 52.390731499000026 ], [ 17.048065500000064, 52.389579999000034 ], [ 17.048424, 52.388707499000077 ], [ 17.048785, 52.385476999000048 ], [ 17.05006, 52.382630999000071 ], [ 17.051274500000034, 52.38079699900004 ], [ 17.051575500000069, 52.379732499000056 ], [ 17.053839, 52.376855499000044 ], [ 17.056407500000034, 52.370797999000047 ], [ 17.057341, 52.367907999000067 ], [ 17.057652500000074, 52.364626999000052 ], [ 17.058217500000069, 52.361888499000031 ], [ 17.057762, 52.359789499000044 ], [ 17.057565, 52.359151499000063 ], [ 17.058279500000026, 52.358439999000041 ], [ 17.05861, 52.357497999000032 ], [ 17.057805500000029, 52.355495999000027 ], [ 17.057714, 52.354475999000044 ], [ 17.055523, 52.351797999000041 ], [ 17.05408250000005, 52.349076499000034 ], [ 17.05265, 52.347190999000077 ], [ 17.05212, 52.346279499000048 ], [ 17.051893, 52.345122999000068 ], [ 17.050956, 52.343783999000038 ], [ 17.049337, 52.342006999000034 ], [ 17.049173500000052, 52.342018999000061 ], [ 17.048440500000027, 52.342071499000042 ], [ 17.04657050000003, 52.34036499900003 ], [ 17.04513, 52.338479999000072 ], [ 17.043769500000053, 52.336016999000037 ], [ 17.042918, 52.334841499000049 ], [ 17.042172, 52.333897999000044 ], [ 17.039768, 52.331976999000062 ], [ 17.037277, 52.32843899900007 ], [ 17.036855500000058, 52.329316999000071 ], [ 17.025345, 52.33284149900004 ], [ 17.024489500000072, 52.332906499000046 ], [ 17.023199, 52.333361499000034 ], [ 17.021349500000042, 52.334430499000064 ], [ 17.01878350000004, 52.33510349900007 ], [ 17.016391500000054, 52.336646999000038 ], [ 17.015657, 52.33737749900007 ], [ 17.014537, 52.336872499000037 ], [ 17.014645500000029, 52.336397999000042 ], [ 17.014191500000038, 52.336009999000055 ], [ 17.01210750000007, 52.336939999000037 ], [ 17.010736, 52.335427999000046 ], [ 17.010782500000062, 52.33449149900008 ], [ 17.00748150000004, 52.331746999000075 ], [ 17.006996, 52.33055949900006 ], [ 17.005565500000046, 52.332033499000033 ], [ 17.005048500000044, 52.333740999000042 ], [ 17.004741500000023, 52.334066499000073 ], [ 17.002706, 52.335522499000035 ], [ 16.999611, 52.337311999000065 ], [ 16.996906500000023, 52.333274499000026 ], [ 16.995356, 52.331550999000058 ], [ 16.991793500000028, 52.329370999000048 ], [ 16.990847500000029, 52.328097999000079 ], [ 16.990223, 52.32755699900008 ], [ 16.988566500000047, 52.326550499000064 ], [ 16.98308650000007, 52.323937499000067 ], [ 16.983503, 52.324042499000029 ], [ 16.984151500000053, 52.323772999000028 ], [ 16.99055050000004, 52.320987499000069 ], [ 16.993090500000051, 52.319507999000052 ], [ 16.995778, 52.318605499000057 ], [ 16.99812, 52.316635999000027 ], [ 16.999537, 52.315870999000026 ], [ 17.000809500000059, 52.314849499000047 ], [ 17.002202, 52.312574999000049 ], [ 16.997275, 52.310124999000038 ], [ 16.993236, 52.307419499000048 ], [ 16.995364, 52.303575999000032 ], [ 16.996126, 52.301682999000036 ], [ 16.997039, 52.301439999000081 ], [ 17.002978, 52.295923999000081 ], [ 17.002204500000062, 52.29536549900007 ], [ 17.000843, 52.295303499000056 ], [ 16.999355, 52.294578999000066 ], [ 16.996767, 52.292773999000076 ], [ 16.995869500000026, 52.291925499000058 ], [ 16.994707, 52.292406999000036 ], [ 16.993316500000049, 52.292909999000074 ], [ 16.992386, 52.29313249900008 ], [ 16.990815, 52.293696999000076 ], [ 16.989102500000058, 52.294470499000056 ], [ 16.990233, 52.295506499000055 ], [ 16.988206, 52.296263499000077 ], [ 16.987454500000069, 52.296321499000044 ], [ 16.985895500000026, 52.29728299900006 ], [ 16.985097, 52.296768999000051 ], [ 16.984058, 52.297956999000064 ], [ 16.982995, 52.298550499000044 ], [ 16.982061, 52.299044499000047 ], [ 16.980570500000056, 52.299202499000046 ], [ 16.980136500000071, 52.299680499000033 ], [ 16.980483500000048, 52.299973499000032 ], [ 16.980062500000031, 52.300153499000032 ], [ 16.978819500000043, 52.300206999000068 ], [ 16.977614, 52.30078099900004 ], [ 16.977943, 52.300954999000055 ], [ 16.977959, 52.301218499000072 ], [ 16.976430500000049, 52.301954999000031 ], [ 16.976525, 52.303013999000029 ], [ 16.978693500000077, 52.302922499000033 ], [ 16.979216, 52.303494999000065 ], [ 16.968745, 52.307636499000068 ], [ 16.966979500000036, 52.308358499000065 ], [ 16.966997, 52.308460999000033 ], [ 16.965292, 52.30864249900003 ], [ 16.964622500000075, 52.308122499000035 ], [ 16.963967500000024, 52.308032999000034 ], [ 16.963146, 52.308249999000054 ], [ 16.962787, 52.308791499000051 ], [ 16.962010500000076, 52.309495499000036 ], [ 16.960822, 52.309427499000037 ], [ 16.960348500000066, 52.310072499000057 ], [ 16.958966, 52.310557999000082 ], [ 16.958375500000045, 52.310805999000081 ], [ 16.958134, 52.311314999000047 ], [ 16.958864500000061, 52.311533499000063 ], [ 16.959014500000023, 52.311807499000054 ], [ 16.958957, 52.312092999000072 ], [ 16.958399, 52.312702499000068 ], [ 16.957638, 52.312826999000038 ], [ 16.957028500000035, 52.313295999000047 ], [ 16.957085500000062, 52.313907499000038 ], [ 16.957577, 52.314185499000075 ], [ 16.956417, 52.314572999000063 ], [ 16.955634, 52.314623499000049 ], [ 16.954449, 52.313638499000035 ], [ 16.952882, 52.314020999000036 ], [ 16.952216500000077, 52.313145999000028 ], [ 16.950908500000025, 52.313547999000036 ], [ 16.950922500000047, 52.312496999000075 ], [ 16.950787, 52.312370499000053 ], [ 16.947604, 52.310705499000051 ], [ 16.941001500000027, 52.315018499000075 ], [ 16.940135, 52.314366499000073 ], [ 16.935521, 52.316949499000032 ], [ 16.931401, 52.318755499000076 ], [ 16.928752, 52.318668499000069 ], [ 16.926359, 52.319256499000062 ], [ 16.926507500000071, 52.320186499000044 ], [ 16.926664, 52.320580499000073 ], [ 16.927002, 52.321182499000031 ], [ 16.927227500000072, 52.322271499000067 ], [ 16.926326500000073, 52.322933499000044 ], [ 16.923890500000027, 52.323568499000032 ], [ 16.922467, 52.323782999000059 ], [ 16.923067, 52.324118499000065 ], [ 16.925081500000033, 52.326400499000044 ], [ 16.925838, 52.328484499000069 ], [ 16.926043500000048, 52.329661999000052 ], [ 16.924255, 52.329701999000065 ], [ 16.922835500000076, 52.329954999000051 ], [ 16.919439500000067, 52.331116999000074 ], [ 16.911657, 52.333253999000078 ], [ 16.911527, 52.333364999000082 ], [ 16.911623, 52.333620499000062 ], [ 16.909368500000028, 52.333878999000035 ], [ 16.909299, 52.334571499000049 ], [ 16.909065500000054, 52.335163499000032 ], [ 16.908266500000025, 52.336032999000054 ], [ 16.907213500000069, 52.33654449900007 ], [ 16.906581500000073, 52.336725999000066 ], [ 16.903219500000034, 52.33674299900008 ], [ 16.901055500000041, 52.337019499000064 ], [ 16.89980550000007, 52.337669499000071 ], [ 16.899159, 52.338241499000048 ], [ 16.899027, 52.338535999000044 ], [ 16.899139500000047, 52.339963499000078 ], [ 16.899311, 52.340499499000032 ], [ 16.900206, 52.341987999000082 ], [ 16.90116450000005, 52.34315299900004 ], [ 16.902442500000063, 52.344053999000039 ], [ 16.904099, 52.344892999000081 ], [ 16.901506500000039, 52.347378999000057 ], [ 16.902251, 52.347302499000079 ], [ 16.905121500000064, 52.348215499000048 ], [ 16.905619500000057, 52.348686999000051 ], [ 16.905595, 52.349004999000044 ], [ 16.903272500000071, 52.349008499000035 ], [ 16.903235, 52.349334499000065 ], [ 16.904174, 52.349360499000056 ], [ 16.90501050000006, 52.349631999000053 ], [ 16.904143500000032, 52.351144999000041 ], [ 16.903327500000046, 52.350777999000059 ], [ 16.902692500000057, 52.351489499000081 ], [ 16.900971500000026, 52.35219199900007 ], [ 16.902904500000034, 52.355393499000058 ], [ 16.901614, 52.355878999000026 ], [ 16.900062500000047, 52.355567999000073 ], [ 16.898359500000026, 52.355614999000068 ], [ 16.895131500000048, 52.356033499000034 ], [ 16.894995, 52.355765999000027 ], [ 16.892850500000065, 52.355797499000062 ], [ 16.89201550000007, 52.355373999000051 ], [ 16.889642, 52.356114999000056 ], [ 16.889493, 52.355467999000041 ], [ 16.888497, 52.354123499000082 ], [ 16.885954500000025, 52.354880999000045 ], [ 16.885371500000076, 52.355170999000052 ], [ 16.884222500000078, 52.356107499000075 ], [ 16.882569500000045, 52.356597499000031 ], [ 16.878679500000032, 52.357024499000033 ], [ 16.876261500000055, 52.356990499000062 ], [ 16.869182, 52.358447499000079 ], [ 16.86758, 52.358919499000081 ], [ 16.86617, 52.359022999000047 ], [ 16.861321500000031, 52.354806499000063 ], [ 16.85948, 52.352896999000052 ], [ 16.858107500000074, 52.351941999000076 ], [ 16.85613550000005, 52.351017999000078 ], [ 16.85336, 52.350114499000028 ], [ 16.851612, 52.348594999000056 ], [ 16.849155, 52.349483999000029 ], [ 16.844, 52.345912499000065 ], [ 16.841993500000058, 52.344234499000038 ], [ 16.825123500000075, 52.356696999000064 ], [ 16.829760500000077, 52.358528999000043 ], [ 16.834123500000032, 52.370354999000028 ], [ 16.825741, 52.378058999000075 ], [ 16.823979500000064, 52.377881999000067 ], [ 16.82315, 52.377882999000065 ], [ 16.818717, 52.37771649900003 ], [ 16.81768, 52.378089499000055 ], [ 16.817071500000054, 52.377707999000052 ], [ 16.810698, 52.377310499000032 ], [ 16.80811650000004, 52.377216999000041 ], [ 16.808094, 52.377405999000075 ], [ 16.805755500000032, 52.377326999000047 ], [ 16.8012, 52.376935999000068 ], [ 16.801145500000075, 52.37706649900008 ], [ 16.799479, 52.376927999000031 ], [ 16.799401, 52.376802499000064 ], [ 16.789394, 52.376435499000081 ], [ 16.808857500000045, 52.386111999000036 ], [ 16.805391, 52.387988499000073 ], [ 16.810985, 52.390682999000035 ], [ 16.804304500000057, 52.396086999000033 ], [ 16.802535, 52.397780499000078 ], [ 16.797174, 52.402207499000042 ], [ 16.803552, 52.403656499000078 ], [ 16.804836, 52.404221999000072 ], [ 16.804313500000035, 52.404487999000082 ], [ 16.80217, 52.404981999000029 ], [ 16.800769, 52.404835499000058 ], [ 16.798446500000068, 52.405885499000078 ], [ 16.795799, 52.408668999000042 ], [ 16.795628500000078, 52.409549499000036 ], [ 16.795088, 52.410760999000047 ], [ 16.797435500000063, 52.413070499000071 ], [ 16.798464500000023, 52.413697499000079 ], [ 16.799099500000068, 52.414300999000034 ], [ 16.799023, 52.41444799900006 ], [ 16.799672, 52.416612499000053 ], [ 16.800256, 52.417791499000032 ], [ 16.799974500000076, 52.418796499000052 ], [ 16.800553, 52.420713999000043 ], [ 16.800472500000069, 52.42292799900008 ], [ 16.80027750000005, 52.423268999000072 ], [ 16.799471500000038, 52.423964499000078 ], [ 16.797767500000077, 52.424724999000034 ], [ 16.802203, 52.425564499000075 ], [ 16.801236, 52.429837999000029 ], [ 16.800001500000064, 52.432666499000049 ], [ 16.798534500000073, 52.435269499000071 ], [ 16.800868, 52.434781999000052 ], [ 16.800403500000073, 52.435423999000079 ], [ 16.800812500000063, 52.436220499000058 ], [ 16.800842500000044, 52.437256999000056 ], [ 16.798246, 52.439422999000044 ], [ 16.794768500000032, 52.441531499000064 ], [ 16.793876500000067, 52.442134999000075 ], [ 16.793561, 52.442476499000065 ], [ 16.792728500000067, 52.443478999000035 ], [ 16.792184, 52.444875499000034 ], [ 16.790814, 52.444524499000067 ], [ 16.790026, 52.445147499000029 ], [ 16.786283500000025, 52.446923499000036 ], [ 16.790407, 52.447815999000056 ], [ 16.787638, 52.453226499000039 ], [ 16.787486, 52.453164499000081 ], [ 16.785964, 52.454097999000055 ], [ 16.785253500000067, 52.455341999000041 ], [ 16.78238250000004, 52.455825499000071 ], [ 16.783656500000063, 52.457025999000052 ], [ 16.783191, 52.45753299900008 ], [ 16.782135500000038, 52.458090999000035 ], [ 16.781136500000059, 52.458191499000066 ], [ 16.779757500000073, 52.458349499000064 ], [ 16.779261500000075, 52.459239999000033 ], [ 16.781205, 52.459156499000073 ], [ 16.781346, 52.460318499000039 ], [ 16.780542, 52.460770999000033 ], [ 16.780335500000035, 52.461939999000037 ], [ 16.780455, 52.462776499000029 ], [ 16.782119, 52.464342999000053 ], [ 16.780806, 52.464963499000078 ], [ 16.779101, 52.466393499000048 ], [ 16.77765050000005, 52.466731499000048 ], [ 16.776979, 52.466369999000051 ], [ 16.776896, 52.466248999000072 ], [ 16.777044500000045, 52.465955999000073 ], [ 16.775455, 52.465415499000073 ], [ 16.773206500000072, 52.464900499000066 ], [ 16.773009, 52.464454999000054 ], [ 16.771131, 52.465446999000051 ], [ 16.771086, 52.466782499000033 ], [ 16.768201500000032, 52.464555499000028 ], [ 16.766270500000076, 52.463774499000067 ], [ 16.765227500000037, 52.462268999000059 ], [ 16.762164, 52.460521499000038 ], [ 16.761757500000044, 52.46094849900004 ], [ 16.758702500000027, 52.459393499000043 ], [ 16.75376, 52.456108999000037 ], [ 16.752864, 52.455431499000042 ], [ 16.752865500000041, 52.455246999000053 ], [ 16.747443, 52.456361499000081 ], [ 16.742746500000067, 52.45922949900006 ], [ 16.738959, 52.459061999000028 ], [ 16.737733500000047, 52.458432999000081 ], [ 16.732542500000022, 52.461351499000045 ], [ 16.731588, 52.463745999000082 ], [ 16.739140500000076, 52.465308499000059 ], [ 16.748836500000039, 52.470153499000048 ], [ 16.75149250000004, 52.472189499000081 ], [ 16.754257, 52.473617999000055 ], [ 16.754883, 52.474068499000055 ], [ 16.754712, 52.474126999000077 ], [ 16.757442, 52.475961999000049 ], [ 16.761037500000043, 52.47732299900008 ], [ 16.763957, 52.478162499000064 ], [ 16.768330500000047, 52.478450999000074 ], [ 16.772801, 52.47835849900008 ], [ 16.775154500000042, 52.47839299900005 ], [ 16.775843, 52.478527499000052 ], [ 16.775896500000044, 52.478634999000064 ], [ 16.774839, 52.478765499000076 ], [ 16.774718500000063, 52.479426999000054 ], [ 16.776252, 52.480169499000056 ], [ 16.776683500000047, 52.480544999000074 ], [ 16.776364500000057, 52.480672999000035 ], [ 16.777795, 52.482260999000061 ], [ 16.779441500000075, 52.482451999000034 ], [ 16.781662500000039, 52.482754499000066 ], [ 16.781669500000078, 52.48287349900005 ], [ 16.782629, 52.482721999000034 ], [ 16.783089, 52.482484999000064 ], [ 16.783467500000029, 52.482093999000028 ], [ 16.783227500000066, 52.482013499000061 ], [ 16.783923500000071, 52.481161499000052 ], [ 16.784184500000038, 52.481070999000053 ], [ 16.785954, 52.478957999000045 ], [ 16.787958500000059, 52.476994499000057 ], [ 16.789541500000041, 52.475814999000079 ], [ 16.792920500000037, 52.473995499000068 ], [ 16.793618500000036, 52.475167999000064 ], [ 16.793768500000056, 52.475912999000059 ], [ 16.793692, 52.476454999000055 ], [ 16.793919, 52.477455999000028 ], [ 16.795552, 52.481048999000052 ], [ 16.80291950000003, 52.479602499000066 ], [ 16.803902, 52.479425999000057 ], [ 16.804322500000069, 52.479479999000034 ], [ 16.806059, 52.479118499000037 ], [ 16.808539500000052, 52.47855449900004 ], [ 16.811813, 52.477407499000037 ], [ 16.813383500000043, 52.476525999000046 ], [ 16.816963, 52.471964999000079 ], [ 16.81761, 52.471441999000035 ], [ 16.826537500000029, 52.470007999000075 ], [ 16.83050650000007, 52.469405499000061 ], [ 16.830839500000025, 52.469627999000068 ], [ 16.830888, 52.470619999000064 ], [ 16.831338, 52.470939999000052 ], [ 16.833541500000024, 52.471272999000064 ], [ 16.834441, 52.471715499000027 ], [ 16.835389500000076, 52.473067499000081 ], [ 16.83693, 52.474315999000055 ], [ 16.840383, 52.47501199900006 ], [ 16.841310500000077, 52.475515999000038 ], [ 16.842071, 52.476151499000082 ], [ 16.843408500000066, 52.47663299900006 ], [ 16.853922, 52.475153499000044 ], [ 16.853664500000036, 52.47463299900005 ], [ 16.854022, 52.473741999000026 ], [ 16.854760500000054, 52.472509999000067 ], [ 16.856559, 52.470461999000065 ], [ 16.857632, 52.468210999000064 ], [ 16.85956, 52.466836499000067 ], [ 16.860555, 52.466367999000056 ], [ 16.861823, 52.465992999000036 ], [ 16.86439450000006, 52.46561949900007 ], [ 16.870792, 52.465270499000042 ], [ 16.885721500000045, 52.464963999000076 ], [ 16.888688500000058, 52.464761499000076 ], [ 16.890840500000024, 52.464734499000031 ], [ 16.89127650000006, 52.464954999000042 ], [ 16.895923, 52.465191499000071 ], [ 16.896156500000075, 52.465235499000073 ], [ 16.897626500000058, 52.466684499000053 ], [ 16.896589, 52.467126999000072 ], [ 16.90125050000006, 52.47172099900007 ], [ 16.895355500000051, 52.474540499000057 ], [ 16.89494250000007, 52.475115999000082 ], [ 16.893228500000077, 52.476152999000078 ], [ 16.892211, 52.476435999000046 ], [ 16.890814500000033, 52.477406999000038 ], [ 16.888853500000039, 52.47888449900006 ], [ 16.888619, 52.479722499000047 ], [ 16.887702, 52.481207999000048 ], [ 16.887244500000065, 52.481678999000053 ], [ 16.887551, 52.482488999000054 ], [ 16.88720550000005, 52.482464999000058 ], [ 16.886419500000045, 52.483509499000036 ], [ 16.888024500000029, 52.484110499000053 ], [ 16.888221500000043, 52.484536999000056 ], [ 16.890526, 52.486354999000071 ], [ 16.890485500000068, 52.488909999000043 ], [ 16.889190500000041, 52.488120999000046 ], [ 16.888810500000034, 52.488647499000081 ], [ 16.888389, 52.490140499000063 ], [ 16.888068, 52.491415999000026 ], [ 16.888214500000061, 52.491424499000061 ], [ 16.888115, 52.491906499000038 ], [ 16.888244500000042, 52.494694999000046 ], [ 16.907218500000056, 52.500501999000051 ], [ 16.907887, 52.494981999000061 ], [ 16.908702, 52.495691499000031 ], [ 16.910281500000053, 52.496248999000045 ], [ 16.910828, 52.496248499000046 ], [ 16.911062500000071, 52.496138999000038 ], [ 16.911247500000059, 52.49318499900005 ], [ 16.913045500000067, 52.493223499000067 ], [ 16.91366, 52.493364499000052 ], [ 16.913694500000076, 52.495419999000035 ], [ 16.915534500000035, 52.495714999000029 ], [ 16.915511, 52.495883499000058 ], [ 16.914842, 52.495844499000043 ], [ 16.914745500000038, 52.49631849900004 ], [ 16.925026500000058, 52.497300499000062 ], [ 16.926908, 52.500998999000046 ], [ 16.930839, 52.500873499000079 ], [ 16.93070750000004, 52.500448499000072 ], [ 16.932180500000072, 52.500266499000077 ], [ 16.932174, 52.500039499000081 ], [ 16.932567, 52.499965499000041 ], [ 16.933375, 52.499907499000074 ], [ 16.934051500000066, 52.500334999000074 ], [ 16.93482350000005, 52.500270499000067 ], [ 16.934521500000074, 52.499584499000036 ], [ 16.93593, 52.499351499000056 ], [ 16.935785500000065, 52.499023499000032 ], [ 16.937644500000033, 52.498966499000062 ], [ 16.937891500000035, 52.499669499000049 ], [ 16.937115500000061, 52.500860999000054 ], [ 16.938915, 52.50130099900008 ], [ 16.938806, 52.501477999000031 ], [ 16.939634500000068, 52.501662499000076 ], [ 16.942301, 52.501176999000052 ], [ 16.94229050000007, 52.500459999000043 ], [ 16.943566, 52.500799999000037 ], [ 16.946521500000074, 52.507037499000035 ], [ 16.950504500000022, 52.505783499000074 ], [ 16.96036950000007, 52.50503149900004 ], [ 16.961393500000042, 52.50555599900008 ], [ 16.965896500000042, 52.506832999000039 ], [ 16.969441, 52.509275499000069 ], [ 16.97047, 52.50932799900005 ], [ 16.970175, 52.508523999000033 ] ] ] } }
]
}
