{
"type": "FeatureCollection",
"name": "prague",
"crs": { "type": "name", "properties": { "name": "urn:ogc:def:crs:OGC:1.3:CRS84" } },
"features": [
{ "type": "Feature", "properties": { }, "geometry": { "type": "Polygon", "coordinates": [ [ [ 14.532412500000078, 50.177222999000037 ], [ 14.53186, 50.172659999000075 ], [ 14.532372500000065, 50.168567499000062 ], [ 14.532941500000049, 50.167384499000036 ], [ 14.530652, 50.166474999000059 ], [ 14.53182, 50.164997999000036 ], [ 14.534391500000027, 50.16174649900006 ], [ 14.538982, 50.16333449900003 ], [ 14.540124, 50.165013499000054 ], [ 14.540424, 50.165082999000049 ], [ 14.541483, 50.163834999000073 ], [ 14.54210050000006, 50.163107499000034 ], [ 14.542337500000031, 50.162656999000035 ], [ 14.543800500000032, 50.163991999000075 ], [ 14.545054, 50.164014999000074 ], [ 14.54870150000005, 50.165589999000076 ], [ 14.550644500000033, 50.166110999000068 ], [ 14.550497, 50.164867499000081 ], [ 14.553550500000028, 50.164342499000043 ], [ 14.553208, 50.163696999000081 ], [ 14.560343500000045, 50.161989499000072 ], [ 14.561158, 50.161533499000029 ], [ 14.562130500000023, 50.158205999000074 ], [ 14.562948, 50.156081499000038 ], [ 14.560485500000027, 50.15523599900007 ], [ 14.563052, 50.150179499000046 ], [ 14.565089, 50.150605499000051 ], [ 14.566339500000026, 50.151552999000046 ], [ 14.567152, 50.150909499000079 ], [ 14.56849150000005, 50.150746499000036 ], [ 14.568829500000049, 50.15006149900006 ], [ 14.571336500000029, 50.150093499000036 ], [ 14.573888, 50.149911999000039 ], [ 14.578627, 50.150821999000073 ], [ 14.578664, 50.150233999000079 ], [ 14.581114500000069, 50.150944999000046 ], [ 14.584084, 50.152911499000027 ], [ 14.584016, 50.15346499900005 ], [ 14.584357, 50.153511499000047 ], [ 14.586568500000055, 50.153813999000079 ], [ 14.58939950000007, 50.154439999000033 ], [ 14.59419, 50.153834499000027 ], [ 14.59622150000007, 50.153871499000047 ], [ 14.59775, 50.153890499000056 ], [ 14.596715, 50.152948499000047 ], [ 14.594471, 50.150611999000034 ], [ 14.593292500000075, 50.149849999000025 ], [ 14.593079, 50.148536999000044 ], [ 14.593060500000036, 50.147590499000046 ], [ 14.590919, 50.147159499000054 ], [ 14.588623, 50.147204999000053 ], [ 14.588165, 50.146535499000038 ], [ 14.588288, 50.145951499000034 ], [ 14.587723500000038, 50.145272499000043 ], [ 14.587994, 50.144246499000076 ], [ 14.591288500000076, 50.142818999000042 ], [ 14.589598, 50.139458499000057 ], [ 14.590555, 50.139361999000073 ], [ 14.591363500000057, 50.139374499000041 ], [ 14.593059, 50.137488499000028 ], [ 14.594455, 50.134353999000041 ], [ 14.596672500000068, 50.132448999000076 ], [ 14.598905, 50.130531499000028 ], [ 14.60112950000007, 50.129156499000032 ], [ 14.604625, 50.128388999000038 ], [ 14.606225, 50.128037999000071 ], [ 14.608626, 50.127148999000042 ], [ 14.620429, 50.129795499000068 ], [ 14.621313500000042, 50.128290499000059 ], [ 14.625032500000032, 50.12845549900004 ], [ 14.632183, 50.129895999000041 ], [ 14.634649500000023, 50.127780499000039 ], [ 14.635355, 50.125897999000074 ], [ 14.635022500000048, 50.123982999000077 ], [ 14.63759, 50.123954999000034 ], [ 14.640003500000034, 50.123860999000044 ], [ 14.640965, 50.123410499000045 ], [ 14.64540850000003, 50.123424499000066 ], [ 14.647254500000031, 50.124055499000065 ], [ 14.650055, 50.123314999000058 ], [ 14.652281, 50.123370499000032 ], [ 14.658959500000037, 50.122348999000053 ], [ 14.659152500000062, 50.120566999000062 ], [ 14.657755500000064, 50.11364099900004 ], [ 14.657001500000035, 50.110643999000047 ], [ 14.657637, 50.106498999000053 ], [ 14.660587500000076, 50.106527499000038 ], [ 14.661585, 50.105068499000026 ], [ 14.663918500000023, 50.103786999000079 ], [ 14.665932500000054, 50.102680999000029 ], [ 14.668308500000023, 50.103837499000065 ], [ 14.669038, 50.10321699900004 ], [ 14.671942500000057, 50.103021999000077 ], [ 14.675646, 50.101950499000054 ], [ 14.676007, 50.101845999000034 ], [ 14.678607500000055, 50.101643999000032 ], [ 14.684111, 50.101215999000033 ], [ 14.69024550000006, 50.100738999000043 ], [ 14.691188500000067, 50.099950499000045 ], [ 14.688568, 50.098755499000049 ], [ 14.689223500000026, 50.096167999000045 ], [ 14.692570500000045, 50.095577999000056 ], [ 14.694138500000065, 50.094292999000061 ], [ 14.695739500000059, 50.094439999000031 ], [ 14.698057500000061, 50.093482499000061 ], [ 14.703654500000027, 50.092010499000025 ], [ 14.705223, 50.090408499000034 ], [ 14.70526650000005, 50.088474499000029 ], [ 14.706855, 50.087042499000063 ], [ 14.705463500000064, 50.08281499900005 ], [ 14.70279, 50.076587999000026 ], [ 14.701942, 50.076279499000066 ], [ 14.700559, 50.072405999000068 ], [ 14.69409, 50.071812499000032 ], [ 14.692191, 50.072167999000044 ], [ 14.689344500000061, 50.071057999000061 ], [ 14.686759500000051, 50.070592999000041 ], [ 14.679986, 50.069039499000041 ], [ 14.676926500000036, 50.067898999000079 ], [ 14.676683, 50.068199499000059 ], [ 14.670059, 50.065779999000029 ], [ 14.666686500000026, 50.063529499000026 ], [ 14.663744, 50.063233499000034 ], [ 14.661957, 50.063023499000053 ], [ 14.660604500000034, 50.062720999000078 ], [ 14.657938500000057, 50.062009999000054 ], [ 14.657375, 50.061130499000058 ], [ 14.655349, 50.061354499000061 ], [ 14.651387500000055, 50.06199699900003 ], [ 14.6521, 50.059502999000074 ], [ 14.645025, 50.059936999000058 ], [ 14.64589, 50.05871649900007 ], [ 14.643897500000037, 50.058237999000028 ], [ 14.642949500000043, 50.057509499000048 ], [ 14.640119, 50.056863499000031 ], [ 14.640683500000023, 50.054848999000058 ], [ 14.641251, 50.054651999000043 ], [ 14.640939, 50.052253499000074 ], [ 14.64057, 50.050589499000068 ], [ 14.640949, 50.048774499000046 ], [ 14.640126500000065, 50.048364499000058 ], [ 14.643661, 50.044266999000058 ], [ 14.643978, 50.04229299900004 ], [ 14.645712, 50.042689499000062 ], [ 14.647239500000069, 50.043251499000064 ], [ 14.647985, 50.043647499000031 ], [ 14.649036500000022, 50.045053999000061 ], [ 14.649684, 50.045650999000031 ], [ 14.654103500000076, 50.049340999000037 ], [ 14.656226500000059, 50.047305999000059 ], [ 14.65869, 50.045750999000063 ], [ 14.660139500000071, 50.045047499000077 ], [ 14.662396, 50.042255499000078 ], [ 14.66720250000003, 50.038360499000078 ], [ 14.66124, 50.037725999000031 ], [ 14.659606, 50.037762499000053 ], [ 14.657233500000075, 50.037814499000035 ], [ 14.656326, 50.031041499000025 ], [ 14.659976500000027, 50.027319499000043 ], [ 14.661351500000023, 50.025761499000055 ], [ 14.668335, 50.01879449900008 ], [ 14.669821500000069, 50.018706999000074 ], [ 14.669353500000057, 50.016292999000029 ], [ 14.668983, 50.013493999000048 ], [ 14.667514, 50.013993999000036 ], [ 14.667129500000044, 50.013457999000082 ], [ 14.665987500000028, 50.012899499000071 ], [ 14.664632, 50.013566499000035 ], [ 14.663190500000042, 50.01354199900004 ], [ 14.662876, 50.013107499000057 ], [ 14.661913, 50.013022999000043 ], [ 14.661762500000066, 50.012234499000044 ], [ 14.662791500000026, 50.01173699900005 ], [ 14.662953, 50.010455499000045 ], [ 14.661631500000055, 50.009284499000046 ], [ 14.661889, 50.008556999000064 ], [ 14.662638, 50.008166999000082 ], [ 14.662447, 50.00777049900006 ], [ 14.658867, 50.005089499000064 ], [ 14.657943, 50.004397499000049 ], [ 14.651805500000023, 50.007858999000064 ], [ 14.650037500000053, 50.008825499000068 ], [ 14.648779, 50.007809999000074 ], [ 14.646494, 50.005678499000055 ], [ 14.645486500000061, 50.004783499000041 ], [ 14.643953, 50.006371999000066 ], [ 14.642847, 50.006531499000062 ], [ 14.641944, 50.006044499000041 ], [ 14.639761, 50.006365999000082 ], [ 14.638792, 50.005940999000074 ], [ 14.63975, 50.004899499000032 ], [ 14.643307500000049, 50.001287999000056 ], [ 14.647167, 49.998759499000073 ], [ 14.640010500000074, 49.994286499000054 ], [ 14.638521, 49.995330999000032 ], [ 14.636377500000037, 49.995539999000073 ], [ 14.634112, 49.996309499000063 ], [ 14.632639500000039, 49.996304999000074 ], [ 14.630635, 49.995802499000035 ], [ 14.629431, 49.995690499000034 ], [ 14.628157500000043, 49.995902499000067 ], [ 14.625431, 49.997372999000049 ], [ 14.621977500000071, 49.998665499000026 ], [ 14.621345, 49.998323999000036 ], [ 14.619776500000057, 49.998382999000057 ], [ 14.619238, 49.997526999000058 ], [ 14.61629350000004, 49.997891999000046 ], [ 14.614568500000075, 49.999351499000056 ], [ 14.613635, 50.000039499000081 ], [ 14.612642500000049, 50.00015249900008 ], [ 14.611318500000039, 49.999735499000053 ], [ 14.612182, 49.998966999000061 ], [ 14.611507, 49.998554499000079 ], [ 14.610413, 49.998588999000049 ], [ 14.609615500000075, 49.999423999000044 ], [ 14.608627, 50.000091999000063 ], [ 14.608286500000077, 50.000815999000054 ], [ 14.60916050000003, 50.001596999000071 ], [ 14.609067500000037, 50.002005499000063 ], [ 14.608112, 50.002368999000055 ], [ 14.60789950000003, 50.002933999000049 ], [ 14.605742500000076, 50.002515499000026 ], [ 14.603484, 50.001749499000027 ], [ 14.602866, 50.006662999000071 ], [ 14.601994, 50.009464999000045 ], [ 14.599068500000044, 50.009056499000053 ], [ 14.597555, 50.008603999000059 ], [ 14.594881, 50.007455999000058 ], [ 14.594442500000071, 50.009999999000058 ], [ 14.592752500000074, 50.009451499000079 ], [ 14.59176, 50.009729999000058 ], [ 14.589142500000037, 50.008714499000064 ], [ 14.588651, 50.008938499000067 ], [ 14.587871, 50.010028499000043 ], [ 14.58708850000005, 50.011497499000029 ], [ 14.584286, 50.01117399900005 ], [ 14.581365, 50.011024999000028 ], [ 14.5816, 50.013690999000062 ], [ 14.581863500000054, 50.015114999000048 ], [ 14.582342, 50.01668999900005 ], [ 14.58082950000005, 50.01596949900005 ], [ 14.576483, 50.013940499000057 ], [ 14.574916500000029, 50.01259249900005 ], [ 14.573509, 50.010957999000027 ], [ 14.571980500000052, 50.009514999000032 ], [ 14.568318, 50.00750399900005 ], [ 14.567900500000064, 50.008368999000027 ], [ 14.567564, 50.009476999000071 ], [ 14.564137500000072, 50.009738499000036 ], [ 14.563264500000059, 50.011530999000058 ], [ 14.557651, 50.011904499000082 ], [ 14.553806500000064, 50.012110499000073 ], [ 14.554092500000024, 50.011463499000058 ], [ 14.553903, 50.011012999000059 ], [ 14.553471, 50.011080499000059 ], [ 14.553071500000044, 50.01086949900008 ], [ 14.553447500000061, 50.009963999000036 ], [ 14.550897500000076, 50.008538499000053 ], [ 14.550897, 50.008106999000063 ], [ 14.54711750000007, 50.008763999000053 ], [ 14.545936500000039, 50.008990499000049 ], [ 14.544130500000051, 50.007908999000051 ], [ 14.541815500000041, 50.008417499000075 ], [ 14.541030500000033, 50.010135499000057 ], [ 14.535725500000069, 50.01196999900003 ], [ 14.529901500000051, 50.010873999000069 ], [ 14.527648500000055, 50.010860999000045 ], [ 14.521158, 50.007704499000056 ], [ 14.530073500000071, 50.000675499000067 ], [ 14.529514, 50.000381499000071 ], [ 14.528349500000047, 49.999769499000081 ], [ 14.524334, 49.997401499000034 ], [ 14.519083, 49.997044999000082 ], [ 14.51925250000005, 49.996383499000046 ], [ 14.518155500000034, 49.99628799900006 ], [ 14.518747, 49.995078999000043 ], [ 14.518821500000058, 49.994797499000072 ], [ 14.517996500000038, 49.994515999000043 ], [ 14.517512500000066, 49.995210999000051 ], [ 14.516126, 49.995006999000054 ], [ 14.513380500000039, 49.99466299900007 ], [ 14.513438500000063, 49.994129499000053 ], [ 14.513686500000063, 49.992563499000028 ], [ 14.509893500000032, 49.99233749900003 ], [ 14.508191, 49.992160999000077 ], [ 14.507406500000059, 49.993437499000038 ], [ 14.509312, 49.99390149900006 ], [ 14.507311, 49.997439499000052 ], [ 14.496921500000042, 49.995267999000077 ], [ 14.488489500000071, 49.993467499000076 ], [ 14.484229, 49.992453999000077 ], [ 14.484887, 49.990962999000033 ], [ 14.484296, 49.988472499000068 ], [ 14.48409950000007, 49.987644499000055 ], [ 14.487392, 49.987651499000037 ], [ 14.48694050000006, 49.985892499000045 ], [ 14.481905500000039, 49.985141999000064 ], [ 14.476364500000045, 49.984224499000049 ], [ 14.474712, 49.983944999000073 ], [ 14.473914500000035, 49.983446499000081 ], [ 14.473830500000076, 49.980368999000063 ], [ 14.469468500000062, 49.980070499000078 ], [ 14.466346, 49.980738999000039 ], [ 14.46628, 49.97964199900008 ], [ 14.465976, 49.978484499000047 ], [ 14.465722500000027, 49.977294999000037 ], [ 14.465133, 49.975255999000069 ], [ 14.464139, 49.97277899900007 ], [ 14.462532500000066, 49.972820499000079 ], [ 14.461463, 49.970847999000057 ], [ 14.45897750000006, 49.971486999000035 ], [ 14.457565500000044, 49.971849999000028 ], [ 14.453931, 49.971917499000028 ], [ 14.447757, 49.973835999000073 ], [ 14.445831, 49.973751999000058 ], [ 14.444478500000059, 49.973804999000038 ], [ 14.443196500000056, 49.971010499000045 ], [ 14.440964500000064, 49.969212999000035 ], [ 14.439089500000023, 49.968180999000026 ], [ 14.437137500000063, 49.967873499000063 ], [ 14.434821500000055, 49.967810999000051 ], [ 14.430030500000044, 49.96673049900005 ], [ 14.428148500000077, 49.964693499000077 ], [ 14.426964, 49.964697999000066 ], [ 14.421704, 49.964050999000051 ], [ 14.419447, 49.963898499000038 ], [ 14.417249, 49.964255999000045 ], [ 14.41591550000004, 49.96486599900004 ], [ 14.414720500000044, 49.965723999000033 ], [ 14.412058, 49.966194999000038 ], [ 14.410942500000033, 49.96650549900005 ], [ 14.408967500000074, 49.968082999000046 ], [ 14.406921500000067, 49.968597499000055 ], [ 14.404649500000062, 49.969503499000041 ], [ 14.402062500000056, 49.971437999000045 ], [ 14.400861500000076, 49.970375999000055 ], [ 14.400722, 49.970090499000037 ], [ 14.40106, 49.967712499000072 ], [ 14.399131500000067, 49.967638499000032 ], [ 14.399187, 49.966039499000033 ], [ 14.398267500000031, 49.962551499000028 ], [ 14.397617, 49.961025999000071 ], [ 14.395731, 49.957831999000064 ], [ 14.395204, 49.955335499000057 ], [ 14.394800500000031, 49.950847499000076 ], [ 14.394779, 49.949824499000044 ], [ 14.395153500000049, 49.948898499000052 ], [ 14.39569750000004, 49.948070999000038 ], [ 14.396195500000033, 49.947310999000081 ], [ 14.396765, 49.946441499000059 ], [ 14.397144, 49.945319999000048 ], [ 14.397112, 49.944401499000037 ], [ 14.396893500000033, 49.943294999000045 ], [ 14.395830500000045, 49.941982499000062 ], [ 14.395383500000037, 49.941646499000058 ], [ 14.394902, 49.941929999000081 ], [ 14.394095500000049, 49.942333499000028 ], [ 14.39373850000004, 49.942530999000041 ], [ 14.393313500000033, 49.942823999000041 ], [ 14.39268, 49.943260499000075 ], [ 14.392098500000031, 49.943660999000031 ], [ 14.390763, 49.94403999900004 ], [ 14.390387500000031, 49.944442499000047 ], [ 14.388907, 49.945275499000047 ], [ 14.388831500000038, 49.947883499000056 ], [ 14.388222, 49.949603499000034 ], [ 14.387474500000053, 49.949941999000032 ], [ 14.386403500000029, 49.949534999000036 ], [ 14.384799, 49.94914299900006 ], [ 14.379893500000037, 49.949297499000068 ], [ 14.378643500000067, 49.948376499000062 ], [ 14.376907500000073, 49.946571999000071 ], [ 14.375946, 49.947029999000051 ], [ 14.375489, 49.946798499000067 ], [ 14.374677, 49.946570999000073 ], [ 14.373211, 49.946624499000052 ], [ 14.372289500000022, 49.946943999000041 ], [ 14.371732, 49.947356999000078 ], [ 14.371500500000025, 49.94780399900003 ], [ 14.371467500000051, 49.948376999000061 ], [ 14.371812, 49.949862999000061 ], [ 14.371029, 49.950639999000032 ], [ 14.370093, 49.95108299900005 ], [ 14.368713, 49.951402999000038 ], [ 14.367187500000057, 49.951202499000033 ], [ 14.36694650000004, 49.950507999000081 ], [ 14.366135500000041, 49.949563999000077 ], [ 14.364890500000058, 49.949296999000069 ], [ 14.360329, 49.947395499000038 ], [ 14.358614, 49.948642999000072 ], [ 14.353809500000068, 49.947861999000054 ], [ 14.350275, 49.948145999000076 ], [ 14.347019, 49.948043999000049 ], [ 14.343849500000033, 49.947539499000072 ], [ 14.341753500000038, 49.947730499000045 ], [ 14.341176, 49.94859449900008 ], [ 14.340519, 49.948693499000058 ], [ 14.338305500000047, 49.948354499000061 ], [ 14.337697, 49.948249499000042 ], [ 14.337216500000068, 49.949451999000075 ], [ 14.335919, 49.951371499000061 ], [ 14.334384500000056, 49.952954999000042 ], [ 14.332161, 49.954292999000074 ], [ 14.329962, 49.955344999000033 ], [ 14.328312, 49.955917999000064 ], [ 14.326628500000027, 49.956671999000037 ], [ 14.32586, 49.957451499000058 ], [ 14.325672500000053, 49.95867049900005 ], [ 14.325908, 49.959807499000078 ], [ 14.326015, 49.960033499000076 ], [ 14.326876500000026, 49.960791999000037 ], [ 14.327210500000035, 49.961530499000048 ], [ 14.327221500000064, 49.96273099900003 ], [ 14.32768, 49.963741499000037 ], [ 14.328529500000059, 49.96460649900007 ], [ 14.330618, 49.96544349900006 ], [ 14.332161500000041, 49.966229999000063 ], [ 14.333166, 49.966752499000052 ], [ 14.334041500000069, 49.967170499000076 ], [ 14.335334500000044, 49.967402999000058 ], [ 14.336748500000056, 49.967050999000037 ], [ 14.338302500000054, 49.966444999000032 ], [ 14.339406, 49.966146999000046 ], [ 14.340596500000061, 49.965979999000069 ], [ 14.341521, 49.965818999000078 ], [ 14.342838500000028, 49.966272999000068 ], [ 14.343800500000043, 49.966647499000032 ], [ 14.344383, 49.967227999000045 ], [ 14.344998500000031, 49.968003499000076 ], [ 14.345491500000037, 49.970905499000025 ], [ 14.345757, 49.971577499000034 ], [ 14.346318500000052, 49.972126999000068 ], [ 14.347233500000073, 49.972705499000028 ], [ 14.347076, 49.972886499000026 ], [ 14.346539, 49.973503999000059 ], [ 14.345741, 49.974259499000027 ], [ 14.345210500000064, 49.974224499000059 ], [ 14.341461500000037, 49.973936999000045 ], [ 14.339638, 49.973594499000058 ], [ 14.33718250000004, 49.972910499000079 ], [ 14.335010500000067, 49.972072499000035 ], [ 14.333080500000051, 49.971073499000056 ], [ 14.331713500000035, 49.971105499000032 ], [ 14.327273, 49.970680999000081 ], [ 14.326764, 49.971490999000082 ], [ 14.327661, 49.973005999000065 ], [ 14.330276, 49.974406499000054 ], [ 14.329319500000054, 49.974707999000032 ], [ 14.330337, 49.975575499000058 ], [ 14.332301, 49.97585699900003 ], [ 14.332456500000035, 49.977423999000052 ], [ 14.334952, 49.977491999000051 ], [ 14.335199500000044, 49.978410499000063 ], [ 14.336489, 49.979194999000072 ], [ 14.337606500000049, 49.979808499000058 ], [ 14.339594500000032, 49.980754499000057 ], [ 14.339374, 49.981095999000047 ], [ 14.338761, 49.981318499000054 ], [ 14.338535500000035, 49.981951499000047 ], [ 14.33767, 49.982373499000062 ], [ 14.337739, 49.982744999000033 ], [ 14.338681500000064, 49.983213499000044 ], [ 14.339162, 49.983662999000046 ], [ 14.339063500000066, 49.984488999000064 ], [ 14.339034, 49.985081499000046 ], [ 14.338827, 49.985264999000037 ], [ 14.338632500000074, 49.985725999000067 ], [ 14.337037500000065, 49.985850999000036 ], [ 14.335564, 49.986440999000081 ], [ 14.334686500000032, 49.986890999000082 ], [ 14.334816500000045, 49.988016999000081 ], [ 14.3353, 49.988607999000067 ], [ 14.335978, 49.988850999000078 ], [ 14.33705150000003, 49.98891799900008 ], [ 14.338458, 49.989235999000073 ], [ 14.341295500000058, 49.989970499000037 ], [ 14.342596, 49.990573999000048 ], [ 14.341920500000072, 49.990887499000053 ], [ 14.34037, 49.991228499000044 ], [ 14.33849, 49.991641499000082 ], [ 14.3382, 49.992027999000072 ], [ 14.337647, 49.993006999000045 ], [ 14.337278, 49.993423999000072 ], [ 14.33564, 49.993912999000031 ], [ 14.334173, 49.99360499900007 ], [ 14.333069, 49.993257499000038 ], [ 14.328072, 49.991682499000035 ], [ 14.32668, 49.991028499000038 ], [ 14.326468500000033, 49.991503499000032 ], [ 14.319983, 49.989334499000051 ], [ 14.318033, 49.988982999000029 ], [ 14.3176, 49.989720999000042 ], [ 14.31713, 49.990631499000074 ], [ 14.314969500000075, 49.992273499000078 ], [ 14.31390650000003, 49.99466299900007 ], [ 14.309967500000027, 49.993886499000041 ], [ 14.309497, 49.994461499000067 ], [ 14.307169, 49.995435499000052 ], [ 14.307584, 49.996145999000078 ], [ 14.306943500000045, 49.99686949900007 ], [ 14.306441, 49.997207999000068 ], [ 14.30509550000005, 49.997684999000057 ], [ 14.302878500000077, 49.997556499000041 ], [ 14.30104, 49.997955999000055 ], [ 14.300436500000046, 49.998466999000073 ], [ 14.301476500000035, 49.999230999000076 ], [ 14.301802500000065, 50.000001499000064 ], [ 14.300107500000024, 49.999990499000035 ], [ 14.299480500000072, 50.000357499000074 ], [ 14.297334500000034, 50.000658999000052 ], [ 14.295416, 50.002187999000057 ], [ 14.30068250000005, 50.004425999000034 ], [ 14.300141, 50.006424499000047 ], [ 14.300384, 50.010116999000047 ], [ 14.300805500000024, 50.011460999000064 ], [ 14.30246, 50.011074499000074 ], [ 14.304991, 50.00882449900007 ], [ 14.306746, 50.007992499000068 ], [ 14.308468, 50.007403999000076 ], [ 14.311027500000023, 50.007359499000074 ], [ 14.311696, 50.009320999000067 ], [ 14.312792500000057, 50.011922499000036 ], [ 14.312642, 50.012596999000039 ], [ 14.312962500000026, 50.013205999000036 ], [ 14.313952500000028, 50.013951499000029 ], [ 14.314698, 50.014648499000032 ], [ 14.315295, 50.016515999000035 ], [ 14.315569, 50.018757999000059 ], [ 14.316209, 50.020683499000029 ], [ 14.316174500000045, 50.02177449900006 ], [ 14.315979, 50.022207999000045 ], [ 14.315651, 50.02285099900007 ], [ 14.315528, 50.02387999900003 ], [ 14.305706500000042, 50.02438999900005 ], [ 14.300557500000025, 50.024892499000032 ], [ 14.297455, 50.022947499000054 ], [ 14.296502, 50.024300499000049 ], [ 14.294554500000061, 50.025625499000057 ], [ 14.291951500000039, 50.026240499000039 ], [ 14.291045, 50.026607999000078 ], [ 14.289279500000077, 50.027409499000044 ], [ 14.286973, 50.028625999000042 ], [ 14.286573, 50.02892349900003 ], [ 14.285205500000075, 50.029940999000075 ], [ 14.283306, 50.031411499000058 ], [ 14.282490500000051, 50.031979999000043 ], [ 14.281535, 50.03252149900004 ], [ 14.278763500000025, 50.033715999000037 ], [ 14.276666, 50.034609999000054 ], [ 14.274420500000076, 50.035690999000053 ], [ 14.273136500000021, 50.036498499000061 ], [ 14.271788500000071, 50.037681999000029 ], [ 14.271167, 50.038347499000054 ], [ 14.270637, 50.040037999000049 ], [ 14.270420500000057, 50.040824499000053 ], [ 14.270141, 50.043176499000026 ], [ 14.270694, 50.044513499000061 ], [ 14.271101500000043, 50.045225499000026 ], [ 14.271334500000023, 50.045585999000082 ], [ 14.271454500000061, 50.045771999000067 ], [ 14.27161, 50.046012499000028 ], [ 14.270668, 50.046714999000073 ], [ 14.270111, 50.047430499000029 ], [ 14.269666500000028, 50.047977999000068 ], [ 14.269089500000064, 50.04850699900004 ], [ 14.268129, 50.048503499000049 ], [ 14.268133500000033, 50.048861999000053 ], [ 14.26823150000007, 50.049149499000066 ], [ 14.27118, 50.049786999000048 ], [ 14.272441, 50.050559999000029 ], [ 14.271466, 50.051972999000043 ], [ 14.271318500000064, 50.053122999000038 ], [ 14.271348, 50.054293499000039 ], [ 14.267945500000053, 50.053257999000039 ], [ 14.264122500000042, 50.052329999000051 ], [ 14.262192500000026, 50.055476999000064 ], [ 14.257344500000045, 50.054310999000052 ], [ 14.255405, 50.057237999000051 ], [ 14.253094500000032, 50.057175999000037 ], [ 14.250591, 50.056759999000064 ], [ 14.249992500000076, 50.057626499000037 ], [ 14.247978500000045, 50.058284499000081 ], [ 14.247762, 50.06040099900008 ], [ 14.247534500000029, 50.062279499000056 ], [ 14.252881500000058, 50.062462999000047 ], [ 14.253941500000053, 50.063050999000041 ], [ 14.258772500000077, 50.064613499000075 ], [ 14.25903, 50.067267499000081 ], [ 14.258739, 50.067493999000078 ], [ 14.258227, 50.067892999000037 ], [ 14.257782500000076, 50.070322499000042 ], [ 14.258033500000067, 50.071472499000038 ], [ 14.258527500000071, 50.071537499000044 ], [ 14.267116500000043, 50.072665499000038 ], [ 14.27523750000006, 50.072911999000041 ], [ 14.278221, 50.070539999000061 ], [ 14.278811500000074, 50.070613999000045 ], [ 14.277858, 50.072213999000041 ], [ 14.277718, 50.072858999000061 ], [ 14.27988, 50.073053499000082 ], [ 14.280712, 50.073266999000055 ], [ 14.281484, 50.073464499000067 ], [ 14.282373500000062, 50.074222999000028 ], [ 14.284637500000031, 50.073586499000044 ], [ 14.28711450000003, 50.073411499000031 ], [ 14.287271, 50.07339999900006 ], [ 14.288189, 50.073335499000052 ], [ 14.290037, 50.073204499000042 ], [ 14.290223, 50.074021999000081 ], [ 14.290380500000026, 50.074715499000035 ], [ 14.290071, 50.075525499000037 ], [ 14.289469, 50.076728999000068 ], [ 14.289164, 50.077450999000064 ], [ 14.288011, 50.077355499000078 ], [ 14.286511, 50.077695999000071 ], [ 14.285937500000045, 50.078745999000034 ], [ 14.285668, 50.079357999000081 ], [ 14.285409500000071, 50.079944499000078 ], [ 14.285246, 50.080310999000062 ], [ 14.285006, 50.080603499000063 ], [ 14.284240500000067, 50.081301499000062 ], [ 14.283675, 50.081747499000073 ], [ 14.282028, 50.081551999000055 ], [ 14.277053500000022, 50.080962499000066 ], [ 14.275169500000061, 50.080950499000039 ], [ 14.274679, 50.08485199900008 ], [ 14.274190500000032, 50.085903999000038 ], [ 14.273788, 50.086707499000056 ], [ 14.273334500000033, 50.087450499000056 ], [ 14.272411500000032, 50.087474999000051 ], [ 14.271905, 50.086886499000059 ], [ 14.271353500000032, 50.086198999000032 ], [ 14.268400500000041, 50.086246999000082 ], [ 14.266808500000025, 50.086465499000042 ], [ 14.265134, 50.087248499000054 ], [ 14.262054500000033, 50.087347499000032 ], [ 14.261162500000069, 50.087795499000038 ], [ 14.260924, 50.093297499000073 ], [ 14.260965, 50.096377999000026 ], [ 14.258895, 50.096489999000028 ], [ 14.254749, 50.09694599900007 ], [ 14.254029, 50.097954999000081 ], [ 14.255008500000031, 50.098690499000043 ], [ 14.25830250000007, 50.099412999000037 ], [ 14.252617500000042, 50.102141499000027 ], [ 14.249635500000068, 50.103572499000052 ], [ 14.246693, 50.10306999900007 ], [ 14.244847, 50.102852499000051 ], [ 14.238593, 50.102026999000032 ], [ 14.237591500000065, 50.101148999000031 ], [ 14.236545, 50.101054999000041 ], [ 14.234843500000068, 50.101629999000068 ], [ 14.233055, 50.102233999000077 ], [ 14.231572500000027, 50.101837999000054 ], [ 14.226829, 50.100495499000033 ], [ 14.226279, 50.10049249900004 ], [ 14.224306, 50.102918999000053 ], [ 14.225484, 50.103993999000068 ], [ 14.22756, 50.104261999000073 ], [ 14.230825, 50.105121999000062 ], [ 14.231038500000068, 50.10572649900007 ], [ 14.236707500000023, 50.107367999000076 ], [ 14.237364, 50.106659999000044 ], [ 14.239608500000031, 50.10730649900006 ], [ 14.239154, 50.107951999000079 ], [ 14.237956500000053, 50.108550499000046 ], [ 14.237288500000034, 50.109600499000067 ], [ 14.237094, 50.110491499000034 ], [ 14.238704, 50.111746999000047 ], [ 14.239881, 50.111388499000043 ], [ 14.240733, 50.111253499000043 ], [ 14.242127, 50.111237499000026 ], [ 14.244722, 50.109986499000058 ], [ 14.249797, 50.110650999000029 ], [ 14.256227, 50.112509499000055 ], [ 14.255544, 50.11317499900008 ], [ 14.257179500000063, 50.114809999000045 ], [ 14.260083, 50.113582999000073 ], [ 14.265983500000061, 50.115282499000045 ], [ 14.273692, 50.117480499000067 ], [ 14.27448, 50.117729999000062 ], [ 14.278362, 50.118959999000026 ], [ 14.278936, 50.11862749900007 ], [ 14.281439500000033, 50.117176999000037 ], [ 14.282455, 50.116588999000044 ], [ 14.284029, 50.11563299900007 ], [ 14.284901500000046, 50.115103499000043 ], [ 14.285677, 50.115511499000036 ], [ 14.286502, 50.115946499000074 ], [ 14.287742, 50.116089999000053 ], [ 14.291625500000066, 50.117760499000042 ], [ 14.29197750000003, 50.118157499000063 ], [ 14.292203500000028, 50.118242499000075 ], [ 14.293930500000045, 50.118894499000078 ], [ 14.296095, 50.119804499000054 ], [ 14.297468, 50.120873499000027 ], [ 14.295467500000029, 50.122699999000076 ], [ 14.295109500000024, 50.124558999000044 ], [ 14.30014, 50.126642999000069 ], [ 14.300981500000034, 50.127491999000028 ], [ 14.300439500000039, 50.127729999000053 ], [ 14.300937, 50.128519499000049 ], [ 14.300526500000046, 50.128768999000044 ], [ 14.301255, 50.129521999000076 ], [ 14.302166, 50.129431999000076 ], [ 14.302425500000027, 50.130085499000074 ], [ 14.303597, 50.129616999000064 ], [ 14.303934500000025, 50.12970449900007 ], [ 14.304406500000027, 50.129698999000027 ], [ 14.305479500000047, 50.130186499000047 ], [ 14.305863, 50.12967799900008 ], [ 14.306167500000072, 50.129273999000077 ], [ 14.308952, 50.128147499000079 ], [ 14.310410500000046, 50.12801999900006 ], [ 14.315953500000035, 50.128619499000081 ], [ 14.315829500000063, 50.128109499000061 ], [ 14.315765, 50.125328999000033 ], [ 14.315712, 50.123049499000047 ], [ 14.317147, 50.121120499000028 ], [ 14.317718, 50.118927499000051 ], [ 14.319631500000071, 50.117477999000073 ], [ 14.320596, 50.116379499000061 ], [ 14.320514, 50.115187999000057 ], [ 14.327259, 50.11672549900004 ], [ 14.339495500000055, 50.116851499000063 ], [ 14.345874500000036, 50.116266999000061 ], [ 14.349576, 50.116409999000041 ], [ 14.354205500000035, 50.116154999000059 ], [ 14.360491, 50.115916999000035 ], [ 14.361499500000036, 50.116360999000051 ], [ 14.360453500000062, 50.11750949900005 ], [ 14.360687, 50.119090499000038 ], [ 14.358656, 50.121737999000061 ], [ 14.357055500000058, 50.123091499000054 ], [ 14.355476, 50.124571499000069 ], [ 14.356141500000035, 50.125534499000025 ], [ 14.359725, 50.129585999000028 ], [ 14.357330500000046, 50.129691999000045 ], [ 14.356975500000033, 50.131183999000029 ], [ 14.356605500000057, 50.132739499000081 ], [ 14.35633050000007, 50.136584499000037 ], [ 14.354645500000061, 50.136243999000044 ], [ 14.354091500000038, 50.137474999000062 ], [ 14.354875, 50.137860499000055 ], [ 14.355264, 50.138600499000063 ], [ 14.356019, 50.138982999000064 ], [ 14.35751, 50.139301499000055 ], [ 14.358029, 50.140679999000042 ], [ 14.355925, 50.140626999000062 ], [ 14.357584, 50.141906499000072 ], [ 14.362195500000041, 50.146511499000042 ], [ 14.362973, 50.146654999000077 ], [ 14.365116500000056, 50.147732499000028 ], [ 14.36571, 50.148030499000072 ], [ 14.367274500000065, 50.147631499000056 ], [ 14.369275, 50.147679999000047 ], [ 14.37176450000004, 50.148094999000079 ], [ 14.373114500000042, 50.147451999000054 ], [ 14.375591, 50.147078499000031 ], [ 14.378371500000071, 50.146544999000071 ], [ 14.380843500000026, 50.146620499000051 ], [ 14.381663, 50.146981499000049 ], [ 14.384434, 50.14725099900005 ], [ 14.385851, 50.14600099900008 ], [ 14.386227500000075, 50.146338999000079 ], [ 14.387552500000027, 50.14586299900003 ], [ 14.387260500000025, 50.145485499000074 ], [ 14.390976500000022, 50.144097999000053 ], [ 14.392063500000063, 50.142638499000043 ], [ 14.39225650000003, 50.142045999000061 ], [ 14.39235750000006, 50.141734499000052 ], [ 14.392935500000021, 50.141368499000066 ], [ 14.393639, 50.141368499000066 ], [ 14.394304500000032, 50.141453499000079 ], [ 14.394777500000032, 50.14150199900007 ], [ 14.396344, 50.14223449900004 ], [ 14.398074500000064, 50.143492499000047 ], [ 14.398508500000048, 50.143436999000073 ], [ 14.399640500000032, 50.143396499000062 ], [ 14.399846500000024, 50.144376999000031 ], [ 14.400205, 50.146329999000045 ], [ 14.400403500000039, 50.147856499000056 ], [ 14.40093, 50.147719499000061 ], [ 14.404011, 50.147166999000035 ], [ 14.406508500000029, 50.147079999000027 ], [ 14.411734500000023, 50.148040999000045 ], [ 14.415545, 50.148250999000027 ], [ 14.41966750000006, 50.149280999000041 ], [ 14.422277500000064, 50.149824499000033 ], [ 14.420531500000038, 50.150822499000071 ], [ 14.419975500000078, 50.152929499000038 ], [ 14.423287500000072, 50.152727999000035 ], [ 14.429180500000029, 50.153495999000029 ], [ 14.428311, 50.157557999000062 ], [ 14.430109, 50.158025999000074 ], [ 14.435933, 50.158786999000029 ], [ 14.436699500000032, 50.157500499000037 ], [ 14.443290500000046, 50.157688999000072 ], [ 14.451512500000035, 50.157875999000055 ], [ 14.451916500000038, 50.157945999000049 ], [ 14.455079500000068, 50.15849649900008 ], [ 14.460440500000061, 50.158995999000069 ], [ 14.464085500000067, 50.159786499000063 ], [ 14.464214, 50.164698999000052 ], [ 14.466817, 50.165462499000057 ], [ 14.466766500000062, 50.166255999000043 ], [ 14.466580500000077, 50.169172499000069 ], [ 14.466911500000037, 50.169561499000054 ], [ 14.479796, 50.169831999000053 ], [ 14.47975450000007, 50.172361499000033 ], [ 14.484113500000035, 50.172350499000061 ], [ 14.491683500000022, 50.172329999000056 ], [ 14.49788250000006, 50.172039999000049 ], [ 14.507307, 50.17126999900006 ], [ 14.508659, 50.173435999000048 ], [ 14.50944, 50.17417849900005 ], [ 14.516093, 50.174961999000061 ], [ 14.5189, 50.174838499000032 ], [ 14.525566, 50.176197499000068 ], [ 14.526889500000038, 50.177443499000049 ], [ 14.532412500000078, 50.177222999000037 ] ] ] } }
]
}
