{
"type": "FeatureCollection",
"name": "radom",
"crs": { "type": "name", "properties": { "name": "urn:ogc:def:crs:OGC:1.3:CRS84" } },
"features": [
{ "type": "Feature", "properties": { }, "geometry": { "type": "Polygon", "coordinates": [ [ [ 21.181411, 51.48551549900003 ], [ 21.18069950000006, 51.485246499000027 ], [ 21.180786, 51.484685999000078 ], [ 21.18157750000006, 51.48360849900007 ], [ 21.181629, 51.483324999000047 ], [ 21.18161, 51.483124499000041 ], [ 21.181454500000029, 51.482846499000061 ], [ 21.181382, 51.482589999000027 ], [ 21.18161850000007, 51.481326499000033 ], [ 21.181993500000033, 51.480238999000051 ], [ 21.182107, 51.480000999000026 ], [ 21.183055500000023, 51.480133499000033 ], [ 21.183479, 51.479607499000053 ], [ 21.18312, 51.479097999000032 ], [ 21.183151, 51.478925999000069 ], [ 21.183568500000035, 51.478605999000081 ], [ 21.184158, 51.478445499000031 ], [ 21.184652, 51.478543999000067 ], [ 21.185119500000042, 51.477141499000027 ], [ 21.185685500000034, 51.47668199900005 ], [ 21.186759500000051, 51.476297499000054 ], [ 21.187730500000043, 51.475314499000035 ], [ 21.18866950000006, 51.474890999000081 ], [ 21.189346500000056, 51.474825999000075 ], [ 21.190232500000036, 51.47434449900004 ], [ 21.190103500000077, 51.474100999000029 ], [ 21.190237, 51.474042499000063 ], [ 21.191446, 51.47523299900007 ], [ 21.191983500000049, 51.474933499000031 ], [ 21.192495500000064, 51.473523499000066 ], [ 21.193401, 51.473072999000067 ], [ 21.194063500000027, 51.472192999000072 ], [ 21.195496, 51.471732499000041 ], [ 21.196430500000076, 51.47092899900008 ], [ 21.196558500000037, 51.470554499000059 ], [ 21.196123500000056, 51.468830999000033 ], [ 21.196706, 51.467893999000069 ], [ 21.196229500000072, 51.467367499000034 ], [ 21.196405, 51.466132499000082 ], [ 21.198277500000074, 51.464637999000047 ], [ 21.200654, 51.464284999000029 ], [ 21.202418500000078, 51.46355599900005 ], [ 21.20308650000004, 51.462856499000054 ], [ 21.206185500000061, 51.462000499000055 ], [ 21.206480500000055, 51.461744499000076 ], [ 21.206845500000043, 51.460581999000055 ], [ 21.209179, 51.459414499000047 ], [ 21.211639500000047, 51.458996999000078 ], [ 21.214956, 51.456742499000029 ], [ 21.22052350000007, 51.454363999000066 ], [ 21.225647500000036, 51.450921999000059 ], [ 21.226691, 51.449830999000028 ], [ 21.226922500000057, 51.449294999000074 ], [ 21.227504500000066, 51.448950499000034 ], [ 21.230158, 51.448299999000028 ], [ 21.23113550000005, 51.448049499000035 ], [ 21.23206250000004, 51.447799499000041 ], [ 21.233074, 51.446909499000071 ], [ 21.234130500000049, 51.446995499000082 ], [ 21.235333, 51.446641999000065 ], [ 21.23708350000004, 51.446597499000063 ], [ 21.237766, 51.446897999000043 ], [ 21.238424500000065, 51.447164499000053 ], [ 21.239018500000043, 51.447256999000047 ], [ 21.240383, 51.447358999000073 ], [ 21.24105, 51.447311499000079 ], [ 21.242602500000032, 51.447334499000078 ], [ 21.243310500000064, 51.447354499000028 ], [ 21.243704500000035, 51.447305999000037 ], [ 21.244647, 51.446928999000079 ], [ 21.245165, 51.446465999000054 ], [ 21.2458, 51.445873499000072 ], [ 21.24596850000006, 51.445512999000073 ], [ 21.245719, 51.44520299900006 ], [ 21.246723, 51.444896499000038 ], [ 21.246865, 51.444963999000038 ], [ 21.247627, 51.444949499000074 ], [ 21.248659, 51.44463199900008 ], [ 21.249167500000055, 51.444332499000041 ], [ 21.250665500000025, 51.443971499000043 ], [ 21.25084350000003, 51.443607999000051 ], [ 21.250778, 51.443423499000062 ], [ 21.250817, 51.443248499000049 ], [ 21.251056, 51.44283099900008 ], [ 21.251554500000054, 51.442664999000044 ], [ 21.252153500000077, 51.442591999000058 ], [ 21.253093500000034, 51.442605499000081 ], [ 21.253419500000064, 51.442373499000041 ], [ 21.254056, 51.442280499000049 ], [ 21.254804, 51.442421499000034 ], [ 21.255185500000039, 51.442311499000027 ], [ 21.255696, 51.44205499900005 ], [ 21.256556500000045, 51.441839999000081 ], [ 21.256984, 51.441790499000035 ], [ 21.258039, 51.441785499000048 ], [ 21.258819, 51.441336999000043 ], [ 21.259069500000066, 51.440986999000074 ], [ 21.258483, 51.440260999000031 ], [ 21.258221500000047, 51.438805499000068 ], [ 21.251208, 51.439543499000081 ], [ 21.249614, 51.437332999000034 ], [ 21.250536, 51.433332499000073 ], [ 21.256812500000024, 51.431632499000045 ], [ 21.243699500000048, 51.432231499000068 ], [ 21.242714, 51.431992999000045 ], [ 21.219713, 51.423986999000078 ], [ 21.220129, 51.422311999000044 ], [ 21.221416500000032, 51.421997499000042 ], [ 21.220155, 51.421136499000056 ], [ 21.217823500000065, 51.420044499000028 ], [ 21.218687500000044, 51.419241999000064 ], [ 21.218426500000078, 51.417464499000062 ], [ 21.212507, 51.417774499000075 ], [ 21.21012, 51.417467499000054 ], [ 21.208640500000058, 51.411623999000028 ], [ 21.204374, 51.412241999000059 ], [ 21.203725500000075, 51.41044449900005 ], [ 21.203654500000027, 51.408614999000065 ], [ 21.203962500000046, 51.408638499000062 ], [ 21.202077, 51.40481999900004 ], [ 21.202406500000052, 51.40475649900003 ], [ 21.201728500000058, 51.402667999000073 ], [ 21.203208500000073, 51.401643999000044 ], [ 21.205109500000049, 51.400855999000044 ], [ 21.205867500000068, 51.400372499000071 ], [ 21.215147500000057, 51.398889999000062 ], [ 21.213969500000076, 51.395234999000081 ], [ 21.232046500000024, 51.393473499000038 ], [ 21.232823500000052, 51.391766999000026 ], [ 21.233889500000032, 51.389399999000034 ], [ 21.232397500000047, 51.386328999000057 ], [ 21.226528500000029, 51.385312499000065 ], [ 21.223665, 51.384032499000057 ], [ 21.223178, 51.381827499000053 ], [ 21.222227500000031, 51.381868999000062 ], [ 21.222168, 51.381654499000035 ], [ 21.21941350000003, 51.38193349900007 ], [ 21.216946, 51.382548499000052 ], [ 21.214939500000071, 51.374676499000032 ], [ 21.216000500000064, 51.373789499000054 ], [ 21.217122, 51.373161499000048 ], [ 21.220732, 51.372335999000029 ], [ 21.220098500000063, 51.371172499000068 ], [ 21.219826500000067, 51.370803999000032 ], [ 21.218190500000048, 51.369740999000044 ], [ 21.214999500000033, 51.366784499000062 ], [ 21.214145, 51.364036999000064 ], [ 21.212271, 51.360278999000059 ], [ 21.206077500000049, 51.359052999000028 ], [ 21.203619500000059, 51.358207999000058 ], [ 21.203234500000065, 51.357542999000032 ], [ 21.202080500000022, 51.357139999000026 ], [ 21.201347, 51.356483999000034 ], [ 21.200610500000039, 51.353879999000071 ], [ 21.200139, 51.353206499000066 ], [ 21.197725, 51.352106499000058 ], [ 21.194994, 51.348620499000049 ], [ 21.190048500000046, 51.349004999000044 ], [ 21.188085500000057, 51.349809999000058 ], [ 21.186049500000024, 51.35023699900006 ], [ 21.184247500000026, 51.350735499000052 ], [ 21.184362, 51.35085699900003 ], [ 21.182698, 51.351150499000028 ], [ 21.179120500000067, 51.352219999000056 ], [ 21.17781, 51.35228999900005 ], [ 21.175827, 51.35272149900004 ], [ 21.174394500000062, 51.353263999000035 ], [ 21.169497, 51.353945999000075 ], [ 21.165, 51.356580499000074 ], [ 21.161121, 51.35561399900007 ], [ 21.157389500000022, 51.354722999000046 ], [ 21.156167500000038, 51.355801499000052 ], [ 21.154306500000075, 51.35489749900006 ], [ 21.150636, 51.356263999000078 ], [ 21.145175, 51.357674999000039 ], [ 21.144836500000054, 51.357271999000034 ], [ 21.143955500000061, 51.357189499000071 ], [ 21.13892050000004, 51.357839999000078 ], [ 21.136163500000066, 51.357991499000036 ], [ 21.130405500000052, 51.357412499000077 ], [ 21.130010500000026, 51.357344999000077 ], [ 21.118358500000056, 51.355517999000028 ], [ 21.10242850000003, 51.352786499000047 ], [ 21.096480500000041, 51.350776999000061 ], [ 21.096874500000069, 51.350229999000078 ], [ 21.093637, 51.349563999000054 ], [ 21.090227500000026, 51.350095999000075 ], [ 21.085846500000059, 51.349809999000058 ], [ 21.084935500000029, 51.350283999000055 ], [ 21.081945, 51.349774499000034 ], [ 21.082233, 51.351214499000037 ], [ 21.073923, 51.352381999000045 ], [ 21.072248500000057, 51.353470499000082 ], [ 21.076598500000046, 51.35571199900005 ], [ 21.075520500000039, 51.355833499000028 ], [ 21.079539, 51.358451499000068 ], [ 21.076467, 51.360066999000026 ], [ 21.076468500000033, 51.361014499000078 ], [ 21.076208, 51.361402499000064 ], [ 21.059891, 51.36236449900008 ], [ 21.069080500000041, 51.368903499000055 ], [ 21.063895500000058, 51.370223999000075 ], [ 21.062321, 51.370013499000038 ], [ 21.053287, 51.369818999000074 ], [ 21.053927500000043, 51.371725499000036 ], [ 21.054428, 51.372410999000067 ], [ 21.054714, 51.372439999000051 ], [ 21.055192, 51.372929499000065 ], [ 21.054290500000036, 51.373204499000053 ], [ 21.053186500000038, 51.374915999000052 ], [ 21.058413500000029, 51.376253999000028 ], [ 21.06270150000006, 51.377747999000064 ], [ 21.063414500000079, 51.378922499000055 ], [ 21.063378, 51.379088999000032 ], [ 21.063276500000029, 51.379062999000041 ], [ 21.063589500000035, 51.380939499000078 ], [ 21.063555500000064, 51.382630999000071 ], [ 21.06382, 51.384031499000059 ], [ 21.064491, 51.384938499000043 ], [ 21.065756, 51.386187499000073 ], [ 21.06705450000004, 51.388066999000046 ], [ 21.065293500000053, 51.38881899900008 ], [ 21.06227350000006, 51.389674999000079 ], [ 21.061748500000078, 51.390041999000061 ], [ 21.061019500000043, 51.391069499000082 ], [ 21.058451, 51.398703999000077 ], [ 21.06937350000004, 51.400384999000039 ], [ 21.074217, 51.400903999000036 ], [ 21.074261, 51.404400999000075 ], [ 21.080740500000047, 51.403388999000072 ], [ 21.083450500000026, 51.403156499000033 ], [ 21.083486500000049, 51.403503499000067 ], [ 21.08536, 51.40305599900006 ], [ 21.086945, 51.404118499000049 ], [ 21.087878500000045, 51.404415999000037 ], [ 21.090672, 51.405854499000043 ], [ 21.094244, 51.406855999000072 ], [ 21.096414, 51.407214499000077 ], [ 21.097576500000059, 51.407168499000079 ], [ 21.105444, 51.40799449900004 ], [ 21.112642, 51.418285999000034 ], [ 21.11609, 51.417912499000067 ], [ 21.117494500000078, 51.417582499000048 ], [ 21.116635, 51.420495999000082 ], [ 21.122438500000044, 51.420330999000043 ], [ 21.12292, 51.42021599900005 ], [ 21.12426750000003, 51.417692999000053 ], [ 21.127795, 51.418016999000031 ], [ 21.128931, 51.428285999000082 ], [ 21.126513, 51.436898499000051 ], [ 21.120066, 51.43490299900003 ], [ 21.118723500000044, 51.434753499000067 ], [ 21.117904, 51.434825999000054 ], [ 21.118794500000035, 51.44071449900008 ], [ 21.119243, 51.441048999000031 ], [ 21.120164, 51.441393499000071 ], [ 21.120136500000058, 51.442077999000048 ], [ 21.118652, 51.443445499000063 ], [ 21.119430500000078, 51.451363499000081 ], [ 21.120597500000031, 51.451861999000073 ], [ 21.121725500000025, 51.453181499000038 ], [ 21.123939, 51.454152499000031 ], [ 21.124223500000028, 51.454238499000041 ], [ 21.125158, 51.454040999000028 ], [ 21.126289500000041, 51.454249499000071 ], [ 21.127175, 51.454575999000042 ], [ 21.128021500000045, 51.455109499000059 ], [ 21.128822, 51.455355999000062 ], [ 21.132925, 51.455854999000053 ], [ 21.134383500000069, 51.456203499000026 ], [ 21.136648500000035, 51.457103999000026 ], [ 21.138709, 51.45863349900003 ], [ 21.140054500000076, 51.459422499000027 ], [ 21.140178500000047, 51.458999499000072 ], [ 21.142084500000067, 51.459095499000057 ], [ 21.144210500000042, 51.459503999000049 ], [ 21.145093, 51.459884499000054 ], [ 21.143675500000029, 51.460396999000068 ], [ 21.145019500000046, 51.461859999000069 ], [ 21.144561, 51.464814999000055 ], [ 21.146064, 51.46408849900007 ], [ 21.1556, 51.470953999000074 ], [ 21.159676500000046, 51.472604499000056 ], [ 21.160992500000077, 51.476503999000045 ], [ 21.16225, 51.478562999000076 ], [ 21.163353, 51.478169499000046 ], [ 21.166961, 51.478267999000082 ], [ 21.169585, 51.478564999000071 ], [ 21.177442, 51.480048999000076 ], [ 21.180377, 51.483870499000034 ], [ 21.179333, 51.485611499000072 ], [ 21.181604, 51.485854499000027 ], [ 21.181411, 51.48551549900003 ] ] ] } }
]
}
