{
"type": "FeatureCollection",
"name": "rome",
"crs": { "type": "name", "properties": { "name": "urn:ogc:def:crs:OGC:1.3:CRS84" } },
"features": [
{ "type": "Feature", "properties": { }, "geometry": { "type": "MultiPolygon", "coordinates": [ [ [ [ 12.595341, 41.692137999000067 ], [ 12.591993, 41.69428749900004 ], [ 12.590476, 41.696286499000053 ], [ 12.589663500000029, 41.698021499000049 ], [ 12.586996500000055, 41.698879499000043 ], [ 12.586108, 41.699576999000044 ], [ 12.585694, 41.700126499000078 ], [ 12.585123, 41.701496999000028 ], [ 12.581266500000027, 41.705549499000028 ], [ 12.577898, 41.708675999000036 ], [ 12.575811500000043, 41.712225499000056 ], [ 12.574762500000077, 41.714468499000077 ], [ 12.573676500000033, 41.714341999000055 ], [ 12.57132, 41.713485999000056 ], [ 12.570009500000026, 41.712522999000043 ], [ 12.568024500000035, 41.711628499000028 ], [ 12.567062500000077, 41.711481999000057 ], [ 12.564897, 41.711375499000042 ], [ 12.563901500000043, 41.711194499000044 ], [ 12.560452500000054, 41.71174299900008 ], [ 12.557438, 41.711237499000049 ], [ 12.554447500000038, 41.71164649900004 ], [ 12.553075, 41.711558999000033 ], [ 12.551163, 41.711065499000028 ], [ 12.550118500000053, 41.709883999000056 ], [ 12.548994500000049, 41.709571499000049 ], [ 12.548492500000066, 41.70910599900003 ], [ 12.546460500000023, 41.70778849900006 ], [ 12.545834, 41.707031999000037 ], [ 12.545779500000037, 41.706504499000062 ], [ 12.543996, 41.705047499000045 ], [ 12.543613, 41.704129499000032 ], [ 12.543325, 41.703857999000036 ], [ 12.542201, 41.703342999000029 ], [ 12.541566500000044, 41.702721499000063 ], [ 12.541145, 41.702518499000064 ], [ 12.539446500000054, 41.702225499000065 ], [ 12.539308500000061, 41.702098999000043 ], [ 12.539309500000059, 41.700776999000027 ], [ 12.538829500000077, 41.700600499000075 ], [ 12.536718, 41.700390499000036 ], [ 12.535709500000053, 41.700091999000051 ], [ 12.53566950000004, 41.699676999000076 ], [ 12.536624, 41.698557999000059 ], [ 12.53645350000005, 41.698234999000078 ], [ 12.532714500000054, 41.697415999000043 ], [ 12.529869, 41.697341499000061 ], [ 12.524573500000031, 41.69591249900003 ], [ 12.523023500000022, 41.694897499000035 ], [ 12.51925650000004, 41.691924999000037 ], [ 12.518038, 41.690806999000074 ], [ 12.514456, 41.688182999000048 ], [ 12.513492, 41.687711499000045 ], [ 12.511476, 41.687253999000063 ], [ 12.509437500000047, 41.686529499000073 ], [ 12.509051, 41.686464999000066 ], [ 12.508519500000034, 41.686887999000078 ], [ 12.507138500000053, 41.687497499000074 ], [ 12.504724500000066, 41.689331999000046 ], [ 12.504572, 41.689702499000077 ], [ 12.504089, 41.690227999000058 ], [ 12.500346, 41.690776999000036 ], [ 12.499023, 41.691400999000052 ], [ 12.498610500000041, 41.691774999000074 ], [ 12.498364, 41.692437999000049 ], [ 12.49736850000005, 41.692882499000063 ], [ 12.496841500000073, 41.693541999000047 ], [ 12.495134500000063, 41.694067499000028 ], [ 12.494889, 41.693852999000057 ], [ 12.49500850000004, 41.693639499000028 ], [ 12.494931, 41.693148999000073 ], [ 12.494565, 41.692605499000081 ], [ 12.49405, 41.69217549900003 ], [ 12.492476500000066, 41.69153299900006 ], [ 12.488277, 41.690225499000064 ], [ 12.487123500000052, 41.690078499000037 ], [ 12.48174750000004, 41.689974499000073 ], [ 12.46824, 41.687898999000026 ], [ 12.46662850000007, 41.687511999000037 ], [ 12.464011, 41.68612549900007 ], [ 12.461859, 41.68593499900004 ], [ 12.451493, 41.681541999000046 ], [ 12.420299500000056, 41.658697499000027 ], [ 12.419695, 41.658265999000037 ], [ 12.418934500000034, 41.658040499000037 ], [ 12.418497500000058, 41.657742499000051 ], [ 12.416829500000063, 41.656502999000054 ], [ 12.41696, 41.656397999000035 ], [ 12.416086500000063, 41.655723999000031 ], [ 12.412937500000055, 41.657883499000036 ], [ 12.411394500000029, 41.659154999000066 ], [ 12.406484, 41.66195699900004 ], [ 12.404045, 41.66406949900005 ], [ 12.397340500000041, 41.669168499000079 ], [ 12.394845500000031, 41.671333999000069 ], [ 12.393671, 41.672154999000043 ], [ 12.376100500000064, 41.68303049900004 ], [ 12.364982500000053, 41.689769499000079 ], [ 12.349798500000077, 41.697760999000025 ], [ 12.340999, 41.701858999000081 ], [ 12.338305500000047, 41.703310999000053 ], [ 12.33700250000004, 41.70353699900005 ], [ 12.33472450000005, 41.704845999000042 ], [ 12.330155, 41.706469999000035 ], [ 12.329334, 41.707089999000061 ], [ 12.324427, 41.709828999000081 ], [ 12.31481, 41.713989999000034 ], [ 12.304436, 41.717934999000079 ], [ 12.302767500000073, 41.718444999000042 ], [ 12.299052500000073, 41.720077999000068 ], [ 12.297352500000045, 41.720658999000079 ], [ 12.2903, 41.724031999000033 ], [ 12.288462, 41.724744999000052 ], [ 12.277327500000069, 41.728236999000046 ], [ 12.276476500000058, 41.72853199900004 ], [ 12.274581, 41.729549999000028 ], [ 12.270351, 41.731015999000078 ], [ 12.263860500000021, 41.732933499000069 ], [ 12.263501500000075, 41.733338999000068 ], [ 12.261921500000028, 41.734057999000072 ], [ 12.257923500000061, 41.735412999000062 ], [ 12.25117750000004, 41.737249999000028 ], [ 12.246556, 41.738078999000038 ], [ 12.234401, 41.738819499000044 ], [ 12.233496500000058, 41.739256499000078 ], [ 12.231206, 41.741052999000033 ], [ 12.232229500000074, 41.741150499000071 ], [ 12.235526, 41.741879499000049 ], [ 12.241957, 41.744029499000078 ], [ 12.245703, 41.744659499000079 ], [ 12.25175, 41.745255499000052 ], [ 12.256225500000028, 41.746139999000036 ], [ 12.261509, 41.748050499000044 ], [ 12.26558, 41.749101999000061 ], [ 12.26943650000004, 41.750539999000068 ], [ 12.270140500000025, 41.750741499000071 ], [ 12.271070500000064, 41.750722999000061 ], [ 12.272778, 41.75115099900006 ], [ 12.275142, 41.752192999000044 ], [ 12.280143, 41.754805999000041 ], [ 12.281752, 41.755226999000058 ], [ 12.28543250000007, 41.755651999000065 ], [ 12.286122500000033, 41.755965499000069 ], [ 12.286505500000032, 41.756442499000059 ], [ 12.286602, 41.756856999000036 ], [ 12.286517, 41.757523499000058 ], [ 12.28634, 41.757802999000035 ], [ 12.281835, 41.761659499000075 ], [ 12.279838500000039, 41.76374049900005 ], [ 12.278978, 41.76507699900003 ], [ 12.27838950000006, 41.766836999000077 ], [ 12.278102500000045, 41.77049099900006 ], [ 12.278405500000076, 41.775626999000053 ], [ 12.279771500000038, 41.78152699900005 ], [ 12.280155500000035, 41.782400499000062 ], [ 12.281750500000044, 41.784874499000068 ], [ 12.283573500000045, 41.786867499000039 ], [ 12.28499, 41.788084999000034 ], [ 12.286681, 41.788959499000043 ], [ 12.288409500000057, 41.789385999000046 ], [ 12.291895, 41.789567499000043 ], [ 12.295892, 41.790017499000044 ], [ 12.297703500000068, 41.790721999000027 ], [ 12.299733, 41.792317499000035 ], [ 12.301806500000055, 41.794681999000034 ], [ 12.302834, 41.795575499000051 ], [ 12.304416, 41.796728999000038 ], [ 12.306111, 41.797493999000039 ], [ 12.307729, 41.797869499000058 ], [ 12.30967, 41.798081499000034 ], [ 12.313033, 41.798101999000039 ], [ 12.316953500000068, 41.797734499000057 ], [ 12.312244500000077, 41.802496499000029 ], [ 12.31145, 41.803366999000048 ], [ 12.311284, 41.803547999000045 ], [ 12.307373, 41.807522499000072 ], [ 12.306286500000056, 41.80852599900004 ], [ 12.307576500000039, 41.809199999000043 ], [ 12.307965500000023, 41.809791999000026 ], [ 12.308024500000045, 41.810434999000051 ], [ 12.307695, 41.811224499000048 ], [ 12.305587, 41.813723499000048 ], [ 12.297830500000032, 41.821412499000076 ], [ 12.297916500000042, 41.821505999000067 ], [ 12.294971, 41.824479499000063 ], [ 12.295063500000026, 41.824571499000058 ], [ 12.292301, 41.82755049900004 ], [ 12.292118, 41.827714999000079 ], [ 12.291692, 41.827657999000053 ], [ 12.285954, 41.833641499000066 ], [ 12.264949500000057, 41.853018999000028 ], [ 12.263993, 41.854337999000052 ], [ 12.263360500000033, 41.855682499000068 ], [ 12.263103, 41.85663099900006 ], [ 12.26237, 41.862309499000048 ], [ 12.26178550000003, 41.86365549900006 ], [ 12.260940500000061, 41.864891999000065 ], [ 12.253883, 41.872427499000025 ], [ 12.253013, 41.872203999000078 ], [ 12.252716500000076, 41.872300499000062 ], [ 12.251806500000043, 41.873300999000037 ], [ 12.251896500000043, 41.874077499000066 ], [ 12.251736, 41.874663499000064 ], [ 12.248779500000069, 41.877636499000062 ], [ 12.247025, 41.878652999000053 ], [ 12.238549500000033, 41.881083499000056 ], [ 12.236954500000024, 41.884608999000079 ], [ 12.237080500000047, 41.885564499000054 ], [ 12.238295500000049, 41.887714499000026 ], [ 12.239749, 41.88824949900004 ], [ 12.241254500000025, 41.889248999000074 ], [ 12.247231, 41.89018949900003 ], [ 12.248374500000068, 41.890513999000063 ], [ 12.249952500000063, 41.891510999000047 ], [ 12.256435500000066, 41.896439499000053 ], [ 12.256519, 41.896668499000043 ], [ 12.25636650000007, 41.897765999000057 ], [ 12.256863500000065, 41.899497999000062 ], [ 12.257279, 41.89999399900006 ], [ 12.259474500000067, 41.901428999000075 ], [ 12.260298, 41.902970499000048 ], [ 12.260433, 41.903689999000051 ], [ 12.260227500000042, 41.905463499000064 ], [ 12.26131950000007, 41.907619499000077 ], [ 12.26215250000007, 41.908585499000026 ], [ 12.262645500000076, 41.908686499000055 ], [ 12.263379, 41.90794549900005 ], [ 12.264076, 41.908707499000059 ], [ 12.264384500000062, 41.910236499000064 ], [ 12.264540500000066, 41.912333999000055 ], [ 12.264267500000074, 41.913214499000048 ], [ 12.264338, 41.913400999000032 ], [ 12.265291500000046, 41.914227499000049 ], [ 12.265350500000068, 41.915068499000029 ], [ 12.265533, 41.91537899900004 ], [ 12.268154, 41.918165999000053 ], [ 12.268291, 41.918983999000034 ], [ 12.268981500000052, 41.920675499000026 ], [ 12.269199, 41.921590499000047 ], [ 12.270162, 41.922686999000064 ], [ 12.270864, 41.924113499000043 ], [ 12.272541500000045, 41.926194999000074 ], [ 12.275129, 41.927944999000033 ], [ 12.276509, 41.929391999000075 ], [ 12.280126, 41.93167949900004 ], [ 12.280392, 41.932023499000024 ], [ 12.280412500000068, 41.932284999000046 ], [ 12.280658, 41.932457499000066 ], [ 12.282078, 41.93281999900006 ], [ 12.283551, 41.933629499000062 ], [ 12.283855, 41.934104999000056 ], [ 12.284160500000041, 41.935575499000038 ], [ 12.286714, 41.938287999000067 ], [ 12.292631500000027, 41.941966999000044 ], [ 12.293098500000042, 41.943533499000068 ], [ 12.293368, 41.944010499000058 ], [ 12.296704, 41.947065499000075 ], [ 12.297271500000022, 41.947769999000059 ], [ 12.298414500000035, 41.951689999000052 ], [ 12.298466, 41.953892999000061 ], [ 12.300338500000066, 41.956413499000064 ], [ 12.30107, 41.957875999000066 ], [ 12.300820500000043, 41.960783499000058 ], [ 12.300917500000025, 41.961271999000076 ], [ 12.302417500000047, 41.962504999000032 ], [ 12.304300500000068, 41.963661499000068 ], [ 12.304441500000053, 41.963903499000025 ], [ 12.301463, 41.964062999000078 ], [ 12.301007500000026, 41.964281999000036 ], [ 12.30049850000006, 41.964828499000077 ], [ 12.300099500000044, 41.964893499000027 ], [ 12.29833, 41.964324999000041 ], [ 12.297543, 41.963743499000032 ], [ 12.29712550000005, 41.963706499000068 ], [ 12.296700500000043, 41.96390849900007 ], [ 12.296231, 41.964529999000035 ], [ 12.294418, 41.965945999000041 ], [ 12.293526500000041, 41.965670499000055 ], [ 12.292396500000052, 41.964855999000065 ], [ 12.29155650000007, 41.964495999000064 ], [ 12.289572, 41.963841499000068 ], [ 12.288762, 41.963880999000025 ], [ 12.286788, 41.964693999000076 ], [ 12.28621, 41.964760999000077 ], [ 12.285906, 41.96596099900006 ], [ 12.285190500000056, 41.967040499000063 ], [ 12.283647500000029, 41.968487999000047 ], [ 12.283172, 41.968642999000053 ], [ 12.281957, 41.968479499000068 ], [ 12.281085, 41.967981499000075 ], [ 12.28015750000003, 41.967738499000063 ], [ 12.278384, 41.967651499000056 ], [ 12.275572500000067, 41.96687349900003 ], [ 12.272303500000021, 41.967277499000033 ], [ 12.270714500000054, 41.967070999000043 ], [ 12.269404500000064, 41.967233499000031 ], [ 12.268834500000025, 41.967512499000065 ], [ 12.268612500000074, 41.968607999000028 ], [ 12.268173500000046, 41.969038999000077 ], [ 12.266682, 41.969131999000069 ], [ 12.265637500000025, 41.969361499000058 ], [ 12.264567, 41.970087999000043 ], [ 12.263832, 41.970241499000053 ], [ 12.263491, 41.970593499000074 ], [ 12.263988500000039, 41.972640499000079 ], [ 12.263765, 41.97399499900007 ], [ 12.263361, 41.97447149900006 ], [ 12.263277500000072, 41.974845499000025 ], [ 12.26385, 41.975743999000031 ], [ 12.263904500000024, 41.976193499000033 ], [ 12.26374, 41.976191999000037 ], [ 12.263345, 41.975623999000049 ], [ 12.262275, 41.974749999000039 ], [ 12.261388500000066, 41.974600499000076 ], [ 12.260067500000048, 41.974978499000031 ], [ 12.258774, 41.974641499000029 ], [ 12.25760850000006, 41.974737499000071 ], [ 12.257193500000028, 41.974630499000057 ], [ 12.256626, 41.974139999000045 ], [ 12.256448, 41.973594999000056 ], [ 12.255921500000056, 41.972987999000054 ], [ 12.255351, 41.972539999000048 ], [ 12.254318, 41.972598499000071 ], [ 12.253164500000025, 41.973048499000072 ], [ 12.251027, 41.972240499000065 ], [ 12.250091500000053, 41.972591999000031 ], [ 12.248972, 41.972736499000064 ], [ 12.250209, 41.973927499000069 ], [ 12.251591500000075, 41.976229999000054 ], [ 12.251692, 41.976907999000048 ], [ 12.251630500000033, 41.979103999000074 ], [ 12.25117750000004, 41.979673999000056 ], [ 12.249166, 41.981264499000076 ], [ 12.24753, 41.984392999000079 ], [ 12.24587850000006, 41.988013999000032 ], [ 12.245179500000063, 41.988578499000027 ], [ 12.245102, 41.991394999000079 ], [ 12.245862500000044, 41.99383799900005 ], [ 12.24582, 41.994516999000041 ], [ 12.245481, 41.995091999000067 ], [ 12.24382, 41.99676099900006 ], [ 12.242512500000032, 41.998800999000025 ], [ 12.242687, 42.001821999000072 ], [ 12.243924, 42.005953499000043 ], [ 12.244271500000025, 42.008955999000079 ], [ 12.244011500000056, 42.010883999000043 ], [ 12.243249, 42.011243999000044 ], [ 12.242893500000037, 42.011854499000037 ], [ 12.243045500000051, 42.012470499000074 ], [ 12.242984, 42.013936999000066 ], [ 12.242510500000037, 42.014150499000039 ], [ 12.242357, 42.014412499000059 ], [ 12.24278350000003, 42.01578949900005 ], [ 12.242917, 42.017450499000063 ], [ 12.247238, 42.018375999000057 ], [ 12.249153500000034, 42.018510499000058 ], [ 12.260063, 42.018106499000055 ], [ 12.261929, 42.018201999000041 ], [ 12.263420500000052, 42.018564499000036 ], [ 12.263591500000075, 42.018811999000036 ], [ 12.263048, 42.019502999000053 ], [ 12.263473, 42.020508499000073 ], [ 12.26349, 42.021763999000029 ], [ 12.263108, 42.02255849900007 ], [ 12.262001, 42.023355499000047 ], [ 12.26149950000007, 42.024643999000034 ], [ 12.261591, 42.02550099900003 ], [ 12.263092500000027, 42.028632499000025 ], [ 12.263147500000059, 42.029670999000075 ], [ 12.262737, 42.031091999000068 ], [ 12.263104, 42.031873999000027 ], [ 12.263394500000061, 42.033067999000025 ], [ 12.263504500000067, 42.034739999000067 ], [ 12.263909500000068, 42.03533599900004 ], [ 12.263978500000064, 42.035716999000044 ], [ 12.263720500000034, 42.036133999000072 ], [ 12.263568500000076, 42.03670549900005 ], [ 12.26345, 42.037672499000053 ], [ 12.26382, 42.039493499000059 ], [ 12.264356500000076, 42.040496999000027 ], [ 12.264547500000049, 42.041175999000075 ], [ 12.263828, 42.042915999000058 ], [ 12.263865500000065, 42.044571999000027 ], [ 12.263378, 42.045198499000037 ], [ 12.261269500000026, 42.046996499000045 ], [ 12.260875500000054, 42.047772999000074 ], [ 12.261084500000038, 42.050432499000067 ], [ 12.261134, 42.052335499000037 ], [ 12.260880500000042, 42.053535999000076 ], [ 12.261448, 42.054456499000025 ], [ 12.262335, 42.055723499000067 ], [ 12.262365, 42.056289999000057 ], [ 12.262067, 42.057783999000037 ], [ 12.262272500000051, 42.058746499000051 ], [ 12.26188650000006, 42.059684999000069 ], [ 12.263315, 42.059733999000059 ], [ 12.265158500000041, 42.060077999000043 ], [ 12.273450500000024, 42.06219149900005 ], [ 12.275346, 42.062389499000062 ], [ 12.276654, 42.062203499000077 ], [ 12.279042, 42.060919999000077 ], [ 12.279873, 42.060634999000058 ], [ 12.280846, 42.060530499000038 ], [ 12.285619, 42.059078999000064 ], [ 12.294563500000038, 42.055359999000075 ], [ 12.296469500000057, 42.054602499000055 ], [ 12.297059, 42.054508999000063 ], [ 12.29730150000006, 42.054803999000058 ], [ 12.297280500000056, 42.055051999000057 ], [ 12.296755500000074, 42.056143499000029 ], [ 12.294408500000031, 42.059605499000043 ], [ 12.294406, 42.060400499000025 ], [ 12.294799500000067, 42.060832499000071 ], [ 12.296598, 42.061721999000042 ], [ 12.298030500000039, 42.061904999000035 ], [ 12.298872500000073, 42.061755499000071 ], [ 12.299384500000031, 42.060677999000063 ], [ 12.299748500000021, 42.060455999000055 ], [ 12.301675, 42.06006749900007 ], [ 12.30208250000004, 42.059798999000066 ], [ 12.303524, 42.059617999000068 ], [ 12.30607, 42.05883299900006 ], [ 12.306871, 42.058899999000062 ], [ 12.30821050000003, 42.059302499000069 ], [ 12.310965, 42.062059999000041 ], [ 12.311498500000027, 42.062809999000081 ], [ 12.312028, 42.064126999000052 ], [ 12.313431, 42.065297999000052 ], [ 12.31369, 42.066793999000026 ], [ 12.313963500000057, 42.067389499000058 ], [ 12.315057, 42.068893499000069 ], [ 12.315084, 42.070089999000061 ], [ 12.315222, 42.070342999000047 ], [ 12.316804500000046, 42.07108499900005 ], [ 12.318578, 42.072182499000064 ], [ 12.32178, 42.074700499000073 ], [ 12.32191750000004, 42.075189499000032 ], [ 12.321513, 42.075833999000054 ], [ 12.319649500000025, 42.077661999000043 ], [ 12.319780500000036, 42.078071999000031 ], [ 12.32036, 42.078775999000072 ], [ 12.320339, 42.079064499000026 ], [ 12.318829, 42.082300499000041 ], [ 12.318415500000071, 42.082280999000034 ], [ 12.31808250000006, 42.084217499000033 ], [ 12.316712500000051, 42.086215999000046 ], [ 12.319675500000073, 42.086968999000078 ], [ 12.321442500000046, 42.087654999000051 ], [ 12.321179500000028, 42.090043999000045 ], [ 12.321358500000031, 42.090453499000034 ], [ 12.323671, 42.089102999000033 ], [ 12.325365500000032, 42.088666499000055 ], [ 12.327372, 42.087982499000077 ], [ 12.327925, 42.087664999000026 ], [ 12.328288, 42.08788849900003 ], [ 12.32862, 42.088468499000044 ], [ 12.32908, 42.088909999000066 ], [ 12.330013, 42.089179999000066 ], [ 12.33029, 42.08939699900003 ], [ 12.33026650000005, 42.090081999000063 ], [ 12.331027, 42.091018999000028 ], [ 12.331323, 42.091343499000061 ], [ 12.332043, 42.091687499000045 ], [ 12.332458, 42.092449999000053 ], [ 12.332843, 42.092649999000059 ], [ 12.337496500000043, 42.09373049900006 ], [ 12.338126500000044, 42.093986999000037 ], [ 12.338351500000044, 42.094626499000071 ], [ 12.340359, 42.095722499000033 ], [ 12.34069850000003, 42.096685499000046 ], [ 12.341919, 42.097923999000045 ], [ 12.342125500000066, 42.098737499000038 ], [ 12.340336, 42.101040999000077 ], [ 12.342338500000039, 42.102107999000054 ], [ 12.343843, 42.103862999000057 ], [ 12.344672500000058, 42.103657499000064 ], [ 12.345975500000065, 42.102976499000079 ], [ 12.346985500000073, 42.102639499000077 ], [ 12.348979500000041, 42.102595499000074 ], [ 12.350718, 42.102158499000041 ], [ 12.352492, 42.102176999000051 ], [ 12.355644500000039, 42.101605499000073 ], [ 12.357489, 42.101706499000045 ], [ 12.357672500000035, 42.101620999000033 ], [ 12.357821500000057, 42.101232499000048 ], [ 12.358244, 42.098625999000035 ], [ 12.358889500000032, 42.097942999000054 ], [ 12.359769500000027, 42.098224499000025 ], [ 12.362089, 42.099367499000039 ], [ 12.364861500000075, 42.098625499000036 ], [ 12.365923500000065, 42.098019499000031 ], [ 12.368146, 42.097426499000051 ], [ 12.368336500000055, 42.09757249900008 ], [ 12.368345, 42.097800499000073 ], [ 12.368186500000036, 42.098561999000026 ], [ 12.368824, 42.098351499000046 ], [ 12.369349, 42.098408499000072 ], [ 12.369578500000046, 42.099188499000036 ], [ 12.370355, 42.099849999000071 ], [ 12.370247, 42.100414999000066 ], [ 12.371323500000074, 42.100556499000049 ], [ 12.37401, 42.100514499000042 ], [ 12.376209500000073, 42.100760999000045 ], [ 12.377635500000054, 42.100565999000025 ], [ 12.377988, 42.099867499000027 ], [ 12.380053500000031, 42.098666999000045 ], [ 12.380936500000075, 42.098511999000038 ], [ 12.38174250000003, 42.098764499000026 ], [ 12.382434, 42.098707999000055 ], [ 12.383682500000077, 42.098047499000074 ], [ 12.383929, 42.097965499000054 ], [ 12.384310500000026, 42.098145499000054 ], [ 12.38492750000006, 42.097870999000065 ], [ 12.385362500000042, 42.097401499000057 ], [ 12.385775, 42.096343999000055 ], [ 12.38631, 42.095941499000048 ], [ 12.388451, 42.095148499000061 ], [ 12.389241, 42.094864999000038 ], [ 12.389982, 42.095327499000064 ], [ 12.390288500000054, 42.095376999000052 ], [ 12.391544, 42.095149499000058 ], [ 12.391242, 42.093233499000064 ], [ 12.392836, 42.091146499000047 ], [ 12.392834500000049, 42.09066049900008 ], [ 12.391848, 42.088050999000075 ], [ 12.392015, 42.087568999000041 ], [ 12.391512, 42.086989499000026 ], [ 12.391042, 42.086080499000047 ], [ 12.390344, 42.085911999000075 ], [ 12.388153500000044, 42.086255999000059 ], [ 12.387685, 42.08616149900007 ], [ 12.386678, 42.08543049900004 ], [ 12.38604950000007, 42.085210499000027 ], [ 12.384507, 42.08508499900006 ], [ 12.383402500000045, 42.084590999000056 ], [ 12.383304, 42.084282999000038 ], [ 12.384172500000034, 42.083383999000034 ], [ 12.385293500000046, 42.083310499000049 ], [ 12.385941, 42.082966999000064 ], [ 12.384005, 42.082263499000078 ], [ 12.38333, 42.082093999000051 ], [ 12.382629, 42.082105999000078 ], [ 12.380914, 42.08099499900004 ], [ 12.378447, 42.080535999000062 ], [ 12.377669500000025, 42.080693999000061 ], [ 12.375067, 42.080437499000027 ], [ 12.373748500000033, 42.080121999000028 ], [ 12.37358450000005, 42.078477999000029 ], [ 12.37293, 42.075939499000071 ], [ 12.373071500000037, 42.067227999000067 ], [ 12.372194500000035, 42.067082499000037 ], [ 12.372301500000049, 42.066372499000067 ], [ 12.372803, 42.06513299900007 ], [ 12.371792500000026, 42.059291499000039 ], [ 12.372408500000063, 42.059057499000062 ], [ 12.372821500000043, 42.058414999000036 ], [ 12.372928, 42.055261999000038 ], [ 12.374984500000039, 42.05455549900006 ], [ 12.376511, 42.054375499000059 ], [ 12.378449, 42.054453499000033 ], [ 12.379770500000063, 42.054754499000069 ], [ 12.38037950000006, 42.05505849900004 ], [ 12.381474500000024, 42.054985499000054 ], [ 12.38299550000005, 42.055170499000042 ], [ 12.383381, 42.054902499000036 ], [ 12.383330500000056, 42.054421999000056 ], [ 12.385178, 42.052570999000068 ], [ 12.385564, 42.05233449900004 ], [ 12.387220500000069, 42.050538499000027 ], [ 12.389008, 42.046649999000067 ], [ 12.389654500000063, 42.045648999000036 ], [ 12.390983500000061, 42.044510999000067 ], [ 12.391387500000064, 42.043256499000051 ], [ 12.39074, 42.041983499000025 ], [ 12.391007, 42.041763999000068 ], [ 12.391513, 42.040623499000048 ], [ 12.393258, 42.040380999000035 ], [ 12.394033500000035, 42.041417999000032 ], [ 12.395519500000034, 42.040756999000052 ], [ 12.397274, 42.039637999000036 ], [ 12.4035, 42.036301499000047 ], [ 12.404382, 42.036085999000079 ], [ 12.404869, 42.035693499000047 ], [ 12.405467500000043, 42.034248499000057 ], [ 12.406349500000033, 42.033123499000055 ], [ 12.407549500000073, 42.032976999000027 ], [ 12.409670500000061, 42.033083499000043 ], [ 12.411759500000073, 42.031909499000051 ], [ 12.416243500000064, 42.031942499000024 ], [ 12.418333, 42.031699999000068 ], [ 12.420101500000044, 42.031795499000054 ], [ 12.423250500000051, 42.031251499000064 ], [ 12.42360350000007, 42.031078999000044 ], [ 12.424105500000053, 42.030514499000049 ], [ 12.424303500000065, 42.029945999000063 ], [ 12.42384050000004, 42.029419499000028 ], [ 12.423538500000063, 42.028739499000039 ], [ 12.424090500000034, 42.027309499000069 ], [ 12.425807, 42.02598849900005 ], [ 12.428405500000054, 42.02534349900003 ], [ 12.428794, 42.025344999000026 ], [ 12.428809, 42.025641999000072 ], [ 12.428596500000026, 42.025967999000045 ], [ 12.428681500000039, 42.026415499000052 ], [ 12.429147500000056, 42.02696449900003 ], [ 12.429408, 42.027798499000028 ], [ 12.429052500000068, 42.028358499000035 ], [ 12.428753500000028, 42.029983999000081 ], [ 12.427727, 42.031329499000037 ], [ 12.425807, 42.03315599900003 ], [ 12.424791, 42.033816999000067 ], [ 12.424379, 42.034900999000058 ], [ 12.424412, 42.036412499000051 ], [ 12.424287, 42.03678099900003 ], [ 12.424499, 42.038237999000046 ], [ 12.423076, 42.038973999000063 ], [ 12.422536500000035, 42.038602999000034 ], [ 12.421415, 42.038676999000074 ], [ 12.420527500000048, 42.038441999000042 ], [ 12.419553, 42.038394499000049 ], [ 12.41793, 42.039014999000074 ], [ 12.41473650000006, 42.042324999000073 ], [ 12.413217, 42.043085999000027 ], [ 12.413091, 42.044984999000064 ], [ 12.412127, 42.04728299900006 ], [ 12.412228, 42.04828849900008 ], [ 12.412071, 42.049387499000034 ], [ 12.411555500000077, 42.051487499000075 ], [ 12.411121, 42.052423499000042 ], [ 12.410603, 42.053122999000038 ], [ 12.409738, 42.05364399900003 ], [ 12.408715500000028, 42.055124499000044 ], [ 12.408113, 42.055614999000056 ], [ 12.407799, 42.056290499000056 ], [ 12.405847, 42.058428999000057 ], [ 12.404484, 42.05938799900008 ], [ 12.406124, 42.060000999000067 ], [ 12.407392500000071, 42.059517499000037 ], [ 12.408046, 42.059538499000041 ], [ 12.408534, 42.059379999000043 ], [ 12.410652, 42.056065999000054 ], [ 12.41223350000007, 42.055798499000048 ], [ 12.413375500000029, 42.05521999900003 ], [ 12.413538500000072, 42.054431499000032 ], [ 12.413432, 42.054020499000046 ], [ 12.413801, 42.053707999000039 ], [ 12.414820500000076, 42.053551499000037 ], [ 12.417637500000069, 42.053543999000055 ], [ 12.419222500000046, 42.053811999000061 ], [ 12.421737500000063, 42.054983999000058 ], [ 12.421987, 42.053756499000031 ], [ 12.422322, 42.053241999000079 ], [ 12.423547, 42.05288149900008 ], [ 12.42651950000004, 42.052616999000065 ], [ 12.427944500000024, 42.052150999000048 ], [ 12.428241, 42.049557999000058 ], [ 12.429444, 42.045883999000068 ], [ 12.42982150000006, 42.045052999000063 ], [ 12.430155500000069, 42.044763999000054 ], [ 12.434415, 42.045514499000035 ], [ 12.438307500000064, 42.045726499000068 ], [ 12.445801500000073, 42.04664499900008 ], [ 12.446522, 42.045655499000077 ], [ 12.446564500000022, 42.045113499000081 ], [ 12.447082500000022, 42.044422499000063 ], [ 12.447798, 42.044211999000026 ], [ 12.448597, 42.043598499000041 ], [ 12.450109, 42.043408499000066 ], [ 12.451202, 42.043051499000057 ], [ 12.451301, 42.04263449900003 ], [ 12.450947, 42.04212749900006 ], [ 12.450968500000045, 42.041878999000062 ], [ 12.451433500000064, 42.041770499000052 ], [ 12.452109500000063, 42.042191499000069 ], [ 12.45211, 42.041371999000035 ], [ 12.452690500000074, 42.04187199900008 ], [ 12.45282, 42.043151499000032 ], [ 12.453940500000044, 42.044139499000039 ], [ 12.454366, 42.045589999000072 ], [ 12.454959, 42.046783499000071 ], [ 12.455995, 42.049579999000059 ], [ 12.457052, 42.05010149900005 ], [ 12.456902500000069, 42.05196999900005 ], [ 12.455704, 42.055337999000074 ], [ 12.454785, 42.05718949900006 ], [ 12.453557, 42.058615499000041 ], [ 12.454845500000033, 42.058992999000054 ], [ 12.457523, 42.059429999000031 ], [ 12.459027500000047, 42.059879999000032 ], [ 12.460528, 42.060433499000055 ], [ 12.462094, 42.061404499000048 ], [ 12.46319150000005, 42.061824999000066 ], [ 12.466664, 42.061728999000024 ], [ 12.467660500000022, 42.061896999000055 ], [ 12.468402500000025, 42.062284499000043 ], [ 12.471613, 42.062803999000039 ], [ 12.473632500000065, 42.063408999000046 ], [ 12.475008, 42.062237499000048 ], [ 12.475842, 42.061887999000078 ], [ 12.477508, 42.061648499000057 ], [ 12.479631500000039, 42.061106499000061 ], [ 12.480245500000024, 42.061224999000046 ], [ 12.480324500000052, 42.061907499000029 ], [ 12.480659500000058, 42.06217699900003 ], [ 12.482561500000031, 42.063115499000048 ], [ 12.482931, 42.064189499000065 ], [ 12.482516, 42.065494499000067 ], [ 12.482057, 42.066120499000078 ], [ 12.480966500000022, 42.066801999000063 ], [ 12.480333500000029, 42.068126999000071 ], [ 12.480137, 42.069105499000045 ], [ 12.479664, 42.069781499000044 ], [ 12.477766, 42.070703999000045 ], [ 12.476585, 42.072135499000069 ], [ 12.47624, 42.074108999000032 ], [ 12.476330500000074, 42.074785499000029 ], [ 12.477481500000067, 42.074910999000053 ], [ 12.478887, 42.075504499000033 ], [ 12.480021500000021, 42.075554499000077 ], [ 12.480969500000072, 42.075950999000042 ], [ 12.483258, 42.075897499000064 ], [ 12.485266, 42.073453999000037 ], [ 12.486224, 42.073071999000035 ], [ 12.486331500000063, 42.071646999000052 ], [ 12.486825, 42.070471499000064 ], [ 12.487573500000053, 42.069652499000028 ], [ 12.487313, 42.069128999000043 ], [ 12.487490500000035, 42.068693499000062 ], [ 12.487886500000059, 42.068531499000073 ], [ 12.488307500000076, 42.068661999000028 ], [ 12.492425500000024, 42.065640999000038 ], [ 12.493446500000061, 42.064224499000034 ], [ 12.494047500000022, 42.062544499000069 ], [ 12.493852, 42.058915499000079 ], [ 12.494006, 42.057608499000025 ], [ 12.495735500000023, 42.057805999000038 ], [ 12.495984500000077, 42.058691999000075 ], [ 12.496508, 42.06125399900003 ], [ 12.496481, 42.061775999000076 ], [ 12.496366, 42.062437499000055 ], [ 12.495869, 42.064479999000071 ], [ 12.496108500000048, 42.065874499000074 ], [ 12.496315500000037, 42.066184999000029 ], [ 12.497952500000054, 42.066429999000036 ], [ 12.498707500000023, 42.066982499000062 ], [ 12.500224500000058, 42.067442999000036 ], [ 12.504636500000061, 42.069268499000032 ], [ 12.50538750000004, 42.069158499000025 ], [ 12.50622050000004, 42.069257999000058 ], [ 12.506966, 42.069484999000053 ], [ 12.507561500000065, 42.069894999000041 ], [ 12.509693, 42.069706999000061 ], [ 12.511045, 42.069749999000067 ], [ 12.51356450000003, 42.070150999000077 ], [ 12.514741500000071, 42.069951499000069 ], [ 12.51655, 42.068747999000038 ], [ 12.517387, 42.068599499000072 ], [ 12.520214, 42.067782499000032 ], [ 12.522533, 42.066346499000076 ], [ 12.522672500000056, 42.066867499000068 ], [ 12.52323, 42.067370499000049 ], [ 12.523849, 42.068320499000038 ], [ 12.524313500000062, 42.069424499000036 ], [ 12.525112, 42.070112499000061 ], [ 12.52541, 42.071775999000067 ], [ 12.525542500000029, 42.071979499000065 ], [ 12.525972, 42.07215749900007 ], [ 12.527242, 42.071130999000047 ], [ 12.527305, 42.070979499000032 ], [ 12.526705, 42.070556999000075 ], [ 12.530499, 42.068260999000074 ], [ 12.531411500000047, 42.067483499000048 ], [ 12.532472, 42.066227499000036 ], [ 12.533642500000042, 42.06593299900004 ], [ 12.533972, 42.066241999000056 ], [ 12.533776500000045, 42.066948999000033 ], [ 12.533787, 42.067615999000054 ], [ 12.535201500000028, 42.07111799900008 ], [ 12.535783500000036, 42.071458999000072 ], [ 12.537364, 42.071974999000076 ], [ 12.538439, 42.073123499000076 ], [ 12.538891, 42.074020499000028 ], [ 12.539948, 42.074736499000039 ], [ 12.544644, 42.077169499000036 ], [ 12.546175500000061, 42.076472999000032 ], [ 12.546377, 42.076193499000055 ], [ 12.54669, 42.074727999000061 ], [ 12.547444, 42.072965499000077 ], [ 12.551054, 42.073078499000076 ], [ 12.551795, 42.07321599900007 ], [ 12.555822500000033, 42.076304999000058 ], [ 12.556852500000048, 42.07686299900007 ], [ 12.55814950000007, 42.077323999000043 ], [ 12.560665, 42.077691499000025 ], [ 12.562001500000065, 42.077548999000044 ], [ 12.562696, 42.077284499000029 ], [ 12.563410500000032, 42.076666999000054 ], [ 12.56368, 42.075821499000028 ], [ 12.562095, 42.070967499000062 ], [ 12.562053, 42.069057499000053 ], [ 12.562229, 42.068178499000055 ], [ 12.562928, 42.067198499000028 ], [ 12.563738, 42.066485999000065 ], [ 12.565079, 42.06579399900005 ], [ 12.566363500000023, 42.065512499000079 ], [ 12.565197, 42.063578499000073 ], [ 12.566715, 42.063049499000044 ], [ 12.568662, 42.062001999000074 ], [ 12.568365, 42.061300999000025 ], [ 12.570164500000033, 42.060726999000053 ], [ 12.570380500000056, 42.05853649900007 ], [ 12.575451500000042, 42.056428999000047 ], [ 12.577095500000041, 42.054540999000039 ], [ 12.579537, 42.055423499000028 ], [ 12.579763, 42.054934499000069 ], [ 12.579272500000059, 42.053500499000052 ], [ 12.579298, 42.052193999000053 ], [ 12.579642500000034, 42.051390499000036 ], [ 12.580229, 42.050584499000081 ], [ 12.580974, 42.047872999000049 ], [ 12.58263850000003, 42.046339999000054 ], [ 12.584649500000069, 42.045227999000076 ], [ 12.586872, 42.04365449900007 ], [ 12.588364500000068, 42.042193999000062 ], [ 12.589383, 42.041455499000051 ], [ 12.592789, 42.039889999000025 ], [ 12.595014500000048, 42.038550499000053 ], [ 12.596171, 42.038284499000042 ], [ 12.598488, 42.037081499000067 ], [ 12.602079, 42.034753999000031 ], [ 12.604023500000039, 42.033809999000027 ], [ 12.604847500000062, 42.033126999000046 ], [ 12.605631500000072, 42.032170499000074 ], [ 12.606646500000068, 42.031516999000075 ], [ 12.609038500000054, 42.03053649900005 ], [ 12.614809500000035, 42.029434999000046 ], [ 12.613126500000021, 42.026687999000046 ], [ 12.612873, 42.023737499000049 ], [ 12.613021, 42.02115599900003 ], [ 12.612778, 42.020545499000036 ], [ 12.611126500000069, 42.019855999000072 ], [ 12.609147500000063, 42.020074499000032 ], [ 12.608055500000034, 42.019991999000069 ], [ 12.606298500000037, 42.020416999000076 ], [ 12.605876500000022, 42.021206999000071 ], [ 12.605713, 42.02136499900007 ], [ 12.60547, 42.021359999000026 ], [ 12.603313, 42.020327999000074 ], [ 12.601835, 42.019405499000072 ], [ 12.60303250000004, 42.018223499000044 ], [ 12.603964500000075, 42.018895999000051 ], [ 12.604277, 42.015002999000046 ], [ 12.606440500000076, 42.014782499000034 ], [ 12.607279, 42.014298999000061 ], [ 12.607633, 42.014708499000051 ], [ 12.608483500000034, 42.012917999000081 ], [ 12.608545500000048, 42.011784499000044 ], [ 12.608033500000033, 42.011753499000065 ], [ 12.606970500000045, 42.012084999000081 ], [ 12.604695500000048, 42.012017499000081 ], [ 12.604243500000052, 42.011786999000037 ], [ 12.603535, 42.010795499000039 ], [ 12.602619, 42.010343999000042 ], [ 12.603429500000061, 42.008620499000074 ], [ 12.603248500000063, 42.008058499000072 ], [ 12.603347500000041, 42.007517999000072 ], [ 12.604257500000074, 42.005870499000025 ], [ 12.60424050000006, 42.005032999000036 ], [ 12.604084500000056, 42.004565999000079 ], [ 12.603091, 42.003925999000046 ], [ 12.601833, 42.003554999000073 ], [ 12.600607500000024, 42.002912499000047 ], [ 12.599131500000055, 42.002462999000045 ], [ 12.598149500000034, 42.002451499000074 ], [ 12.596555, 42.001632499000038 ], [ 12.597074500000076, 42.000699999000062 ], [ 12.601233500000035, 41.997418499000048 ], [ 12.60154, 41.997042499000031 ], [ 12.601725, 41.99642699900005 ], [ 12.60654, 41.994629499000041 ], [ 12.610252500000058, 41.994301499000073 ], [ 12.618305500000076, 41.990314999000077 ], [ 12.618498500000044, 41.989870999000061 ], [ 12.618100500000025, 41.987065499000039 ], [ 12.616535, 41.983372999000039 ], [ 12.616211, 41.981644999000025 ], [ 12.616065500000047, 41.979809499000055 ], [ 12.61544850000007, 41.978122499000051 ], [ 12.614623, 41.976556499000026 ], [ 12.613139, 41.972282499000073 ], [ 12.612452, 41.971265499000026 ], [ 12.610862, 41.970311999000046 ], [ 12.61431, 41.971447999000077 ], [ 12.615063, 41.971398499000031 ], [ 12.615547, 41.971158499000069 ], [ 12.617101, 41.969385999000053 ], [ 12.618678500000044, 41.968372999000053 ], [ 12.620132, 41.96657299900005 ], [ 12.620181, 41.966260999000042 ], [ 12.619746, 41.963775499000064 ], [ 12.619852, 41.962948999000048 ], [ 12.620285, 41.962376999000071 ], [ 12.621068, 41.961927499000069 ], [ 12.622577500000034, 41.961654499000076 ], [ 12.622912, 41.96142499900003 ], [ 12.623397, 41.960743999000044 ], [ 12.627031, 41.958990999000036 ], [ 12.635117, 41.957216999000025 ], [ 12.637363, 41.957177499000068 ], [ 12.639516, 41.95755949900007 ], [ 12.640808, 41.957329499000025 ], [ 12.643351, 41.957404499000063 ], [ 12.64358, 41.957100999000033 ], [ 12.643620500000054, 41.956720999000026 ], [ 12.642967500000054, 41.953739999000049 ], [ 12.642032500000028, 41.952916999000081 ], [ 12.64185, 41.952424999000073 ], [ 12.642043500000057, 41.952041499000075 ], [ 12.642785, 41.951736999000047 ], [ 12.642970500000047, 41.951450499000032 ], [ 12.642832, 41.950787999000056 ], [ 12.643286, 41.950247999000055 ], [ 12.642884, 41.949374999000042 ], [ 12.642838, 41.949067999000079 ], [ 12.643005, 41.948787499000048 ], [ 12.643543500000021, 41.948667999000065 ], [ 12.645549, 41.948713499000064 ], [ 12.645887, 41.948585499000046 ], [ 12.646062500000028, 41.948323499000026 ], [ 12.644835, 41.945494999000061 ], [ 12.645088500000043, 41.941679499000031 ], [ 12.64911950000004, 41.941302999000072 ], [ 12.650857, 41.941617499000074 ], [ 12.65310450000004, 41.942408999000065 ], [ 12.655474, 41.942436999000051 ], [ 12.655720500000029, 41.942162999000061 ], [ 12.655742500000031, 41.941888499000072 ], [ 12.654436500000031, 41.936350499000071 ], [ 12.654335, 41.935411499000054 ], [ 12.65442, 41.934667999000055 ], [ 12.654846, 41.934028499000078 ], [ 12.654844, 41.933341499000051 ], [ 12.655587500000024, 41.932555499000046 ], [ 12.656025, 41.931264999000064 ], [ 12.656432500000051, 41.931167499000026 ], [ 12.657816500000024, 41.931335499000056 ], [ 12.65918350000004, 41.931876499000055 ], [ 12.660039, 41.932022499000027 ], [ 12.663075, 41.93141999900007 ], [ 12.667933500000061, 41.928620999000032 ], [ 12.668159500000058, 41.928281499000036 ], [ 12.668143500000042, 41.927947999000025 ], [ 12.66758550000003, 41.927368999000066 ], [ 12.667602, 41.927229999000076 ], [ 12.668660500000044, 41.92668149900004 ], [ 12.669589, 41.926576499000078 ], [ 12.671312500000056, 41.927148499000054 ], [ 12.672216, 41.92779149900008 ], [ 12.672488500000043, 41.929147999000065 ], [ 12.672273, 41.930005999000059 ], [ 12.671718500000054, 41.931156499000053 ], [ 12.671691, 41.931369999000026 ], [ 12.671857, 41.931526499000029 ], [ 12.673190500000032, 41.931593999000029 ], [ 12.674732, 41.932737499000041 ], [ 12.675304500000038, 41.932987499000035 ], [ 12.67614750000007, 41.933189499000036 ], [ 12.677351500000043, 41.933168999000031 ], [ 12.677789, 41.933078499000032 ], [ 12.678329, 41.93273799900004 ], [ 12.679037500000049, 41.931453499000042 ], [ 12.679471500000034, 41.931102999000075 ], [ 12.680443, 41.930755499000043 ], [ 12.681671, 41.930573499000047 ], [ 12.682452500000068, 41.930618499000047 ], [ 12.682656500000064, 41.930805999000029 ], [ 12.682507, 41.932068499000025 ], [ 12.682746, 41.93229149900003 ], [ 12.685557, 41.933064499000068 ], [ 12.685632, 41.933238999000025 ], [ 12.685303500000032, 41.934229999000081 ], [ 12.685408, 41.934596999000064 ], [ 12.685536, 41.934896499000047 ], [ 12.686464500000056, 41.935734999000033 ], [ 12.686785, 41.935952999000051 ], [ 12.687794, 41.936162499000034 ], [ 12.689357, 41.935878499000069 ], [ 12.689831500000025, 41.935869499000034 ], [ 12.689910500000053, 41.936063999000055 ], [ 12.690614, 41.935991499000068 ], [ 12.691242, 41.93615599900005 ], [ 12.691980500000057, 41.935870999000031 ], [ 12.691666, 41.934237499000062 ], [ 12.691877, 41.933375499000078 ], [ 12.692610500000058, 41.932797999000059 ], [ 12.692973, 41.932759499000042 ], [ 12.693137, 41.932924999000079 ], [ 12.693134500000042, 41.933663499000033 ], [ 12.693422500000054, 41.933991999000057 ], [ 12.694754, 41.934236999000063 ], [ 12.69595, 41.934855999000035 ], [ 12.697849, 41.935361999000065 ], [ 12.698391500000071, 41.935704999000052 ], [ 12.699188500000048, 41.937358499000027 ], [ 12.69957450000004, 41.937683499000059 ], [ 12.700175, 41.937758999000039 ], [ 12.700807500000053, 41.937616999000056 ], [ 12.702125500000022, 41.93676399900005 ], [ 12.70313150000004, 41.936708999000075 ], [ 12.704739500000073, 41.934950499000081 ], [ 12.706084500000031, 41.934425499000042 ], [ 12.706830500000024, 41.93380249900008 ], [ 12.707193500000074, 41.933087999000065 ], [ 12.707493, 41.932835499000078 ], [ 12.709417, 41.933518499000058 ], [ 12.710416, 41.933370999000033 ], [ 12.710746, 41.93189699900006 ], [ 12.71208, 41.931007499000032 ], [ 12.713401500000032, 41.93050099900006 ], [ 12.716557500000022, 41.930258999000046 ], [ 12.718851, 41.931211499000028 ], [ 12.719909500000028, 41.93130749900007 ], [ 12.721753500000034, 41.929991499000039 ], [ 12.722879500000033, 41.929526999000075 ], [ 12.724577, 41.929237999000065 ], [ 12.725667, 41.928819999000041 ], [ 12.726387, 41.928210999000044 ], [ 12.727571, 41.927830499000038 ], [ 12.728098500000044, 41.927912499000058 ], [ 12.728526, 41.929451499000038 ], [ 12.728997500000048, 41.930431499000065 ], [ 12.729569500000025, 41.931308999000066 ], [ 12.73085750000007, 41.932738999000037 ], [ 12.731830500000058, 41.932855999000026 ], [ 12.73254, 41.933269499000062 ], [ 12.734028, 41.933477999000047 ], [ 12.735751500000049, 41.93316949900003 ], [ 12.739918500000044, 41.930611499000065 ], [ 12.741749, 41.930348999000046 ], [ 12.743149500000072, 41.930649999000025 ], [ 12.744398500000045, 41.930446999000026 ], [ 12.746278500000074, 41.929124999000067 ], [ 12.750819500000034, 41.925540999000077 ], [ 12.751806, 41.924531999000067 ], [ 12.753231, 41.921797999000034 ], [ 12.753891, 41.921852499000067 ], [ 12.754701500000067, 41.922464999000056 ], [ 12.75557850000007, 41.923255999000048 ], [ 12.756549500000062, 41.924434999000027 ], [ 12.756927500000074, 41.924670499000058 ], [ 12.758712, 41.92502599900007 ], [ 12.760472500000049, 41.92571999900008 ], [ 12.761752500000057, 41.925340499000072 ], [ 12.762104500000021, 41.924563499000044 ], [ 12.762921, 41.924649499000054 ], [ 12.763262500000053, 41.924889999000072 ], [ 12.762745, 41.92589749900003 ], [ 12.762506500000029, 41.927229499000077 ], [ 12.763542500000028, 41.926897999000062 ], [ 12.764252, 41.927666999000053 ], [ 12.766957500000046, 41.926492999000061 ], [ 12.76850550000006, 41.927747999000076 ], [ 12.769561500000066, 41.928257999000039 ], [ 12.771235, 41.929377999000053 ], [ 12.771771, 41.928513999000074 ], [ 12.772338500000046, 41.927464499000052 ], [ 12.773459500000058, 41.926423499000066 ], [ 12.775162, 41.925336499000025 ], [ 12.780161500000077, 41.923446999000078 ], [ 12.781576500000028, 41.922950499000081 ], [ 12.783564, 41.922672999000042 ], [ 12.785514500000033, 41.922766499000033 ], [ 12.787270500000034, 41.922527999000067 ], [ 12.79026250000004, 41.921479499000043 ], [ 12.793993, 41.919919499000059 ], [ 12.798232, 41.919045499000049 ], [ 12.799491500000045, 41.918863999000052 ], [ 12.80072, 41.918922499000075 ], [ 12.801999500000022, 41.918523999000058 ], [ 12.803598500000021, 41.917610999000033 ], [ 12.804966, 41.917480499000078 ], [ 12.805258500000036, 41.91734449900008 ], [ 12.805334500000072, 41.916914499000029 ], [ 12.805889500000035, 41.916589499000054 ], [ 12.80713, 41.916633999000055 ], [ 12.806949, 41.916266499000074 ], [ 12.806992, 41.915728999000066 ], [ 12.807347500000049, 41.914465499000073 ], [ 12.80652850000007, 41.908144499000059 ], [ 12.800904, 41.909334999000066 ], [ 12.799891500000058, 41.90935999900006 ], [ 12.799434500000075, 41.907920499000056 ], [ 12.798300500000039, 41.906548999000051 ], [ 12.797614500000066, 41.906877999000073 ], [ 12.796897, 41.905987499000048 ], [ 12.795678, 41.905325499000071 ], [ 12.79573750000003, 41.904941499000074 ], [ 12.79614950000007, 41.904546499000048 ], [ 12.797686, 41.90350599900006 ], [ 12.801158500000042, 41.901947499000073 ], [ 12.803099, 41.901270499000077 ], [ 12.807735500000035, 41.900675499000045 ], [ 12.810178, 41.899423999000078 ], [ 12.812663500000042, 41.897607999000058 ], [ 12.813885500000026, 41.898134499000037 ], [ 12.814678, 41.897882999000046 ], [ 12.814566, 41.897301499000037 ], [ 12.814824500000043, 41.896441999000047 ], [ 12.817954, 41.894425999000077 ], [ 12.819578500000034, 41.893556999000054 ], [ 12.822564, 41.892500999000049 ], [ 12.825363, 41.890660999000033 ], [ 12.826805500000034, 41.890058999000075 ], [ 12.828436500000066, 41.889621499000043 ], [ 12.829233, 41.889563499000076 ], [ 12.830727, 41.889927999000065 ], [ 12.831998500000054, 41.889799999000047 ], [ 12.832416, 41.889893999000037 ], [ 12.832729500000028, 41.890261499000076 ], [ 12.833993, 41.890673999000057 ], [ 12.834125500000027, 41.891034499000057 ], [ 12.834077, 41.892440499000031 ], [ 12.834655500000054, 41.89282649900008 ], [ 12.835434, 41.892962499000078 ], [ 12.836142500000051, 41.892704999000046 ], [ 12.837166, 41.891643999000053 ], [ 12.83837, 41.891702499000075 ], [ 12.840097, 41.892644499000028 ], [ 12.841244, 41.892952499000046 ], [ 12.842281, 41.892962999000076 ], [ 12.843815500000062, 41.893696499000043 ], [ 12.845495, 41.891190999000059 ], [ 12.844877500000052, 41.890377999000066 ], [ 12.843775, 41.889924999000073 ], [ 12.843995, 41.888944999000046 ], [ 12.844609, 41.888593999000079 ], [ 12.846747, 41.888732999000069 ], [ 12.84746, 41.888399999000058 ], [ 12.848573, 41.888280999000074 ], [ 12.84908, 41.887945999000067 ], [ 12.849394, 41.887337499000068 ], [ 12.851217500000075, 41.885977499000035 ], [ 12.851069, 41.885740499000065 ], [ 12.850822, 41.88569349900007 ], [ 12.849639500000023, 41.885774999000034 ], [ 12.848768500000062, 41.885069499000053 ], [ 12.846563, 41.883812499000044 ], [ 12.846173, 41.882906499000057 ], [ 12.845295, 41.881644999000059 ], [ 12.84474350000005, 41.88048199900004 ], [ 12.843035, 41.88040249900007 ], [ 12.843054500000051, 41.879504499000063 ], [ 12.842722, 41.878734999000073 ], [ 12.844223500000055, 41.878468499000064 ], [ 12.846079, 41.877858999000068 ], [ 12.848442500000033, 41.877358499000024 ], [ 12.85113350000006, 41.875816999000051 ], [ 12.851953500000036, 41.875703999000052 ], [ 12.853393, 41.874713499000052 ], [ 12.855690500000037, 41.873504499000035 ], [ 12.855856, 41.873172999000076 ], [ 12.855536, 41.872262999000043 ], [ 12.855035500000042, 41.871659499000032 ], [ 12.854551500000071, 41.871423499000059 ], [ 12.853294, 41.872297999000068 ], [ 12.852384, 41.87225599900006 ], [ 12.849311, 41.872754499000052 ], [ 12.848614, 41.872662999000056 ], [ 12.846894500000076, 41.872776999000052 ], [ 12.846467500000074, 41.872210499000062 ], [ 12.847040500000048, 41.871816999000032 ], [ 12.847034500000063, 41.870930999000052 ], [ 12.847754, 41.870232999000052 ], [ 12.84661, 41.869941499000049 ], [ 12.846703, 41.86825249900005 ], [ 12.846576500000026, 41.86810299900003 ], [ 12.846159500000056, 41.867567499000074 ], [ 12.845244500000035, 41.867394999000055 ], [ 12.84386150000006, 41.867921999000032 ], [ 12.843134500000076, 41.867950999000072 ], [ 12.842979, 41.868389499000045 ], [ 12.842596, 41.86864599900008 ], [ 12.84189850000007, 41.868475999000054 ], [ 12.841239, 41.869131499000048 ], [ 12.840453, 41.869575999000062 ], [ 12.840272, 41.869941999000048 ], [ 12.84015050000005, 41.871046999000043 ], [ 12.839463, 41.871781999000063 ], [ 12.83837950000003, 41.872472999000081 ], [ 12.837457500000028, 41.87265349900008 ], [ 12.834831, 41.87407199900008 ], [ 12.831727500000056, 41.876039999000056 ], [ 12.831075, 41.876301999000077 ], [ 12.83003350000007, 41.876361499000041 ], [ 12.825729, 41.878096999000036 ], [ 12.824306, 41.878835999000046 ], [ 12.818710500000066, 41.882845499000041 ], [ 12.817735, 41.884952499000065 ], [ 12.811616, 41.889086999000028 ], [ 12.811131, 41.889878999000075 ], [ 12.811018500000046, 41.890696499000057 ], [ 12.810357, 41.891007999000067 ], [ 12.809989500000029, 41.89153249900005 ], [ 12.809081, 41.892361999000059 ], [ 12.807004, 41.893537999000046 ], [ 12.805016, 41.894913999000039 ], [ 12.803153500000064, 41.897904499000049 ], [ 12.802180500000077, 41.898867499000062 ], [ 12.798916, 41.90089449900006 ], [ 12.794592500000022, 41.903224999000031 ], [ 12.793270500000062, 41.90346099900006 ], [ 12.792279500000063, 41.903873999000041 ], [ 12.791122, 41.903887999000062 ], [ 12.789752, 41.904104499000027 ], [ 12.787257500000067, 41.905470499000046 ], [ 12.785041, 41.906112499000074 ], [ 12.782663500000069, 41.907228499000041 ], [ 12.778867500000047, 41.909271499000056 ], [ 12.777190500000074, 41.910337499000036 ], [ 12.776441500000033, 41.911070499000061 ], [ 12.775659, 41.911581999000077 ], [ 12.741490500000054, 41.897571499000037 ], [ 12.740197500000022, 41.898371499000064 ], [ 12.738359, 41.898627999000041 ], [ 12.737061, 41.899545999000054 ], [ 12.735970500000064, 41.899526499000046 ], [ 12.735525500000051, 41.89933299900008 ], [ 12.735164, 41.89847499900003 ], [ 12.735746, 41.897864999000035 ], [ 12.736076500000024, 41.896576999000047 ], [ 12.736544, 41.895755499000074 ], [ 12.736709, 41.894925499000067 ], [ 12.736755500000072, 41.893269499000041 ], [ 12.735637500000053, 41.892832999000063 ], [ 12.733348500000034, 41.891490999000041 ], [ 12.733205, 41.891366499000071 ], [ 12.73318, 41.890672499000061 ], [ 12.732983500000046, 41.890182499000048 ], [ 12.731951500000037, 41.888945999000043 ], [ 12.731468, 41.888549499000078 ], [ 12.729457500000024, 41.887640499000042 ], [ 12.728864500000043, 41.887155999000072 ], [ 12.728414, 41.886466999000049 ], [ 12.727739, 41.886450999000033 ], [ 12.726168500000028, 41.886665999000058 ], [ 12.723977, 41.886658499000077 ], [ 12.722470500000043, 41.886178499000039 ], [ 12.721623, 41.886129999000048 ], [ 12.719515500000057, 41.887177999000073 ], [ 12.715915500000051, 41.886565999000027 ], [ 12.715314, 41.887215999000034 ], [ 12.704337, 41.890410499000041 ], [ 12.704642, 41.888799999000071 ], [ 12.70097, 41.889361499000074 ], [ 12.698595500000067, 41.890200999000058 ], [ 12.697718, 41.890714499000069 ], [ 12.697164500000042, 41.890561499000057 ], [ 12.697670500000072, 41.890114999000048 ], [ 12.69868850000006, 41.888284499000065 ], [ 12.699429500000065, 41.887452499000062 ], [ 12.699251, 41.887379499000076 ], [ 12.699135, 41.885834499000055 ], [ 12.699048, 41.882297999000059 ], [ 12.703057, 41.875510999000028 ], [ 12.703493, 41.874979499000062 ], [ 12.705254, 41.865476999000066 ], [ 12.715129, 41.859315499000047 ], [ 12.716713, 41.859954999000081 ], [ 12.717359500000043, 41.859391499000026 ], [ 12.718419, 41.859741499000052 ], [ 12.719232, 41.859325499000079 ], [ 12.719815500000038, 41.858836999000061 ], [ 12.720198, 41.858232499000053 ], [ 12.720854, 41.856912499000032 ], [ 12.720924500000024, 41.856697499000063 ], [ 12.720623, 41.855862999000067 ], [ 12.721755500000029, 41.855187499000067 ], [ 12.72323, 41.854797999000027 ], [ 12.725157, 41.853701499000067 ], [ 12.726818500000036, 41.852322499000024 ], [ 12.727257500000064, 41.852209499000026 ], [ 12.727521, 41.851279499000043 ], [ 12.727509, 41.849784999000065 ], [ 12.729882500000031, 41.848489999000037 ], [ 12.730462500000044, 41.848609499000077 ], [ 12.731243, 41.848093999000071 ], [ 12.733646500000077, 41.847821499000077 ], [ 12.734858, 41.846944999000073 ], [ 12.736282, 41.844721499000059 ], [ 12.736779, 41.843271999000081 ], [ 12.736797500000023, 41.842412499000034 ], [ 12.738074, 41.842666999000073 ], [ 12.738073500000041, 41.841722999000069 ], [ 12.737818, 41.840014499000063 ], [ 12.737856500000021, 41.838925499000027 ], [ 12.739884500000073, 41.835709499000075 ], [ 12.739164500000072, 41.835469999000054 ], [ 12.739297, 41.834616999000048 ], [ 12.740025500000058, 41.832825999000079 ], [ 12.740584, 41.832093999000051 ], [ 12.741235, 41.832144499000037 ], [ 12.74175850000006, 41.832249499000056 ], [ 12.742481500000054, 41.83122049900004 ], [ 12.73359350000004, 41.828591999000025 ], [ 12.733193, 41.828576499000064 ], [ 12.732873, 41.829243499000029 ], [ 12.728882500000054, 41.827571499000044 ], [ 12.728906, 41.827076499000043 ], [ 12.726437500000031, 41.826815999000075 ], [ 12.725187500000061, 41.829479999000057 ], [ 12.725693500000034, 41.830826999000067 ], [ 12.726183500000047, 41.831192499000053 ], [ 12.726192500000025, 41.832295999000053 ], [ 12.725027, 41.834175499000025 ], [ 12.724912, 41.834792499000059 ], [ 12.725117, 41.835462999000072 ], [ 12.724886, 41.836453499000072 ], [ 12.72452050000004, 41.837171499000078 ], [ 12.723909, 41.837766999000053 ], [ 12.723385500000063, 41.837936999000078 ], [ 12.720725, 41.837991999000053 ], [ 12.719524500000034, 41.837794999000039 ], [ 12.719333, 41.838148999000055 ], [ 12.716432500000053, 41.840757499000063 ], [ 12.716136500000061, 41.841379499000027 ], [ 12.715581, 41.841330499000037 ], [ 12.715644500000053, 41.840561499000046 ], [ 12.715095500000075, 41.840040999000053 ], [ 12.715408, 41.839088999000069 ], [ 12.712957500000073, 41.838903999000081 ], [ 12.711684, 41.837893499000074 ], [ 12.711385, 41.836943999000027 ], [ 12.710822500000063, 41.835196999000061 ], [ 12.710017, 41.834451499000068 ], [ 12.707502500000032, 41.833739499000046 ], [ 12.707532, 41.834527499000046 ], [ 12.707169500000077, 41.836488499000041 ], [ 12.706543, 41.837340499000049 ], [ 12.705789500000037, 41.838969499000029 ], [ 12.705259500000068, 41.839638499000046 ], [ 12.70481, 41.839917999000079 ], [ 12.70463, 41.84002999900008 ], [ 12.701554500000043, 41.842635499000039 ], [ 12.70039550000007, 41.841819999000052 ], [ 12.69873350000006, 41.842954999000028 ], [ 12.697108, 41.842609499000048 ], [ 12.696898, 41.842506499000081 ], [ 12.696999500000061, 41.840679999000031 ], [ 12.69685, 41.839807999000072 ], [ 12.697158, 41.838616499000068 ], [ 12.698346, 41.837497499000051 ], [ 12.697667500000023, 41.837278999000034 ], [ 12.69627, 41.837855499000057 ], [ 12.696081, 41.838882999000077 ], [ 12.694953500000054, 41.83919699900008 ], [ 12.694780500000036, 41.839586499000063 ], [ 12.694856, 41.841717999000025 ], [ 12.693240500000059, 41.843900999000027 ], [ 12.692037, 41.844840499000043 ], [ 12.690787500000056, 41.845294999000032 ], [ 12.689562500000022, 41.845537999000044 ], [ 12.687678500000061, 41.845844999000064 ], [ 12.686107500000048, 41.845853499000043 ], [ 12.685698, 41.845647499000052 ], [ 12.685179500000061, 41.845125499000062 ], [ 12.685199500000067, 41.844856999000058 ], [ 12.687016, 41.844207999000048 ], [ 12.688874, 41.843995499000073 ], [ 12.689606, 41.843616499000063 ], [ 12.690053, 41.84198599900003 ], [ 12.690014, 41.840474499000038 ], [ 12.688841500000024, 41.840471499000046 ], [ 12.687393500000042, 41.840216999000063 ], [ 12.687222, 41.841294499000071 ], [ 12.686362, 41.843692999000041 ], [ 12.684834, 41.842989999000054 ], [ 12.684147500000051, 41.842141999000035 ], [ 12.684227, 41.841517499000076 ], [ 12.684091500000022, 41.84051499900005 ], [ 12.683774500000027, 41.838967999000033 ], [ 12.683002, 41.838844999000059 ], [ 12.682295500000066, 41.83893099900007 ], [ 12.681975500000021, 41.839035999000032 ], [ 12.681585, 41.839730499000041 ], [ 12.68223050000006, 41.841193499000042 ], [ 12.682027, 41.842421999000067 ], [ 12.682358500000078, 41.842654999000047 ], [ 12.683683500000029, 41.844568499000047 ], [ 12.683644500000071, 41.84539649900006 ], [ 12.683563, 41.846554999000034 ], [ 12.683038500000066, 41.848628499000029 ], [ 12.682607500000074, 41.849390499000037 ], [ 12.682171, 41.849439499000027 ], [ 12.680411500000048, 41.850450999000032 ], [ 12.677282500000047, 41.851617499000042 ], [ 12.676001, 41.852248999000039 ], [ 12.675235, 41.852273999000033 ], [ 12.672364, 41.851679999000055 ], [ 12.671416, 41.850462999000058 ], [ 12.668735500000025, 41.848196499000039 ], [ 12.668005500000049, 41.849438999000029 ], [ 12.667194500000051, 41.849701499000048 ], [ 12.666329500000074, 41.850672999000039 ], [ 12.66552450000006, 41.851117999000053 ], [ 12.664827, 41.851822499000036 ], [ 12.662230500000021, 41.852061499000058 ], [ 12.66122450000006, 41.852353999000059 ], [ 12.660228500000073, 41.852581499000053 ], [ 12.65891750000003, 41.852651999000045 ], [ 12.657694500000048, 41.852703499000029 ], [ 12.653813, 41.852477499000031 ], [ 12.655906500000071, 41.850997999000072 ], [ 12.657995500000027, 41.850097499000071 ], [ 12.658927, 41.849500999000043 ], [ 12.663806500000021, 41.844490999000072 ], [ 12.662557500000048, 41.843537499000035 ], [ 12.662847500000055, 41.842799999000079 ], [ 12.663488500000028, 41.842407999000045 ], [ 12.664182500000038, 41.841530499000044 ], [ 12.663794500000051, 41.840864999000075 ], [ 12.659985500000062, 41.840949499000033 ], [ 12.655789, 41.846413999000049 ], [ 12.655076500000064, 41.847576999000069 ], [ 12.653076, 41.848999999000057 ], [ 12.652009, 41.849437499000032 ], [ 12.651227, 41.85024099900005 ], [ 12.649748, 41.848447499000031 ], [ 12.650592, 41.847703999000032 ], [ 12.651016, 41.847113499000045 ], [ 12.651785500000074, 41.845719999000039 ], [ 12.651941500000021, 41.845342499000026 ], [ 12.651504, 41.844302499000037 ], [ 12.650959, 41.843199499000036 ], [ 12.650435500000071, 41.842285999000069 ], [ 12.650162500000022, 41.841390999000055 ], [ 12.650490500000046, 41.840584999000043 ], [ 12.650325, 41.83950949900003 ], [ 12.650419500000055, 41.839151499000025 ], [ 12.65108, 41.838498499000025 ], [ 12.651914, 41.838213499000062 ], [ 12.652152500000057, 41.837734499000078 ], [ 12.652012500000069, 41.836999999000057 ], [ 12.651673, 41.836609999000075 ], [ 12.65147550000006, 41.835257499000079 ], [ 12.652950500000031, 41.832916999000076 ], [ 12.653234500000053, 41.832109999000068 ], [ 12.653188, 41.831615999000064 ], [ 12.651670500000023, 41.832111499000064 ], [ 12.651101500000038, 41.83260449900007 ], [ 12.650033, 41.832962999000074 ], [ 12.647804500000063, 41.832922499000063 ], [ 12.644899, 41.834102999000038 ], [ 12.643258500000059, 41.832866999000032 ], [ 12.643803, 41.832301499000039 ], [ 12.64317, 41.831748499000071 ], [ 12.641899500000022, 41.831253999000069 ], [ 12.640539, 41.832443999000077 ], [ 12.638547500000072, 41.831049999000072 ], [ 12.638997, 41.830655999000044 ], [ 12.639783500000021, 41.830392999000026 ], [ 12.641168, 41.829532499000038 ], [ 12.642893500000071, 41.828082499000061 ], [ 12.643956500000058, 41.827440999000032 ], [ 12.645006500000022, 41.826042499000039 ], [ 12.645133500000043, 41.825664499000027 ], [ 12.64593, 41.825144999000031 ], [ 12.647534, 41.825010999000028 ], [ 12.649521, 41.825695999000061 ], [ 12.650222, 41.825781999000071 ], [ 12.651769500000057, 41.825363499000048 ], [ 12.653865, 41.824410999000065 ], [ 12.654444, 41.823513499000057 ], [ 12.654556, 41.822388499000056 ], [ 12.654987, 41.822245499000076 ], [ 12.655286500000045, 41.82227399900006 ], [ 12.655343500000072, 41.822464499000034 ], [ 12.65597850000006, 41.822796999000047 ], [ 12.658067500000072, 41.823347499000079 ], [ 12.658944, 41.822280999000043 ], [ 12.659045500000047, 41.820819999000037 ], [ 12.6598, 41.820019999000067 ], [ 12.660168500000054, 41.819162999000071 ], [ 12.660832500000026, 41.81838699900004 ], [ 12.659348500000021, 41.817542999000068 ], [ 12.658657, 41.817310999000028 ], [ 12.655004, 41.816508999000064 ], [ 12.651723, 41.816186499000025 ], [ 12.648232, 41.818896499000061 ], [ 12.64464, 41.821056499000065 ], [ 12.643914500000051, 41.822419499000034 ], [ 12.643514500000038, 41.822609499000066 ], [ 12.64299950000003, 41.822621499000036 ], [ 12.64254150000005, 41.822463499000037 ], [ 12.64151, 41.821553499000061 ], [ 12.640671, 41.821562999000037 ], [ 12.640517500000044, 41.821681499000078 ], [ 12.640543500000035, 41.821954499000071 ], [ 12.640318, 41.822359499000072 ], [ 12.638553500000057, 41.824011999000049 ], [ 12.631353, 41.828582999000048 ], [ 12.630837, 41.82870249900003 ], [ 12.630230500000039, 41.828172499000061 ], [ 12.631154500000036, 41.827481999000042 ], [ 12.630364, 41.827004499000054 ], [ 12.629355500000031, 41.826972999000077 ], [ 12.62922, 41.825782999000069 ], [ 12.631411, 41.824086499000032 ], [ 12.626008, 41.821339499000032 ], [ 12.626139500000022, 41.820923999000058 ], [ 12.626341500000024, 41.820441499000026 ], [ 12.626658500000076, 41.820282499000029 ], [ 12.626921, 41.81968899900005 ], [ 12.626847, 41.819127999000045 ], [ 12.626644500000054, 41.818992999000045 ], [ 12.626789, 41.818658499000037 ], [ 12.627171500000031, 41.81840949900004 ], [ 12.628076500000077, 41.818485499000076 ], [ 12.630066, 41.817699499000071 ], [ 12.630714, 41.817580999000029 ], [ 12.631171, 41.816875499000048 ], [ 12.632328, 41.815989499000068 ], [ 12.63295, 41.814989499000035 ], [ 12.634266, 41.814156499000035 ], [ 12.63442150000003, 41.813448999000059 ], [ 12.635327, 41.812228499000071 ], [ 12.636603, 41.811254999000028 ], [ 12.637399500000072, 41.810913499000037 ], [ 12.638181, 41.81034949900004 ], [ 12.638514500000042, 41.809929999000076 ], [ 12.63842, 41.809690999000054 ], [ 12.637042500000064, 41.809111499000039 ], [ 12.637139500000046, 41.80868999900008 ], [ 12.637953500000037, 41.80775249900006 ], [ 12.637966, 41.807281999000054 ], [ 12.637724500000047, 41.804651499000045 ], [ 12.636869, 41.803670499000077 ], [ 12.640596, 41.80167349900006 ], [ 12.644704500000046, 41.799638999000081 ], [ 12.645516500000042, 41.799355999000056 ], [ 12.647557, 41.798109999000076 ], [ 12.64858, 41.797698999000033 ], [ 12.65314, 41.796438999000031 ], [ 12.651818500000047, 41.796076499000037 ], [ 12.652493500000048, 41.794723499000042 ], [ 12.653242500000033, 41.79390999900005 ], [ 12.653585500000077, 41.792750999000077 ], [ 12.653502, 41.792199999000047 ], [ 12.652595, 41.791447499000071 ], [ 12.651638500000047, 41.791317499000058 ], [ 12.648302, 41.79232999900006 ], [ 12.647886, 41.792613499000026 ], [ 12.64582050000007, 41.793397999000035 ], [ 12.645101, 41.794087999000055 ], [ 12.644927500000051, 41.795813499000076 ], [ 12.644562, 41.796837499000048 ], [ 12.643085, 41.796143999000037 ], [ 12.64193, 41.795988499000032 ], [ 12.643288, 41.797198499000046 ], [ 12.6433, 41.797356499000045 ], [ 12.642513, 41.798057499000038 ], [ 12.642378, 41.798044499000071 ], [ 12.642066500000055, 41.79736249900003 ], [ 12.640992500000038, 41.796610999000052 ], [ 12.640718, 41.795889499000054 ], [ 12.639477, 41.796183499000051 ], [ 12.638133500000038, 41.79631099900007 ], [ 12.637973500000044, 41.796397999000078 ], [ 12.638146, 41.797193999000058 ], [ 12.63812050000007, 41.798046999000064 ], [ 12.638037, 41.798148999000034 ], [ 12.636093, 41.799914499000067 ], [ 12.635993, 41.800020499000027 ], [ 12.636106, 41.800139999000066 ], [ 12.635257, 41.800230499000065 ], [ 12.634253500000057, 41.799908499000026 ], [ 12.632867, 41.800748999000064 ], [ 12.633052, 41.801112999000054 ], [ 12.634321, 41.801868499000079 ], [ 12.634239500000035, 41.802037999000049 ], [ 12.632976500000041, 41.80254349900008 ], [ 12.631234500000062, 41.802259999000057 ], [ 12.629993, 41.803449999000065 ], [ 12.630453, 41.80427449900003 ], [ 12.631532, 41.804677499000036 ], [ 12.630520500000046, 41.80554599900006 ], [ 12.629537500000026, 41.806209999000032 ], [ 12.628787500000044, 41.80642399900006 ], [ 12.627991, 41.806684499000028 ], [ 12.626968500000032, 41.807275999000069 ], [ 12.624784500000032, 41.807421999000042 ], [ 12.623134, 41.807781999000042 ], [ 12.622987500000022, 41.807274499000073 ], [ 12.623323500000026, 41.807080499000051 ], [ 12.623659, 41.806169499000077 ], [ 12.623901, 41.805268499000078 ], [ 12.623384500000043, 41.804902999000035 ], [ 12.622383500000069, 41.804891499000064 ], [ 12.621705500000076, 41.805651999000077 ], [ 12.620501, 41.807616999000061 ], [ 12.620087, 41.80786899900005 ], [ 12.619768, 41.807741499000031 ], [ 12.61963650000007, 41.807477999000071 ], [ 12.619751500000064, 41.806968999000048 ], [ 12.619512500000042, 41.805628999000078 ], [ 12.618726, 41.805445999000028 ], [ 12.616689, 41.804528499000071 ], [ 12.615924, 41.805142499000056 ], [ 12.614839, 41.807083499000044 ], [ 12.612072, 41.808419499000081 ], [ 12.610380500000076, 41.808383499000058 ], [ 12.60836, 41.808862499000043 ], [ 12.606538, 41.808049999000048 ], [ 12.604461, 41.807828499000038 ], [ 12.603101, 41.809142499000075 ], [ 12.601836500000047, 41.810248499000068 ], [ 12.601145, 41.810996999000054 ], [ 12.600121, 41.81174149900005 ], [ 12.597954500000071, 41.813942999000062 ], [ 12.597401500000046, 41.814210499000069 ], [ 12.594591, 41.816362999000035 ], [ 12.594531500000073, 41.816827499000055 ], [ 12.593676, 41.817572999000049 ], [ 12.591311, 41.820434999000042 ], [ 12.589627, 41.821045499000036 ], [ 12.588826, 41.821285499000055 ], [ 12.587374500000067, 41.821389999000075 ], [ 12.586966500000074, 41.821588499000029 ], [ 12.586309, 41.821552499000063 ], [ 12.585579, 41.820951499000046 ], [ 12.583809500000029, 41.820054499000037 ], [ 12.59062, 41.814473999000029 ], [ 12.593390500000055, 41.812004999000067 ], [ 12.591414, 41.810788999000067 ], [ 12.589473, 41.809185999000078 ], [ 12.587978, 41.808199999000067 ], [ 12.591163, 41.803677999000058 ], [ 12.594272, 41.799568499000031 ], [ 12.599336500000049, 41.797210499000073 ], [ 12.594610500000044, 41.792609499000037 ], [ 12.594100500000025, 41.79225199900003 ], [ 12.59474, 41.791715999000075 ], [ 12.595294500000023, 41.791943999000068 ], [ 12.596781500000077, 41.791438999000036 ], [ 12.597434, 41.791119499000047 ], [ 12.597721500000034, 41.790670999000042 ], [ 12.59710750000005, 41.78995549900003 ], [ 12.595143500000063, 41.789783999000065 ], [ 12.596087, 41.788781499000038 ], [ 12.596051500000044, 41.788677499000073 ], [ 12.594857500000046, 41.787053499000081 ], [ 12.593673, 41.786145999000041 ], [ 12.59329450000007, 41.78589499900005 ], [ 12.59282950000005, 41.78581549900008 ], [ 12.592146500000069, 41.78634499900005 ], [ 12.591626500000075, 41.786368999000047 ], [ 12.591063500000075, 41.785863999000071 ], [ 12.59031, 41.785454999000081 ], [ 12.590597500000058, 41.784972499000048 ], [ 12.590006, 41.784452499000054 ], [ 12.590445, 41.783250499000076 ], [ 12.589832, 41.782469999000057 ], [ 12.59097550000007, 41.782103999000071 ], [ 12.590245500000037, 41.780908999000076 ], [ 12.58989, 41.779423999000073 ], [ 12.588858, 41.776643499000045 ], [ 12.589099, 41.776395499000046 ], [ 12.590047, 41.776052999000058 ], [ 12.589803500000073, 41.775567999000032 ], [ 12.589218500000072, 41.77520449900004 ], [ 12.589138, 41.774991499000066 ], [ 12.589351, 41.774298999000052 ], [ 12.58927, 41.773827999000048 ], [ 12.588035, 41.772284499000079 ], [ 12.587981500000069, 41.772077499000034 ], [ 12.588378, 41.771186499000066 ], [ 12.58825, 41.769475999000065 ], [ 12.587703500000032, 41.768766999000036 ], [ 12.587224, 41.767754999000033 ], [ 12.584922, 41.764977999000052 ], [ 12.584595500000034, 41.763875499000051 ], [ 12.584617, 41.76305749900007 ], [ 12.585141500000077, 41.762987499000076 ], [ 12.58495750000003, 41.762353499000028 ], [ 12.584358, 41.762279999000043 ], [ 12.583544500000073, 41.759382999000024 ], [ 12.583587, 41.759291499000028 ], [ 12.587329, 41.759455999000068 ], [ 12.591046500000061, 41.759245499000031 ], [ 12.595210500000064, 41.758898499000054 ], [ 12.596673, 41.758595999000079 ], [ 12.595814500000074, 41.757224499000074 ], [ 12.595546, 41.755883999000048 ], [ 12.594938500000069, 41.755033499000035 ], [ 12.594391500000029, 41.755027999000049 ], [ 12.594486, 41.75521149900004 ], [ 12.594400500000063, 41.75566599900003 ], [ 12.594109, 41.755985499000076 ], [ 12.593158, 41.755682999000044 ], [ 12.591481500000043, 41.755573499000036 ], [ 12.59129, 41.755150499000081 ], [ 12.588454, 41.755160999000054 ], [ 12.586196, 41.754034999000055 ], [ 12.585141500000077, 41.753922999000054 ], [ 12.584074, 41.753843999000026 ], [ 12.583078, 41.75394699900005 ], [ 12.582523500000036, 41.753815999000039 ], [ 12.583751500000062, 41.752387499000065 ], [ 12.587459, 41.750900499000068 ], [ 12.589576500000021, 41.749224499000036 ], [ 12.589992, 41.748458999000036 ], [ 12.589998500000036, 41.74788249900007 ], [ 12.589281500000027, 41.746552499000074 ], [ 12.589204500000051, 41.745960999000033 ], [ 12.588511500000038, 41.745752999000047 ], [ 12.58709, 41.745738999000025 ], [ 12.58602, 41.744124499000065 ], [ 12.585783500000048, 41.743461999000033 ], [ 12.58476, 41.74229249900003 ], [ 12.584428, 41.74128999900006 ], [ 12.584651500000064, 41.739894499000059 ], [ 12.584434500000043, 41.739558999000053 ], [ 12.586064500000077, 41.739815999000029 ], [ 12.586888500000043, 41.739486499000066 ], [ 12.588688, 41.739596499000072 ], [ 12.593021500000077, 41.740515999000024 ], [ 12.593665500000043, 41.740664499000047 ], [ 12.594301500000029, 41.74045699900006 ], [ 12.59598150000005, 41.740464999000039 ], [ 12.597770500000024, 41.740538499000024 ], [ 12.598242, 41.740314499000078 ], [ 12.598742500000071, 41.739473499000042 ], [ 12.599315, 41.739192999000068 ], [ 12.599965500000053, 41.739156999000045 ], [ 12.599919, 41.738147499000036 ], [ 12.599339, 41.737423999000043 ], [ 12.599402, 41.736609999000052 ], [ 12.599242, 41.736060999000074 ], [ 12.599039, 41.735782999000037 ], [ 12.596357500000067, 41.734506499000076 ], [ 12.595301500000062, 41.73376599900007 ], [ 12.59311450000007, 41.732807499000046 ], [ 12.59319, 41.730902999000079 ], [ 12.593921, 41.73020899900007 ], [ 12.59444650000006, 41.730014999000048 ], [ 12.595479, 41.729939999000067 ], [ 12.596766, 41.730175999000039 ], [ 12.595757, 41.729648999000062 ], [ 12.596789500000057, 41.727121999000076 ], [ 12.597035500000061, 41.726335499000072 ], [ 12.597005500000023, 41.725997499000073 ], [ 12.596761500000071, 41.72592049900004 ], [ 12.595382500000028, 41.726481499000045 ], [ 12.594706500000029, 41.725917499000047 ], [ 12.591445500000077, 41.726946999000063 ], [ 12.59064950000004, 41.727021499000045 ], [ 12.590140500000075, 41.726812499000062 ], [ 12.591467500000022, 41.723137999000073 ], [ 12.592220500000053, 41.720047499000032 ], [ 12.59574, 41.720783499000049 ], [ 12.597643, 41.720989499000041 ], [ 12.599181, 41.71973949900007 ], [ 12.6003, 41.719681499000046 ], [ 12.600319, 41.718541999000081 ], [ 12.600052500000061, 41.717622499000072 ], [ 12.600306500000045, 41.71725899900008 ], [ 12.601425, 41.716597999000044 ], [ 12.599482500000022, 41.715869999000063 ], [ 12.60015, 41.713706999000067 ], [ 12.602149, 41.711586499000077 ], [ 12.603705500000046, 41.711821499000052 ], [ 12.604499500000031, 41.710530999000071 ], [ 12.604044500000043, 41.708208499000079 ], [ 12.603265, 41.708169999000063 ], [ 12.604229, 41.706473999000025 ], [ 12.607969, 41.707711499000027 ], [ 12.610521, 41.708900999000036 ], [ 12.612224, 41.709333499000024 ], [ 12.612949, 41.708896499000048 ], [ 12.612094, 41.707959999000025 ], [ 12.610912, 41.707114499000056 ], [ 12.60683, 41.704716999000027 ], [ 12.605332500000031, 41.703368499000078 ], [ 12.60433, 41.702161499000056 ], [ 12.60297550000007, 41.700123999000027 ], [ 12.603810500000066, 41.69995349900006 ], [ 12.60503250000005, 41.699104999000042 ], [ 12.605634, 41.698423999000056 ], [ 12.605273500000067, 41.697764499000073 ], [ 12.604334, 41.696875499000043 ], [ 12.603912500000035, 41.696244999000044 ], [ 12.602824, 41.695454999000049 ], [ 12.602108, 41.693388499000037 ], [ 12.601438500000029, 41.692652999000074 ], [ 12.603214, 41.691426499000045 ], [ 12.599779500000068, 41.690091499000062 ], [ 12.597203500000035, 41.690933499000039 ], [ 12.595341, 41.692137999000067 ] ], [ [ 12.451201500000025, 41.906368499000052 ], [ 12.450329, 41.906474999000068 ], [ 12.45022, 41.905822999000065 ], [ 12.448816500000021, 41.904674499000066 ], [ 12.44845950000007, 41.903686499000059 ], [ 12.446636, 41.902225499000053 ], [ 12.445639500000027, 41.901946999000074 ], [ 12.445716, 41.901687499000047 ], [ 12.44668850000005, 41.901744999000073 ], [ 12.447916, 41.900737999000057 ], [ 12.448710500000061, 41.901019999000027 ], [ 12.450548, 41.900905499000032 ], [ 12.45058750000004, 41.900649999000052 ], [ 12.451373, 41.900448499000049 ], [ 12.454275, 41.900291499000048 ], [ 12.455013500000064, 41.900481999000078 ], [ 12.454867500000034, 41.901576999000042 ], [ 12.456298, 41.901744999000073 ], [ 12.457160500000043, 41.901275499000064 ], [ 12.458003, 41.901485499000046 ], [ 12.45825, 41.90277499900003 ], [ 12.457474500000046, 41.903350999000054 ], [ 12.457548, 41.905921999000043 ], [ 12.456016500000032, 41.906333999000026 ], [ 12.45582, 41.907197499000063 ], [ 12.455717, 41.907520499000043 ], [ 12.451201500000025, 41.906368499000052 ] ] ], [ [ [ 12.285093, 42.135743499000057 ], [ 12.285531500000047, 42.13624149900005 ], [ 12.28658, 42.136117499000079 ], [ 12.287840500000073, 42.136637999000072 ], [ 12.28938050000005, 42.136555499000053 ], [ 12.290772, 42.137049499000057 ], [ 12.292219500000044, 42.137011999000038 ], [ 12.293047, 42.137756499000034 ], [ 12.293612, 42.137912499000038 ], [ 12.29443, 42.136678999000026 ], [ 12.295433500000058, 42.135624499000073 ], [ 12.295936500000039, 42.134859499000072 ], [ 12.29614950000007, 42.134861999000066 ], [ 12.298021, 42.135946499000056 ], [ 12.299491, 42.137147999000035 ], [ 12.299981, 42.13651949900003 ], [ 12.300417500000037, 42.13543099900005 ], [ 12.300726, 42.135321499000042 ], [ 12.301610500000038, 42.135859999000047 ], [ 12.301111500000047, 42.136435499000072 ], [ 12.301055, 42.136760999000046 ], [ 12.301813500000037, 42.137809999000069 ], [ 12.302719500000023, 42.138488499000061 ], [ 12.304594500000064, 42.139140499000064 ], [ 12.304703500000073, 42.139498499000069 ], [ 12.305654, 42.140263999000069 ], [ 12.307261500000038, 42.140949999000043 ], [ 12.307493500000021, 42.140829499000063 ], [ 12.313827500000059, 42.137042499000074 ], [ 12.313976, 42.137253499000053 ], [ 12.317283, 42.135511499000074 ], [ 12.318584500000043, 42.137351999000032 ], [ 12.318770500000028, 42.137252999000054 ], [ 12.320556, 42.135398999000074 ], [ 12.320387, 42.129766999000026 ], [ 12.322088500000064, 42.129576999000051 ], [ 12.322906500000045, 42.129546499000071 ], [ 12.323023500000033, 42.129677499000024 ], [ 12.32581250000004, 42.129487999000048 ], [ 12.328778500000055, 42.125333999000077 ], [ 12.331872500000031, 42.125189499000044 ], [ 12.336818, 42.122643499000048 ], [ 12.336685500000044, 42.120749499000055 ], [ 12.335736, 42.118155999000066 ], [ 12.33521, 42.11735599900004 ], [ 12.335133, 42.116885999000033 ], [ 12.335445500000048, 42.115490499000032 ], [ 12.336692500000026, 42.113301999000043 ], [ 12.336703500000056, 42.112426499000037 ], [ 12.334993, 42.112755999000058 ], [ 12.33383, 42.11331399900007 ], [ 12.332753500000024, 42.113174499000024 ], [ 12.324172500000032, 42.11499599900003 ], [ 12.322867500000029, 42.114391499000078 ], [ 12.316041, 42.114297499000031 ], [ 12.31547850000004, 42.113688999000033 ], [ 12.311006500000076, 42.109230999000033 ], [ 12.308458, 42.106260999000028 ], [ 12.307405, 42.104174999000065 ], [ 12.30694150000005, 42.103877499000077 ], [ 12.306158, 42.104143499000031 ], [ 12.305350500000031, 42.104675499000052 ], [ 12.304053, 42.106500499000049 ], [ 12.303251500000044, 42.10734749900007 ], [ 12.303027500000042, 42.108173499000031 ], [ 12.302222500000028, 42.10918699900003 ], [ 12.301958500000069, 42.109928499000034 ], [ 12.302027500000065, 42.111245999000062 ], [ 12.301938500000063, 42.111621999000079 ], [ 12.301638, 42.111909999000034 ], [ 12.300544500000058, 42.112053999000068 ], [ 12.300260500000036, 42.11149049900007 ], [ 12.298375, 42.111301499000035 ], [ 12.296559, 42.111493499000062 ], [ 12.2933, 42.111411499000042 ], [ 12.293339500000059, 42.112598999000056 ], [ 12.291525, 42.112853499000039 ], [ 12.291004500000042, 42.113539499000069 ], [ 12.290420500000039, 42.113943499000072 ], [ 12.289885500000025, 42.115066499000079 ], [ 12.289469500000052, 42.114992999000037 ], [ 12.289047, 42.11452299900003 ], [ 12.289033, 42.11400149900004 ], [ 12.288312500000075, 42.113886999000044 ], [ 12.287854, 42.112720499000034 ], [ 12.286303, 42.112926999000081 ], [ 12.286540500000058, 42.111438999000029 ], [ 12.28647, 42.110535999000035 ], [ 12.285056, 42.110562999000081 ], [ 12.283302500000048, 42.112013499000057 ], [ 12.2818, 42.112416499000062 ], [ 12.281963500000074, 42.113001999000062 ], [ 12.281899500000065, 42.113516999000069 ], [ 12.281511, 42.115027499000064 ], [ 12.281548500000042, 42.115976499000055 ], [ 12.281278, 42.117514999000036 ], [ 12.280901, 42.118894499000078 ], [ 12.281026500000053, 42.119448999000042 ], [ 12.282958, 42.122171999000045 ], [ 12.283528500000045, 42.123623499000075 ], [ 12.283923500000071, 42.124224499000036 ], [ 12.284386500000039, 42.126610999000036 ], [ 12.284758, 42.127257499000052 ], [ 12.284807, 42.128192499000079 ], [ 12.285349, 42.128843499000027 ], [ 12.285608, 42.129434999000068 ], [ 12.28547, 42.130276499000047 ], [ 12.285680500000069, 42.131526499000074 ], [ 12.284292500000049, 42.134163999000066 ], [ 12.284174500000063, 42.134685499000057 ], [ 12.284477500000037, 42.134928999000067 ], [ 12.285093, 42.135743499000057 ] ] ] ] } }
]
}
