{
"type": "FeatureCollection",
"name": "rybnik",
"crs": { "type": "name", "properties": { "name": "urn:ogc:def:crs:OGC:1.3:CRS84" } },
"features": [
{ "type": "Feature", "properties": { }, "geometry": { "type": "Polygon", "coordinates": [ [ [ 18.54569, 50.185473499000068 ], [ 18.546891, 50.184295499000029 ], [ 18.550818, 50.182665999000051 ], [ 18.551859, 50.182345999000063 ], [ 18.555936, 50.181600499000069 ], [ 18.557966, 50.181020999000054 ], [ 18.563397, 50.168594999000049 ], [ 18.564099500000054, 50.168602499000031 ], [ 18.564905, 50.168405499000073 ], [ 18.56481, 50.168137999000066 ], [ 18.563471, 50.16814849900004 ], [ 18.572378, 50.148389999000074 ], [ 18.567463500000031, 50.147544499000048 ], [ 18.567748, 50.147108999000068 ], [ 18.568285500000059, 50.147040999000069 ], [ 18.568569500000024, 50.146411999000065 ], [ 18.56778, 50.145696999000052 ], [ 18.567027, 50.145488999000065 ], [ 18.565656500000046, 50.143355499000052 ], [ 18.566340500000024, 50.142801499000029 ], [ 18.566671, 50.142290499000069 ], [ 18.565865500000029, 50.141394499000057 ], [ 18.564432, 50.141872499000044 ], [ 18.562555, 50.139740999000026 ], [ 18.561007500000073, 50.13905199900006 ], [ 18.560468, 50.137984999000025 ], [ 18.559704, 50.137087499000074 ], [ 18.55876550000005, 50.136595499000066 ], [ 18.555616, 50.135383499000056 ], [ 18.555127500000026, 50.135331999000073 ], [ 18.553162500000042, 50.134600999000043 ], [ 18.552786, 50.134115999000073 ], [ 18.552132, 50.132628999000076 ], [ 18.551845, 50.132494999000073 ], [ 18.552465500000039, 50.132136499000069 ], [ 18.553217500000073, 50.132094499000061 ], [ 18.554246, 50.129555999000047 ], [ 18.556182500000034, 50.130128999000078 ], [ 18.559111, 50.130073999000047 ], [ 18.559108500000036, 50.130227499000057 ], [ 18.558571500000028, 50.130446499000072 ], [ 18.558392, 50.13229749900006 ], [ 18.559863500000063, 50.132754999000042 ], [ 18.559939, 50.132447499000079 ], [ 18.559627, 50.131345499000076 ], [ 18.559801, 50.131126499000061 ], [ 18.560843500000033, 50.130899499000066 ], [ 18.560561500000063, 50.130304999000032 ], [ 18.559892, 50.130025499000055 ], [ 18.559998, 50.129658499000072 ], [ 18.560326, 50.129323499000066 ], [ 18.561064500000043, 50.129661499000065 ], [ 18.561306, 50.129532999000048 ], [ 18.561891500000058, 50.128624499000068 ], [ 18.562884, 50.128721499000051 ], [ 18.563313500000049, 50.128185999000038 ], [ 18.562275500000055, 50.127829499000029 ], [ 18.563945500000045, 50.127465999000037 ], [ 18.563714, 50.126877999000044 ], [ 18.566868500000055, 50.12743449900006 ], [ 18.567731500000036, 50.127068999000073 ], [ 18.568388500000026, 50.126538999000047 ], [ 18.568970500000034, 50.125530499000035 ], [ 18.570106500000065, 50.125216999000031 ], [ 18.57058, 50.124733999000057 ], [ 18.572529, 50.12496599900004 ], [ 18.573652500000037, 50.12560299900008 ], [ 18.573971, 50.125345499000048 ], [ 18.574072500000057, 50.125562999000067 ], [ 18.573964500000045, 50.125859999000056 ], [ 18.573158, 50.126755999000068 ], [ 18.57303550000006, 50.128045499000052 ], [ 18.572565, 50.128737499000067 ], [ 18.571644500000048, 50.129459999000062 ], [ 18.570208, 50.132454999000061 ], [ 18.569955, 50.132403999000076 ], [ 18.573378500000047, 50.135330499000077 ], [ 18.57475, 50.136882999000079 ], [ 18.574786500000073, 50.136940999000046 ], [ 18.575355, 50.137684499000045 ], [ 18.578840500000069, 50.137244499000076 ], [ 18.580080500000065, 50.138145499000075 ], [ 18.582551, 50.140616999000031 ], [ 18.584627, 50.140514499000062 ], [ 18.587933, 50.141194999000049 ], [ 18.591897500000073, 50.142508999000029 ], [ 18.593463, 50.143510999000057 ], [ 18.595013, 50.14414399900005 ], [ 18.594745, 50.144407499000067 ], [ 18.59707, 50.145528999000078 ], [ 18.601773, 50.148434999000074 ], [ 18.604576500000064, 50.149398999000027 ], [ 18.606584, 50.14942699900007 ], [ 18.609618, 50.14917549900008 ], [ 18.612737500000037, 50.150000999000042 ], [ 18.617050500000062, 50.150753499000075 ], [ 18.62023750000003, 50.150798999000074 ], [ 18.623813, 50.151939999000035 ], [ 18.627204500000062, 50.152241999000069 ], [ 18.629674500000078, 50.152933499000028 ], [ 18.62973450000004, 50.152853999000058 ], [ 18.629123500000048, 50.152661999000031 ], [ 18.630078500000025, 50.151474999000072 ], [ 18.629129500000033, 50.151256499000056 ], [ 18.628742, 50.150503499000081 ], [ 18.628842500000076, 50.149868999000034 ], [ 18.628991500000041, 50.149886999000046 ], [ 18.628921, 50.150684499000079 ], [ 18.629209500000059, 50.151167499000053 ], [ 18.631608500000027, 50.151717499000029 ], [ 18.631888, 50.151345499000058 ], [ 18.625580500000069, 50.147024499000054 ], [ 18.624628, 50.146616999000059 ], [ 18.622709, 50.14560349900006 ], [ 18.622844, 50.145247999000048 ], [ 18.621491, 50.144735499000035 ], [ 18.617664, 50.141845999000054 ], [ 18.617511, 50.141703499000073 ], [ 18.61773050000005, 50.141519999000081 ], [ 18.617741, 50.141300499000067 ], [ 18.617163500000061, 50.140440999000077 ], [ 18.616327500000068, 50.138476499000035 ], [ 18.615841, 50.137742999000068 ], [ 18.614188, 50.13552899900003 ], [ 18.614046500000029, 50.13492799900007 ], [ 18.613307500000076, 50.133798999000078 ], [ 18.611632500000042, 50.131619999000065 ], [ 18.610341500000061, 50.132099499000049 ], [ 18.609950500000025, 50.131860999000025 ], [ 18.609749500000078, 50.131503499000075 ], [ 18.609368, 50.131305999000062 ], [ 18.608843, 50.131311499000049 ], [ 18.608107500000074, 50.131686499000068 ], [ 18.606085500000063, 50.131990999000038 ], [ 18.604872500000056, 50.134497999000075 ], [ 18.603246, 50.133961499000065 ], [ 18.600637, 50.132378499000026 ], [ 18.599578500000064, 50.13148299900007 ], [ 18.598006500000054, 50.129583499000034 ], [ 18.595771, 50.128382999000053 ], [ 18.594153, 50.12716449900006 ], [ 18.594637500000033, 50.127043499000081 ], [ 18.593196500000033, 50.124145499000065 ], [ 18.591688, 50.123902999000052 ], [ 18.591175, 50.124014999000053 ], [ 18.591108, 50.123722999000051 ], [ 18.592435500000022, 50.11641049900004 ], [ 18.607875500000034, 50.119079999000064 ], [ 18.613713500000074, 50.120971999000062 ], [ 18.614456500000074, 50.120177999000077 ], [ 18.614634, 50.119459499000072 ], [ 18.61443550000007, 50.119007999000075 ], [ 18.613908, 50.118592499000044 ], [ 18.613492, 50.118160499000055 ], [ 18.613739500000065, 50.117564499000082 ], [ 18.613866, 50.117342999000073 ], [ 18.614966500000037, 50.116806499000063 ], [ 18.615473, 50.115990999000076 ], [ 18.615894, 50.115642999000045 ], [ 18.617112500000076, 50.115135999000074 ], [ 18.617418, 50.114863999000079 ], [ 18.616896500000053, 50.114133499000047 ], [ 18.616796500000078, 50.113244999000074 ], [ 18.61684450000007, 50.11094999900007 ], [ 18.617290500000024, 50.110299999000063 ], [ 18.616596, 50.109174999000061 ], [ 18.616504, 50.108806499000082 ], [ 18.616774500000076, 50.108549999000047 ], [ 18.617597500000045, 50.108783499000026 ], [ 18.618362500000046, 50.108236999000042 ], [ 18.619574, 50.108028499000056 ], [ 18.619605, 50.107529499000066 ], [ 18.6226, 50.107626999000047 ], [ 18.622754, 50.108135999000069 ], [ 18.621377, 50.10853049900004 ], [ 18.621502500000076, 50.108635999000057 ], [ 18.622758500000032, 50.108544499000061 ], [ 18.62291, 50.108856999000068 ], [ 18.631788, 50.110464999000044 ], [ 18.637578500000075, 50.097581499000057 ], [ 18.632418500000028, 50.096617499000047 ], [ 18.637865, 50.084576999000035 ], [ 18.638723, 50.084929999000053 ], [ 18.63921, 50.085740499000053 ], [ 18.641912500000046, 50.085404499000049 ], [ 18.641996500000062, 50.085226999000042 ], [ 18.643028, 50.08512599900007 ], [ 18.645892500000059, 50.085466999000062 ], [ 18.646573, 50.08503999900006 ], [ 18.64874, 50.084481499000049 ], [ 18.649636500000042, 50.084392499000046 ], [ 18.650629, 50.083720999000036 ], [ 18.650211, 50.082731999000032 ], [ 18.650965500000041, 50.082001999000056 ], [ 18.652298, 50.081616499000063 ], [ 18.652108500000054, 50.082514499000069 ], [ 18.65277, 50.082561999000063 ], [ 18.653053500000055, 50.082277999000041 ], [ 18.653459, 50.082204999000055 ], [ 18.654534, 50.082068499000059 ], [ 18.655504500000063, 50.081997499000067 ], [ 18.656673500000068, 50.081432999000072 ], [ 18.65677050000005, 50.081255499000065 ], [ 18.655743500000028, 50.079987999000082 ], [ 18.655414500000063, 50.080028499000036 ], [ 18.655525, 50.080169999000077 ], [ 18.655314, 50.080301499000029 ], [ 18.65479, 50.080395999000075 ], [ 18.654072500000041, 50.080229499000041 ], [ 18.653644, 50.080046999000047 ], [ 18.653281, 50.079960499000038 ], [ 18.651864500000045, 50.08038349900005 ], [ 18.649937500000078, 50.080709999000078 ], [ 18.649276, 50.08093149900003 ], [ 18.647707, 50.081195999000045 ], [ 18.647106500000064, 50.081601999000043 ], [ 18.645766500000036, 50.081132499000034 ], [ 18.645223, 50.08112249900006 ], [ 18.644838, 50.080890499000077 ], [ 18.64430150000004, 50.079926999000065 ], [ 18.644087500000069, 50.079168999000046 ], [ 18.644149, 50.078166499000076 ], [ 18.644442, 50.077937999000028 ], [ 18.644453, 50.077046499000062 ], [ 18.644372, 50.076897999000039 ], [ 18.643831, 50.077030999000044 ], [ 18.64402750000005, 50.076304499000059 ], [ 18.644123, 50.074734999000043 ], [ 18.643740500000035, 50.073170499000071 ], [ 18.643011, 50.071827499000051 ], [ 18.643188, 50.071325999000067 ], [ 18.643411, 50.071163999000078 ], [ 18.641887, 50.070429999000055 ], [ 18.642155500000058, 50.070236999000031 ], [ 18.641388500000062, 50.069644499000049 ], [ 18.640480500000024, 50.068601499000067 ], [ 18.64139, 50.068603999000061 ], [ 18.641486, 50.068719499000053 ], [ 18.642059, 50.068881499000042 ], [ 18.642098, 50.068632999000044 ], [ 18.642225500000052, 50.068355999000062 ], [ 18.64221150000003, 50.068301999000028 ], [ 18.641703500000062, 50.068185999000036 ], [ 18.641301500000054, 50.068204999000045 ], [ 18.640345, 50.068065999000055 ], [ 18.638970500000028, 50.067561499000078 ], [ 18.63916050000006, 50.06717549900003 ], [ 18.638334, 50.066816999000082 ], [ 18.636919, 50.066367999000079 ], [ 18.636098, 50.065697499000066 ], [ 18.636236, 50.065589499000055 ], [ 18.642116500000043, 50.066677499000036 ], [ 18.642121, 50.066948499000034 ], [ 18.642334, 50.067201499000078 ], [ 18.645940500000052, 50.066529999000068 ], [ 18.645642500000065, 50.065054499000041 ], [ 18.645713, 50.063887999000031 ], [ 18.645418500000062, 50.062616999000056 ], [ 18.645028, 50.061975499000027 ], [ 18.644765, 50.060856999000066 ], [ 18.643613, 50.059506999000064 ], [ 18.644348500000035, 50.059040999000047 ], [ 18.644829, 50.059148499000059 ], [ 18.645459500000072, 50.059533499000054 ], [ 18.646289, 50.059521499000027 ], [ 18.647316500000045, 50.058490499000072 ], [ 18.647957, 50.057825999000045 ], [ 18.648682500000064, 50.057912499000054 ], [ 18.650234, 50.057169499000054 ], [ 18.650914500000056, 50.05619499900007 ], [ 18.650483, 50.055215499000042 ], [ 18.651292500000068, 50.055473499000072 ], [ 18.651654500000063, 50.054672499000048 ], [ 18.649934, 50.053879499000061 ], [ 18.648645, 50.052727999000069 ], [ 18.64683, 50.051667499000075 ], [ 18.645074, 50.051150499000073 ], [ 18.642596, 50.050760499000035 ], [ 18.641314, 50.050730999000052 ], [ 18.639544500000056, 50.050122999000052 ], [ 18.639211, 50.049946499000043 ], [ 18.63898, 50.049699499000042 ], [ 18.638585500000033, 50.049617999000077 ], [ 18.637225500000056, 50.04998099900007 ], [ 18.636373500000047, 50.049516499000049 ], [ 18.636138500000072, 50.049338999000042 ], [ 18.635416, 50.049476499000036 ], [ 18.634458500000051, 50.04941799900007 ], [ 18.633653500000037, 50.049036499000067 ], [ 18.633052, 50.04893449900004 ], [ 18.631614, 50.049040999000056 ], [ 18.629833, 50.048716999000078 ], [ 18.628393500000072, 50.048167999000043 ], [ 18.626067500000033, 50.047565999000028 ], [ 18.624219, 50.047201499000039 ], [ 18.623792, 50.047132999000041 ], [ 18.623574500000075, 50.047275499000079 ], [ 18.622941, 50.047296999000082 ], [ 18.622512, 50.046932999000035 ], [ 18.621460500000069, 50.046258999000031 ], [ 18.620788, 50.046511999000074 ], [ 18.619624500000043, 50.047443999000052 ], [ 18.617284, 50.047451999000032 ], [ 18.617095, 50.04717849900004 ], [ 18.618057500000077, 50.046776499000032 ], [ 18.618367500000033, 50.046479499000043 ], [ 18.617837500000064, 50.045953499000063 ], [ 18.61724, 50.045396999000047 ], [ 18.616605500000048, 50.04492699900004 ], [ 18.615524500000049, 50.044230999000035 ], [ 18.614574, 50.044091999000045 ], [ 18.612326, 50.042991499000038 ], [ 18.611611500000038, 50.042340999000032 ], [ 18.611282500000073, 50.041681499000049 ], [ 18.610036500000035, 50.04171799900007 ], [ 18.609913, 50.041264999000077 ], [ 18.609272, 50.041693999000074 ], [ 18.609165500000074, 50.04284799900006 ], [ 18.608707500000037, 50.043330999000034 ], [ 18.606989500000054, 50.043488499000034 ], [ 18.605346500000053, 50.043372999000042 ], [ 18.603721, 50.04425849900008 ], [ 18.603181500000062, 50.044382999000049 ], [ 18.602209, 50.043215499000041 ], [ 18.60278, 50.043236499000045 ], [ 18.603339500000061, 50.042962999000054 ], [ 18.601283, 50.041905499000052 ], [ 18.601390500000036, 50.041489499000079 ], [ 18.600549500000056, 50.041136999000059 ], [ 18.599525500000027, 50.04079499900007 ], [ 18.598573, 50.040487499000051 ], [ 18.598263, 50.040853499000036 ], [ 18.597308, 50.040905999000074 ], [ 18.596204500000056, 50.040964999000039 ], [ 18.595928, 50.040728999000066 ], [ 18.594328500000074, 50.040286999000045 ], [ 18.593774, 50.039489499000069 ], [ 18.596486, 50.039845999000079 ], [ 18.59702, 50.039699499000051 ], [ 18.596786, 50.038693999000031 ], [ 18.596429, 50.037539999000046 ], [ 18.595401500000037, 50.036458999000047 ], [ 18.594437, 50.035933499000066 ], [ 18.592654, 50.036058999000034 ], [ 18.591859500000055, 50.035407999000029 ], [ 18.591279500000041, 50.035874499000045 ], [ 18.589863500000035, 50.036182999000061 ], [ 18.588289, 50.03606049900003 ], [ 18.58769250000006, 50.035591499000077 ], [ 18.58632, 50.036158499000067 ], [ 18.586580500000025, 50.036730499000043 ], [ 18.587315, 50.03754249900004 ], [ 18.587675, 50.040358499000035 ], [ 18.587509500000067, 50.041373999000029 ], [ 18.588295500000072, 50.041411499000048 ], [ 18.588419, 50.041814999000053 ], [ 18.588016, 50.042508999000063 ], [ 18.587271, 50.042838999000026 ], [ 18.584857500000055, 50.043096999000056 ], [ 18.58489, 50.043600499000036 ], [ 18.584194, 50.045079999000052 ], [ 18.583985, 50.046456999000043 ], [ 18.581476, 50.047631499000033 ], [ 18.580278, 50.048023499000067 ], [ 18.579275, 50.048047499000063 ], [ 18.57679, 50.048596499000041 ], [ 18.576478500000064, 50.049290499000051 ], [ 18.577794500000039, 50.04941149900003 ], [ 18.579220500000076, 50.049700499000039 ], [ 18.579866, 50.050429999000073 ], [ 18.580030500000078, 50.051716499000065 ], [ 18.579831500000068, 50.052088499000035 ], [ 18.580119500000023, 50.052828999000042 ], [ 18.581652, 50.053908499000045 ], [ 18.583272500000078, 50.054575999000065 ], [ 18.580903, 50.055953499000054 ], [ 18.579877, 50.056904499000041 ], [ 18.578695, 50.057694999000034 ], [ 18.577774, 50.059003999000026 ], [ 18.577492500000062, 50.059797499000069 ], [ 18.576668500000039, 50.061202999000045 ], [ 18.572677, 50.058976499000039 ], [ 18.57009, 50.057992999000078 ], [ 18.57071, 50.057569999000066 ], [ 18.568713500000058, 50.055998999000053 ], [ 18.569256500000051, 50.05540299900008 ], [ 18.566697500000032, 50.053322999000045 ], [ 18.565965500000061, 50.052863999000067 ], [ 18.563757500000065, 50.053568999000049 ], [ 18.563512500000058, 50.054106499000056 ], [ 18.562124500000039, 50.055075499000054 ], [ 18.560948500000052, 50.055864499000052 ], [ 18.560374, 50.055637999000055 ], [ 18.559713, 50.056061499000066 ], [ 18.559042, 50.056527499000026 ], [ 18.55768450000005, 50.056893499000068 ], [ 18.557455, 50.057510999000044 ], [ 18.557147, 50.057870999000045 ], [ 18.555734, 50.05768099900007 ], [ 18.555014, 50.057016499000042 ], [ 18.553008, 50.057092999000076 ], [ 18.551719, 50.057384999000078 ], [ 18.549209, 50.057134499000028 ], [ 18.547889, 50.05675799900007 ], [ 18.546942, 50.056470499000056 ], [ 18.547006500000066, 50.05488899900007 ], [ 18.546848, 50.05357649900003 ], [ 18.549001, 50.053600499000027 ], [ 18.548901500000056, 50.053027999000051 ], [ 18.545564, 50.052902999000025 ], [ 18.545359500000075, 50.053058499000031 ], [ 18.54512950000003, 50.054603499000052 ], [ 18.545306, 50.055424499000026 ], [ 18.545236, 50.056134999000051 ], [ 18.544970500000034, 50.056404499000053 ], [ 18.542823, 50.056910999000081 ], [ 18.543133500000067, 50.057239999000046 ], [ 18.543392500000039, 50.058009499000036 ], [ 18.541976, 50.058571999000037 ], [ 18.541162500000041, 50.059063499000047 ], [ 18.540097500000059, 50.059079499000063 ], [ 18.539382, 50.058864499000038 ], [ 18.535961, 50.055808999000078 ], [ 18.535266500000034, 50.05495649900007 ], [ 18.53465, 50.053569499000048 ], [ 18.53460350000006, 50.052969999000027 ], [ 18.535054, 50.051224999000056 ], [ 18.535048500000073, 50.050764499000081 ], [ 18.534604500000057, 50.050306999000043 ], [ 18.534378, 50.049849499000061 ], [ 18.534192500000074, 50.049018999000054 ], [ 18.532594500000073, 50.04764749900005 ], [ 18.532858, 50.047156499000039 ], [ 18.532761500000049, 50.046961499000076 ], [ 18.531957, 50.046197999000071 ], [ 18.53091, 50.044823499000074 ], [ 18.529677500000048, 50.04389799900008 ], [ 18.528699500000073, 50.044014999000069 ], [ 18.528317, 50.044197999000062 ], [ 18.526902500000062, 50.043481499000052 ], [ 18.52576, 50.043351999000038 ], [ 18.524687500000027, 50.042955499000072 ], [ 18.524362, 50.042009499000073 ], [ 18.524293500000056, 50.041529499000035 ], [ 18.524255500000038, 50.040941499000041 ], [ 18.524375, 50.04019899900004 ], [ 18.52424, 50.03947449900005 ], [ 18.523447, 50.038632499000073 ], [ 18.523201500000027, 50.03815699900008 ], [ 18.522768500000041, 50.037856499000043 ], [ 18.521921500000076, 50.037735999000063 ], [ 18.517598500000076, 50.037553499000069 ], [ 18.514648, 50.038357999000027 ], [ 18.513489500000048, 50.037944999000047 ], [ 18.510076, 50.037338499000043 ], [ 18.508545, 50.03759149900003 ], [ 18.504911, 50.037209999000027 ], [ 18.502096, 50.039769499000045 ], [ 18.500502, 50.042317499000035 ], [ 18.500410500000044, 50.044228499000042 ], [ 18.50020550000005, 50.044173499000067 ], [ 18.50049, 50.04611649900005 ], [ 18.500309, 50.046452499000054 ], [ 18.500888, 50.048810999000068 ], [ 18.499724, 50.048921999000072 ], [ 18.497900500000071, 50.049657999000033 ], [ 18.497062, 50.05013199900003 ], [ 18.495943500000067, 50.051062499000068 ], [ 18.494646, 50.05180849900006 ], [ 18.494049500000074, 50.051968499000054 ], [ 18.492565500000069, 50.052154499000039 ], [ 18.489828500000044, 50.051770499000042 ], [ 18.483303, 50.052492999000037 ], [ 18.481443500000069, 50.05244299900005 ], [ 18.479396500000064, 50.052619999000058 ], [ 18.480667, 50.053919999000072 ], [ 18.480461, 50.054667499000061 ], [ 18.480848500000036, 50.05543749900005 ], [ 18.480735, 50.05629699900004 ], [ 18.481087, 50.057052499000065 ], [ 18.479786500000046, 50.057455499000071 ], [ 18.479852, 50.058096499000044 ], [ 18.480334, 50.059147999000061 ], [ 18.479842500000075, 50.059562999000036 ], [ 18.478503500000045, 50.059689499000058 ], [ 18.476527500000032, 50.059481499000071 ], [ 18.475106, 50.059617999000068 ], [ 18.475434500000063, 50.060709499000041 ], [ 18.47645, 50.062610499000073 ], [ 18.476294500000051, 50.062691499000039 ], [ 18.474595, 50.06273999900003 ], [ 18.473884500000054, 50.062378499000033 ], [ 18.473047, 50.061619499000074 ], [ 18.472282500000063, 50.059991499000034 ], [ 18.470388, 50.060415499000044 ], [ 18.469174, 50.06082899900008 ], [ 18.469003500000042, 50.060613999000054 ], [ 18.469377500000064, 50.060388499000055 ], [ 18.469234500000027, 50.058937499000081 ], [ 18.468093, 50.059074499000076 ], [ 18.468159, 50.059989499000039 ], [ 18.465012, 50.059693999000046 ], [ 18.464536500000065, 50.05950049900008 ], [ 18.462735, 50.059502499000075 ], [ 18.459305500000028, 50.059217999000055 ], [ 18.455661, 50.059372999000061 ], [ 18.454838500000051, 50.059055499000067 ], [ 18.452760500000068, 50.05882249900003 ], [ 18.45218, 50.061040999000056 ], [ 18.454447, 50.062102499000048 ], [ 18.455737500000055, 50.06327249900005 ], [ 18.456788500000073, 50.063963999000066 ], [ 18.45788, 50.065179499000067 ], [ 18.45845950000006, 50.065664499000036 ], [ 18.458631, 50.066666499000064 ], [ 18.458454, 50.067528499000048 ], [ 18.45847150000003, 50.068574999000077 ], [ 18.460006, 50.069022999000026 ], [ 18.461492, 50.069097499000065 ], [ 18.463279, 50.069393999000056 ], [ 18.462617500000022, 50.070798499000034 ], [ 18.461657, 50.072239999000033 ], [ 18.46176550000007, 50.073449499000048 ], [ 18.461879, 50.073556499000063 ], [ 18.46046, 50.073902499000042 ], [ 18.458281500000055, 50.074156499000026 ], [ 18.458501, 50.074525999000059 ], [ 18.459034, 50.074382999000079 ], [ 18.459763500000065, 50.074400499000035 ], [ 18.461196, 50.074495499000079 ], [ 18.461106500000028, 50.075930499000037 ], [ 18.461246500000073, 50.077114499000061 ], [ 18.460921, 50.078882499000031 ], [ 18.460968, 50.079514999000025 ], [ 18.461340500000063, 50.079533499000036 ], [ 18.461441, 50.080394999000077 ], [ 18.456993, 50.081240499000046 ], [ 18.456070500000067, 50.081158999000081 ], [ 18.453884500000072, 50.081547999000065 ], [ 18.449616500000047, 50.082680499000048 ], [ 18.449023500000067, 50.082678999000052 ], [ 18.448164, 50.082195999000078 ], [ 18.44852, 50.081146999000055 ], [ 18.445969500000047, 50.080799499000079 ], [ 18.44293650000003, 50.081098999000062 ], [ 18.441684500000065, 50.080921499000056 ], [ 18.441834500000027, 50.081520999000077 ], [ 18.443561, 50.083883999000079 ], [ 18.444038, 50.084910999000044 ], [ 18.444137, 50.086655499000074 ], [ 18.443061, 50.086197999000035 ], [ 18.442328, 50.086406499000077 ], [ 18.444041500000026, 50.08783949900004 ], [ 18.445013, 50.088444499000047 ], [ 18.445738, 50.089203499000064 ], [ 18.447122500000035, 50.088697999000033 ], [ 18.447028, 50.087636499000041 ], [ 18.448115500000029, 50.08767399900006 ], [ 18.448426, 50.088942499000041 ], [ 18.449447500000076, 50.088662999000064 ], [ 18.44938650000006, 50.088477999000077 ], [ 18.450599, 50.088360999000031 ], [ 18.451460500000053, 50.088925999000026 ], [ 18.451472, 50.089613999000051 ], [ 18.451852, 50.089533999000082 ], [ 18.452298, 50.088578999000049 ], [ 18.453234, 50.089260499000034 ], [ 18.455695500000047, 50.090079999000068 ], [ 18.45629450000007, 50.090487999000061 ], [ 18.458204500000022, 50.089192499000035 ], [ 18.458445, 50.088427499000034 ], [ 18.459093, 50.087502999000037 ], [ 18.460642, 50.086982499000044 ], [ 18.461688500000037, 50.086059999000042 ], [ 18.463558, 50.084007499000052 ], [ 18.464153, 50.083537999000043 ], [ 18.465969500000028, 50.083071499000027 ], [ 18.467477, 50.082707499000037 ], [ 18.468776500000047, 50.082746499000052 ], [ 18.470292500000028, 50.08299099900006 ], [ 18.47209950000007, 50.084578499000031 ], [ 18.473005, 50.084928499000057 ], [ 18.475197, 50.085274499000036 ], [ 18.479731, 50.084563999000068 ], [ 18.482054, 50.083997999000076 ], [ 18.47961, 50.092659499000035 ], [ 18.479647, 50.09419549900008 ], [ 18.479849500000057, 50.095136999000033 ], [ 18.481085, 50.095657499000026 ], [ 18.481106500000067, 50.097114999000041 ], [ 18.481668500000069, 50.099748499000043 ], [ 18.481158, 50.099837999000044 ], [ 18.481441, 50.10056699900008 ], [ 18.482676, 50.10193749900003 ], [ 18.48314, 50.102650999000048 ], [ 18.484517, 50.103343499000061 ], [ 18.486068500000044, 50.104366499000037 ], [ 18.485883500000057, 50.104853999000056 ], [ 18.486023, 50.105926499000077 ], [ 18.486350500000071, 50.106573499000035 ], [ 18.489599500000054, 50.108571999000048 ], [ 18.489258, 50.108781499000031 ], [ 18.489063500000043, 50.109966499000052 ], [ 18.489588500000025, 50.111296999000047 ], [ 18.489828, 50.111597999000026 ], [ 18.489999, 50.11213249900004 ], [ 18.489221500000042, 50.113114999000061 ], [ 18.488601, 50.112997499000073 ], [ 18.48786350000006, 50.113792999000054 ], [ 18.487011500000051, 50.114055499000074 ], [ 18.486211, 50.114317999000036 ], [ 18.485645500000032, 50.114871999000059 ], [ 18.486488, 50.114940499000056 ], [ 18.486905, 50.114495999000042 ], [ 18.488863, 50.114772999000081 ], [ 18.491929, 50.118054499000039 ], [ 18.493651, 50.120366499000056 ], [ 18.491632500000037, 50.121274499000037 ], [ 18.490393, 50.121604999000056 ], [ 18.489924500000029, 50.120813499000064 ], [ 18.487808, 50.121631999000044 ], [ 18.487586500000077, 50.121195499000066 ], [ 18.485960500000033, 50.121460499000079 ], [ 18.485793, 50.121203499000046 ], [ 18.484029500000076, 50.121368499000027 ], [ 18.48279, 50.121101999000075 ], [ 18.48244550000004, 50.120616999000049 ], [ 18.481340500000044, 50.120808499000077 ], [ 18.479815500000029, 50.121549999000081 ], [ 18.478343500000051, 50.121488999000064 ], [ 18.477866500000061, 50.121008999000026 ], [ 18.477953, 50.12066949900003 ], [ 18.47577, 50.120947499000067 ], [ 18.475378, 50.120558499000026 ], [ 18.471207, 50.11896099900008 ], [ 18.467252500000029, 50.119759999000053 ], [ 18.459452, 50.120472999000071 ], [ 18.452994500000045, 50.12036899900005 ], [ 18.451653, 50.120340499000065 ], [ 18.461183, 50.131699499000035 ], [ 18.45875250000006, 50.132546999000056 ], [ 18.461268, 50.132720999000071 ], [ 18.461653, 50.135635499000045 ], [ 18.46161550000005, 50.136827999000047 ], [ 18.461821500000042, 50.137506999000038 ], [ 18.463207500000067, 50.138652999000044 ], [ 18.463708, 50.138153499000055 ], [ 18.464630500000055, 50.139226499000074 ], [ 18.465549500000066, 50.13904799900007 ], [ 18.466099, 50.140976999000031 ], [ 18.466890500000034, 50.140977999000029 ], [ 18.467102, 50.141164999000068 ], [ 18.466352500000028, 50.142002999000056 ], [ 18.46532, 50.142310499000075 ], [ 18.46496250000007, 50.142006499000047 ], [ 18.460695, 50.142461499000035 ], [ 18.460686, 50.142904999000052 ], [ 18.461846500000036, 50.145369999000081 ], [ 18.460886, 50.145690999000067 ], [ 18.461585500000069, 50.147241499000074 ], [ 18.462492, 50.14712399900003 ], [ 18.463554500000043, 50.147394499000029 ], [ 18.463993, 50.147229999000047 ], [ 18.464621500000078, 50.147926999000049 ], [ 18.464757500000076, 50.147725999000045 ], [ 18.465148, 50.147573499000032 ], [ 18.466559500000074, 50.149039999000081 ], [ 18.467373500000065, 50.148853999000039 ], [ 18.46791950000005, 50.149003999000058 ], [ 18.466699500000061, 50.149874499000077 ], [ 18.467706500000077, 50.150204999000039 ], [ 18.467208, 50.150678999000036 ], [ 18.466630500000065, 50.151551999000048 ], [ 18.464496500000052, 50.150884499000028 ], [ 18.464217, 50.151365999000063 ], [ 18.461543500000062, 50.150311499000054 ], [ 18.455328500000064, 50.153171999000051 ], [ 18.456144, 50.154082999000082 ], [ 18.455639, 50.153958499000055 ], [ 18.45294, 50.154499999000052 ], [ 18.450299, 50.154526499000042 ], [ 18.450200500000051, 50.155469999000047 ], [ 18.450576500000068, 50.155544999000028 ], [ 18.453533, 50.155305499000065 ], [ 18.454476500000055, 50.155337999000039 ], [ 18.45600550000006, 50.155215499000064 ], [ 18.457636, 50.155415499000071 ], [ 18.459095, 50.155382999000039 ], [ 18.460127, 50.156092999000066 ], [ 18.459168, 50.159444999000073 ], [ 18.46695550000004, 50.16198599900008 ], [ 18.466614500000048, 50.162260999000068 ], [ 18.466274, 50.162888999000074 ], [ 18.466182, 50.163889499000049 ], [ 18.462503, 50.170195999000043 ], [ 18.475024500000075, 50.17438899900003 ], [ 18.475752500000056, 50.173708999000041 ], [ 18.476388, 50.17206599900004 ], [ 18.478546, 50.17213999900008 ], [ 18.485945, 50.175267999000027 ], [ 18.486486, 50.17288699900007 ], [ 18.486171, 50.171103999000081 ], [ 18.486222500000054, 50.170177999000032 ], [ 18.486475, 50.170079999000052 ], [ 18.494651500000032, 50.179876999000044 ], [ 18.511086, 50.174594999000078 ], [ 18.512382, 50.175936999000044 ], [ 18.515525, 50.17848249900004 ], [ 18.516007, 50.179211999000074 ], [ 18.519223, 50.179585499000041 ], [ 18.521931500000051, 50.179088999000044 ], [ 18.524331, 50.179551999000068 ], [ 18.525308, 50.179595499000072 ], [ 18.526928500000054, 50.180432499000062 ], [ 18.528456500000061, 50.181755499000076 ], [ 18.532038500000056, 50.181313999000054 ], [ 18.534855500000049, 50.180671999000026 ], [ 18.537362500000029, 50.180650999000079 ], [ 18.538684, 50.180944999000076 ], [ 18.540606, 50.181738999000061 ], [ 18.541566, 50.183125499000028 ], [ 18.545101, 50.185670499000025 ], [ 18.54569, 50.185473499000068 ] ] ] } }
]
}
