{
"type": "FeatureCollection",
"name": "rzeszow",
"crs": { "type": "name", "properties": { "name": "urn:ogc:def:crs:OGC:1.3:CRS84" } },
"features": [
{ "type": "Feature", "properties": { }, "geometry": { "type": "Polygon", "coordinates": [ [ [ 22.083676, 49.999478999000075 ], [ 22.08296, 49.998889499000029 ], [ 22.08332850000005, 49.998343999000042 ], [ 22.08318950000006, 49.997684499000059 ], [ 22.083279, 49.996905499000036 ], [ 22.082981, 49.996503999000026 ], [ 22.08317, 49.996267999000054 ], [ 22.083504, 49.996301999000082 ], [ 22.083677500000078, 49.996096499000032 ], [ 22.081574, 49.994169999000064 ], [ 22.081046, 49.993599999000025 ], [ 22.080975, 49.99324449900007 ], [ 22.080484, 49.992942999000036 ], [ 22.079703, 49.992810499000029 ], [ 22.078163, 49.992891999000051 ], [ 22.076384, 49.992551999000057 ], [ 22.076373, 49.992391499000064 ], [ 22.075907500000028, 49.991958999000076 ], [ 22.075193500000069, 49.99151899900005 ], [ 22.074129500000026, 49.990763499000082 ], [ 22.073365500000023, 49.99022099900003 ], [ 22.073290500000041, 49.990019499000027 ], [ 22.073112500000036, 49.990050999000061 ], [ 22.072844, 49.99019449900004 ], [ 22.072748500000046, 49.990115999000068 ], [ 22.072677500000054, 49.990056999000046 ], [ 22.072581500000069, 49.989978999000073 ], [ 22.072423, 49.98986749900007 ], [ 22.072344, 49.98981199900004 ], [ 22.072201, 49.989712999000062 ], [ 22.072048500000051, 49.989613499000029 ], [ 22.071886, 49.989507499000069 ], [ 22.071799500000054, 49.989462999000068 ], [ 22.071617500000059, 49.989366499000027 ], [ 22.071487500000046, 49.989290499000049 ], [ 22.071372500000052, 49.989223499000047 ], [ 22.071260500000051, 49.989165999000079 ], [ 22.071194500000047, 49.989125499000068 ], [ 22.070975, 49.988988999000071 ], [ 22.070772, 49.988802999000029 ], [ 22.070606500000054, 49.988651499000071 ], [ 22.070523500000036, 49.98858399900007 ], [ 22.070351, 49.988413499000046 ], [ 22.070292, 49.988355499000079 ], [ 22.070192500000076, 49.988269499000069 ], [ 22.070057500000075, 49.988193999000032 ], [ 22.069837, 49.988068499000065 ], [ 22.069716500000027, 49.988003999000057 ], [ 22.069423, 49.987847499000054 ], [ 22.069289, 49.987773999000069 ], [ 22.068898, 49.987546499000075 ], [ 22.06862250000006, 49.987617999000065 ], [ 22.068550500000072, 49.987634999000079 ], [ 22.068520500000034, 49.987452499000028 ], [ 22.068459500000074, 49.987290499000039 ], [ 22.068342, 49.987093999000081 ], [ 22.06825850000007, 49.986935499000026 ], [ 22.068255500000078, 49.986845499000026 ], [ 22.068244500000048, 49.986759499000073 ], [ 22.068188500000076, 49.98645699900004 ], [ 22.068135500000039, 49.986293499000055 ], [ 22.068064500000048, 49.986192999000082 ], [ 22.067969500000061, 49.986108999000066 ], [ 22.067863500000044, 49.986037499000076 ], [ 22.067588500000056, 49.985903499000074 ], [ 22.067419500000028, 49.985807999000031 ], [ 22.06723, 49.98569549900003 ], [ 22.067096, 49.985629499000026 ], [ 22.066859500000078, 49.985521499000072 ], [ 22.066553500000055, 49.985353499000041 ], [ 22.066489, 49.985317999000074 ], [ 22.066400500000043, 49.985269499000026 ], [ 22.06631550000003, 49.985210499000061 ], [ 22.066078, 49.984931999000025 ], [ 22.065997, 49.984874999000056 ], [ 22.065885500000036, 49.984841499000026 ], [ 22.065622500000075, 49.984826999000063 ], [ 22.065236, 49.984829499000057 ], [ 22.065015500000072, 49.984824499000069 ], [ 22.064766, 49.984827999000061 ], [ 22.064664, 49.984849999000062 ], [ 22.064559, 49.984887499000081 ], [ 22.064421, 49.984949999000037 ], [ 22.064287500000034, 49.985021999000026 ], [ 22.064186500000062, 49.98507599900006 ], [ 22.064030500000058, 49.985148499000047 ], [ 22.063774500000022, 49.985219999000037 ], [ 22.063587, 49.985267499000031 ], [ 22.063476, 49.98527849900006 ], [ 22.062731, 49.985340999000073 ], [ 22.062055500000042, 49.985445999000035 ], [ 22.061583, 49.985532499000044 ], [ 22.061206, 49.985634499000071 ], [ 22.060964, 49.985722499000076 ], [ 22.060643500000026, 49.985790499000075 ], [ 22.060346, 49.985787499000025 ], [ 22.060046500000055, 49.985793999000066 ], [ 22.059904500000073, 49.985811499000079 ], [ 22.059775500000057, 49.985859499000071 ], [ 22.059616500000061, 49.985828499000036 ], [ 22.059034, 49.98576999900007 ], [ 22.058111500000052, 49.985704999000063 ], [ 22.057885, 49.985706499000059 ], [ 22.057744500000069, 49.985725499000068 ], [ 22.057631, 49.985751999000058 ], [ 22.057514, 49.98579249900007 ], [ 22.05743, 49.985821499000053 ], [ 22.057255500000053, 49.985895499000037 ], [ 22.057184, 49.985925999000074 ], [ 22.056998500000077, 49.986004999000045 ], [ 22.056632500000035, 49.98615249900007 ], [ 22.056503, 49.98619749900007 ], [ 22.056336, 49.986237499000026 ], [ 22.056241, 49.986267499000064 ], [ 22.056028500000025, 49.986339499000053 ], [ 22.055814, 49.986394499000028 ], [ 22.055326, 49.986500499000044 ], [ 22.055138500000055, 49.986547499000039 ], [ 22.055046, 49.986570999000037 ], [ 22.054947, 49.98660299900007 ], [ 22.054869500000052, 49.986648999000067 ], [ 22.054777, 49.986703999000042 ], [ 22.054634500000077, 49.986819499000035 ], [ 22.05459, 49.986855499000058 ], [ 22.0545, 49.986943499000063 ], [ 22.054321, 49.987062999000045 ], [ 22.054193, 49.987143499000069 ], [ 22.05387950000005, 49.987277999000071 ], [ 22.05352, 49.987405499000033 ], [ 22.053372500000023, 49.987434499000074 ], [ 22.053018, 49.987448999000037 ], [ 22.052557, 49.987526999000067 ], [ 22.052196, 49.987613499000076 ], [ 22.051947, 49.98766499900006 ], [ 22.051641, 49.987714499000049 ], [ 22.051482, 49.987742999000034 ], [ 22.051218500000061, 49.987789999000029 ], [ 22.050949, 49.987838499000077 ], [ 22.051070500000037, 49.988061499000025 ], [ 22.050906500000053, 49.988105499000028 ], [ 22.05059250000005, 49.988208999000051 ], [ 22.050147, 49.988379999000074 ], [ 22.049832, 49.988480999000046 ], [ 22.049754, 49.988503999000045 ], [ 22.049593, 49.988545499000054 ], [ 22.049460500000066, 49.988576999000031 ], [ 22.049385, 49.988594999000043 ], [ 22.049203500000033, 49.988637999000048 ], [ 22.048923, 49.98870849900004 ], [ 22.048676500000056, 49.988769999000056 ], [ 22.048344500000042, 49.988851999000076 ], [ 22.048121, 49.988898499000072 ], [ 22.047925500000076, 49.988949499000057 ], [ 22.047378, 49.989024499000038 ], [ 22.047046500000079, 49.989067999000042 ], [ 22.046655500000043, 49.98911799900003 ], [ 22.046505500000023, 49.98914299900008 ], [ 22.046311500000058, 49.989186499000027 ], [ 22.046181500000046, 49.989221999000051 ], [ 22.046028, 49.989263999000059 ], [ 22.045708, 49.989352999000062 ], [ 22.045468, 49.989417999000068 ], [ 22.045344500000056, 49.98945149900004 ], [ 22.045248, 49.989481499000078 ], [ 22.045175, 49.989504499000077 ], [ 22.044944, 49.989585499000043 ], [ 22.044698, 49.989663499000073 ], [ 22.044475500000033, 49.989724499000033 ], [ 22.044325, 49.989762499000051 ], [ 22.044009500000072, 49.98982249900007 ], [ 22.043768500000056, 49.989884999000026 ], [ 22.043376, 49.989986499000054 ], [ 22.043223, 49.989808999000047 ], [ 22.04297, 49.989515999000048 ], [ 22.042886, 49.989418499000067 ], [ 22.042793, 49.989298499000029 ], [ 22.042658, 49.98912449900007 ], [ 22.04259, 49.989013999000065 ], [ 22.042467500000043, 49.988884999000049 ], [ 22.042214500000057, 49.988609499000063 ], [ 22.042145, 49.988554499000031 ], [ 22.041073, 49.986808499000063 ], [ 22.040511, 49.985401999000032 ], [ 22.040938500000038, 49.985389999000063 ], [ 22.040600500000039, 49.983886999000049 ], [ 22.04038950000006, 49.983552499000041 ], [ 22.040116, 49.983569999000053 ], [ 22.039748, 49.983019999000078 ], [ 22.038992, 49.980981499000052 ], [ 22.038913500000035, 49.980571999000063 ], [ 22.039098500000023, 49.980105499000047 ], [ 22.039087500000051, 49.979300999000031 ], [ 22.038605500000074, 49.977909499000077 ], [ 22.036728500000038, 49.975878999000031 ], [ 22.035754, 49.97358949900007 ], [ 22.033732500000042, 49.970526499000073 ], [ 22.033376, 49.97029849900008 ], [ 22.031198, 49.971757499000034 ], [ 22.029648, 49.971586499000068 ], [ 22.029349, 49.971714499000029 ], [ 22.029029500000036, 49.972910999000078 ], [ 22.028148, 49.973460999000054 ], [ 22.027380500000049, 49.973479999000062 ], [ 22.025918, 49.973109499000032 ], [ 22.025615, 49.973006499000064 ], [ 22.02569550000004, 49.972864499000082 ], [ 22.024309500000072, 49.972333999000057 ], [ 22.023223, 49.972322499000029 ], [ 22.021610500000065, 49.972834499000044 ], [ 22.020346500000073, 49.973559999000031 ], [ 22.018412500000068, 49.973953999000059 ], [ 22.017397500000072, 49.974622999000076 ], [ 22.01632150000006, 49.974928499000043 ], [ 22.016218, 49.974807999000063 ], [ 22.016499500000066, 49.974619499000028 ], [ 22.016354, 49.974239999000076 ], [ 22.015311500000053, 49.974349999000026 ], [ 22.014193, 49.973158499000078 ], [ 22.017342, 49.973140499000067 ], [ 22.017782, 49.972450999000046 ], [ 22.018270500000028, 49.970869499000059 ], [ 22.020328500000062, 49.970183499000029 ], [ 22.021689500000036, 49.970022999000037 ], [ 22.02227, 49.969765499000061 ], [ 22.02244, 49.969202499000062 ], [ 22.022326500000077, 49.967817499000034 ], [ 22.022394500000075, 49.965842499000075 ], [ 22.022193500000071, 49.96532299900008 ], [ 22.019577500000025, 49.963440999000056 ], [ 22.014175500000079, 49.963487999000051 ], [ 22.00896350000005, 49.963049999000077 ], [ 22.005367500000034, 49.963291999000035 ], [ 22.002492, 49.963221499000042 ], [ 21.999984, 49.962984499000072 ], [ 21.999051, 49.962977499000033 ], [ 21.998296, 49.963189499000066 ], [ 21.995219, 49.962985499000069 ], [ 21.995227, 49.961234999000055 ], [ 21.994844500000056, 49.960244499000055 ], [ 21.994471, 49.958408999000028 ], [ 21.994694, 49.955682499000034 ], [ 21.994527500000061, 49.954878999000073 ], [ 21.993993, 49.95416749900005 ], [ 21.993261, 49.952765499000066 ], [ 21.993097, 49.949660999000059 ], [ 21.992740500000025, 49.946508499000061 ], [ 21.99246450000004, 49.945563499000059 ], [ 21.99138350000004, 49.943971499000043 ], [ 21.991022, 49.943985999000063 ], [ 21.990508, 49.943393999000079 ], [ 21.990262500000028, 49.942103999000039 ], [ 21.990295500000059, 49.941121999000075 ], [ 21.989883500000076, 49.939766999000028 ], [ 21.988686500000028, 49.939525499000069 ], [ 21.98839, 49.939582999000038 ], [ 21.987962, 49.939941499000042 ], [ 21.987550500000054, 49.939944499000035 ], [ 21.987378500000034, 49.939483499000062 ], [ 21.986163500000032, 49.939162999000075 ], [ 21.986176, 49.939003999000079 ], [ 21.986455, 49.938875999000061 ], [ 21.986399500000061, 49.938771999000039 ], [ 21.986053500000025, 49.938494499000058 ], [ 21.985237500000039, 49.937982999000042 ], [ 21.983901500000059, 49.937687499000049 ], [ 21.982516500000031, 49.936807999000052 ], [ 21.981835500000045, 49.936593499000026 ], [ 21.980699500000071, 49.936689499000067 ], [ 21.979864500000076, 49.936470499000052 ], [ 21.980765, 49.93482749900005 ], [ 21.981725, 49.933993499000053 ], [ 21.983255500000041, 49.933451999000056 ], [ 21.982293, 49.932938999000044 ], [ 21.981940500000064, 49.932582499000034 ], [ 21.980702500000064, 49.933556499000076 ], [ 21.97864450000003, 49.933576499000026 ], [ 21.978034, 49.933960499000079 ], [ 21.974244, 49.93455749900005 ], [ 21.973212500000045, 49.935103999000034 ], [ 21.974071500000036, 49.935579499000028 ], [ 21.974032, 49.936432499000034 ], [ 21.973187, 49.936688999000069 ], [ 21.971913500000028, 49.93747249900008 ], [ 21.972080500000061, 49.937787499000081 ], [ 21.972106, 49.938543999000046 ], [ 21.970961, 49.939845499000057 ], [ 21.970157500000028, 49.941030499000078 ], [ 21.970134500000029, 49.941847499000062 ], [ 21.968975, 49.943637999000032 ], [ 21.969177500000058, 49.946026999000026 ], [ 21.968598, 49.947883499000056 ], [ 21.967408500000033, 49.949271499000076 ], [ 21.965429500000027, 49.951163499000074 ], [ 21.965535500000044, 49.951383999000029 ], [ 21.965254500000071, 49.951719999000034 ], [ 21.959980500000029, 49.955566999000041 ], [ 21.958498500000076, 49.957005999000046 ], [ 21.958254500000066, 49.957615499000042 ], [ 21.958178500000031, 49.958522499000026 ], [ 21.958396500000049, 49.958594499000071 ], [ 21.958576, 49.959533499000031 ], [ 21.959389, 49.961608499000079 ], [ 21.959317, 49.962774499000034 ], [ 21.958590500000071, 49.965635999000028 ], [ 21.958598500000051, 49.966188999000053 ], [ 21.958977, 49.96728549900007 ], [ 21.959074, 49.968081999000049 ], [ 21.958569500000067, 49.968107499000041 ], [ 21.958043, 49.968645999000046 ], [ 21.957056500000078, 49.970401499000047 ], [ 21.956604500000026, 49.97103499900004 ], [ 21.956379500000025, 49.971551499000043 ], [ 21.956431500000065, 49.971809499000074 ], [ 21.955266, 49.973666499000046 ], [ 21.956592, 49.974116999000046 ], [ 21.957924500000047, 49.975509999000053 ], [ 21.958796, 49.975609999000028 ], [ 21.958893, 49.976156499000069 ], [ 21.958903, 49.976630499000066 ], [ 21.958349500000054, 49.978176999000027 ], [ 21.957829500000059, 49.978742499000077 ], [ 21.956311500000027, 49.979916499000069 ], [ 21.955547, 49.980855999000028 ], [ 21.955227500000035, 49.981786499000066 ], [ 21.95512, 49.98263649900008 ], [ 21.955216500000063, 49.983440499000039 ], [ 21.955532, 49.984339499000043 ], [ 21.957566, 49.985913999000047 ], [ 21.958331, 49.986175999000068 ], [ 21.961424, 49.986733499000081 ], [ 21.96286850000007, 49.987336999000036 ], [ 21.963524, 49.988240999000027 ], [ 21.96343550000006, 49.989433999000028 ], [ 21.963859, 49.99047549900007 ], [ 21.964412500000037, 49.990975499000058 ], [ 21.965621, 49.991248999000049 ], [ 21.965408, 49.99200249900008 ], [ 21.963958, 49.99244199900005 ], [ 21.962117500000033, 49.993671999000071 ], [ 21.961384500000065, 49.99375199900004 ], [ 21.960106, 49.992975499000067 ], [ 21.958625500000039, 49.993411999000045 ], [ 21.957839, 49.993356999000071 ], [ 21.957254, 49.993494499000064 ], [ 21.956628500000022, 49.993845499000031 ], [ 21.956092, 49.99439699900006 ], [ 21.955065, 49.994821999000067 ], [ 21.953904500000078, 49.994961499000055 ], [ 21.952287500000068, 49.994815499000026 ], [ 21.950799500000073, 49.994872999000052 ], [ 21.949888500000043, 49.995076499000049 ], [ 21.949311, 49.995312499000079 ], [ 21.948844500000064, 49.995829499000081 ], [ 21.94887650000004, 49.996187999000028 ], [ 21.949117500000057, 49.996319499000037 ], [ 21.948551500000065, 49.997458499000061 ], [ 21.947698500000058, 49.998509499000079 ], [ 21.946491500000036, 49.99858049900007 ], [ 21.946118, 49.998155999000062 ], [ 21.945551500000079, 49.998071999000047 ], [ 21.945204, 49.998333999000067 ], [ 21.941746, 49.997942499000033 ], [ 21.941267500000038, 49.998066499000061 ], [ 21.939748500000064, 49.997153999000034 ], [ 21.936537500000043, 49.997583499000029 ], [ 21.935935500000028, 49.998022499000058 ], [ 21.935105, 49.999118499000076 ], [ 21.936414500000069, 49.998189999000033 ], [ 21.936025500000028, 50.001024499000039 ], [ 21.935374500000023, 50.00182249900007 ], [ 21.935139, 50.003483499000026 ], [ 21.934670500000038, 50.004323999000064 ], [ 21.934979500000054, 50.005244499000071 ], [ 21.936597500000062, 50.007713999000032 ], [ 21.93774650000006, 50.009019499000033 ], [ 21.938651, 50.009794999000064 ], [ 21.937828500000023, 50.010162499000046 ], [ 21.93821, 50.011985499000048 ], [ 21.93824, 50.017528499000036 ], [ 21.93872250000004, 50.019032999000046 ], [ 21.940454500000044, 50.021247499000026 ], [ 21.941242500000044, 50.021754999000052 ], [ 21.942966500000068, 50.023375499000053 ], [ 21.943499, 50.024099999000043 ], [ 21.944266, 50.025525999000081 ], [ 21.944469500000025, 50.027029999000035 ], [ 21.947894, 50.028134999000031 ], [ 21.948552, 50.028605999000035 ], [ 21.947557500000073, 50.029288999000073 ], [ 21.946822, 50.029669999000077 ], [ 21.946716, 50.030049999000028 ], [ 21.946099, 50.030304499000067 ], [ 21.945459, 50.030243499000051 ], [ 21.944546, 50.030671999000049 ], [ 21.943227500000035, 50.030853499000045 ], [ 21.941717, 50.030906499000082 ], [ 21.938145, 50.032211999000026 ], [ 21.936169500000062, 50.032334999000057 ], [ 21.933571500000028, 50.032137999000042 ], [ 21.924697500000036, 50.029451999000059 ], [ 21.922592, 50.028570999000067 ], [ 21.922312, 50.028326499000059 ], [ 21.921147, 50.028273999000078 ], [ 21.917426500000033, 50.028739999000038 ], [ 21.91602, 50.029044499000065 ], [ 21.914155, 50.029909499000041 ], [ 21.912156500000037, 50.030234499000073 ], [ 21.910307500000044, 50.030786499000044 ], [ 21.909917500000063, 50.031028999000057 ], [ 21.909230500000035, 50.031721499000071 ], [ 21.908772500000055, 50.032422999000062 ], [ 21.90839950000003, 50.032662499000025 ], [ 21.905405500000029, 50.03421699900008 ], [ 21.902797, 50.036581999000077 ], [ 21.90157, 50.036923499000068 ], [ 21.900651500000038, 50.036882499000058 ], [ 21.89995250000004, 50.036411499000053 ], [ 21.897213, 50.035997999000074 ], [ 21.895474, 50.036018499000079 ], [ 21.893774500000063, 50.035672499000043 ], [ 21.891629, 50.035641999000063 ], [ 21.886568500000067, 50.035124499000062 ], [ 21.883461500000067, 50.035158499000033 ], [ 21.880914500000074, 50.034505499000034 ], [ 21.877256500000044, 50.03446199900003 ], [ 21.873207, 50.035030499000072 ], [ 21.868327, 50.03536249900003 ], [ 21.866764, 50.036114499000064 ], [ 21.86594, 50.036841499000047 ], [ 21.866280500000073, 50.037619999000071 ], [ 21.864831500000037, 50.038841999000056 ], [ 21.860070500000063, 50.041983999000081 ], [ 21.858782500000075, 50.042609999000035 ], [ 21.858684500000038, 50.04282149900007 ], [ 21.859189, 50.043423999000026 ], [ 21.8596, 50.043768499000066 ], [ 21.860018, 50.043919999000082 ], [ 21.86041, 50.044538999000054 ], [ 21.860669500000029, 50.044735499000069 ], [ 21.861855, 50.044964499000059 ], [ 21.863964500000066, 50.046004999000047 ], [ 21.864481500000068, 50.046101499000031 ], [ 21.864910500000065, 50.046300999000039 ], [ 21.866295, 50.046567999000047 ], [ 21.866978500000073, 50.046964999000068 ], [ 21.867728, 50.047794999000075 ], [ 21.868079500000078, 50.048076499000047 ], [ 21.868553500000075, 50.048104499000033 ], [ 21.869384500000024, 50.048395499000037 ], [ 21.869668, 50.04849499900007 ], [ 21.870812, 50.048652999000069 ], [ 21.873832, 50.048531499000035 ], [ 21.874321, 50.048528999000041 ], [ 21.87491, 50.048630499000069 ], [ 21.875370500000031, 50.04874249900007 ], [ 21.875810500000057, 50.049168999000074 ], [ 21.876138, 50.049328499000069 ], [ 21.877496500000063, 50.049785499000052 ], [ 21.878398, 50.049792499000034 ], [ 21.878941, 50.049880499000039 ], [ 21.879547, 50.050275999000064 ], [ 21.88006, 50.050211499000056 ], [ 21.881774500000063, 50.049292999000045 ], [ 21.881865, 50.049244999000052 ], [ 21.882435500000042, 50.049357999000051 ], [ 21.883186, 50.049664999000072 ], [ 21.883364500000027, 50.049737999000058 ], [ 21.884776, 50.050314999000079 ], [ 21.885371500000076, 50.050381999000081 ], [ 21.886248500000022, 50.05101649900007 ], [ 21.883219500000052, 50.051709499000026 ], [ 21.884445, 50.052584999000032 ], [ 21.886166500000058, 50.053761499000075 ], [ 21.887834, 50.054420999000058 ], [ 21.888663, 50.055116999000063 ], [ 21.888981500000057, 50.05562799900008 ], [ 21.889886500000046, 50.055278999000052 ], [ 21.893989, 50.054646499000057 ], [ 21.894551, 50.055254499000057 ], [ 21.897231500000032, 50.054670999000052 ], [ 21.898144500000058, 50.055063499000028 ], [ 21.899055, 50.055728499000054 ], [ 21.90162950000007, 50.055506999000045 ], [ 21.905192, 50.055563499000073 ], [ 21.907198, 50.055911499000047 ], [ 21.907690500000058, 50.056127999000068 ], [ 21.910431500000072, 50.056329499000071 ], [ 21.912737500000048, 50.056853999000055 ], [ 21.920605500000022, 50.056331999000065 ], [ 21.923114, 50.05662649900006 ], [ 21.924089500000036, 50.057161999000073 ], [ 21.925374500000032, 50.05785449900003 ], [ 21.926584, 50.057933499000058 ], [ 21.927925500000072, 50.05864899900007 ], [ 21.928964, 50.05897199900005 ], [ 21.932941, 50.061484999000072 ], [ 21.932985, 50.062068499000077 ], [ 21.932466, 50.064380999000036 ], [ 21.932382, 50.065505999000038 ], [ 21.931986, 50.066173499000058 ], [ 21.93204, 50.06673549900006 ], [ 21.9322, 50.067384999000069 ], [ 21.932757500000037, 50.068409999000039 ], [ 21.933289500000058, 50.070112499000061 ], [ 21.933729500000027, 50.070479999000042 ], [ 21.934256, 50.070862999000042 ], [ 21.934009, 50.071586499000034 ], [ 21.934549, 50.072102999000037 ], [ 21.93641, 50.072684499000047 ], [ 21.936653, 50.071980999000061 ], [ 21.937714, 50.072187499000052 ], [ 21.940105, 50.073533499000064 ], [ 21.945094, 50.075677499000051 ], [ 21.947420500000078, 50.075932499000032 ], [ 21.948461500000064, 50.076372999000057 ], [ 21.951819500000056, 50.076994999000078 ], [ 21.953712500000051, 50.076952499000072 ], [ 21.95621, 50.076393999000061 ], [ 21.961078, 50.07633849900003 ], [ 21.963621, 50.07575599900008 ], [ 21.96691, 50.075038499000073 ], [ 21.968354, 50.074723499000072 ], [ 21.971159500000056, 50.073627499000054 ], [ 21.972325, 50.073461999000074 ], [ 21.973827500000027, 50.073000499000045 ], [ 21.975868500000047, 50.072973499000057 ], [ 21.976244, 50.074066999000081 ], [ 21.976257500000031, 50.074119999000061 ], [ 21.976333500000067, 50.074314499000081 ], [ 21.97627650000004, 50.074358999000026 ], [ 21.976369500000033, 50.07466449900005 ], [ 21.976645, 50.075568499000042 ], [ 21.976800500000024, 50.076008999000067 ], [ 21.977032500000064, 50.076602999000045 ], [ 21.977137500000026, 50.076834499000029 ], [ 21.977175500000044, 50.076903999000081 ], [ 21.97742850000003, 50.077277499000047 ], [ 21.977528, 50.077445999000076 ], [ 21.97765, 50.077463999000031 ], [ 21.977755500000058, 50.077643999000031 ], [ 21.97788, 50.077820999000039 ], [ 21.978032, 50.078018999000051 ], [ 21.978105500000026, 50.078108499000052 ], [ 21.978177500000072, 50.078196499000057 ], [ 21.978256500000043, 50.07828949900005 ], [ 21.978391500000043, 50.078441999000063 ], [ 21.978505, 50.078569999000081 ], [ 21.978790500000059, 50.078881999000032 ], [ 21.978912500000035, 50.078970999000035 ], [ 21.979139500000031, 50.079162499000063 ], [ 21.979236, 50.079243999000028 ], [ 21.979475, 50.079437499000051 ], [ 21.979583, 50.079521499000066 ], [ 21.979945, 50.079792499000064 ], [ 21.980072500000063, 50.07988799900005 ], [ 21.980742500000076, 50.08038349900005 ], [ 21.981143, 50.080685999000082 ], [ 21.981336, 50.080857499000047 ], [ 21.982261, 50.081061999000042 ], [ 21.98309, 50.081253999000069 ], [ 21.983465500000023, 50.081342999000071 ], [ 21.983666500000027, 50.081393999000056 ], [ 21.983766500000058, 50.081417499000054 ], [ 21.984085, 50.081491499000037 ], [ 21.984739, 50.08164399900005 ], [ 21.984834500000034, 50.081667999000047 ], [ 21.985054, 50.08106649900003 ], [ 21.984996, 50.080582999000057 ], [ 21.986554500000068, 50.079726999000059 ], [ 21.988893500000074, 50.079331499000034 ], [ 21.98877, 50.078659999000081 ], [ 21.989772, 50.07793999900008 ], [ 21.990065, 50.077844999000035 ], [ 21.990799, 50.077994499000056 ], [ 21.992881, 50.078126499000064 ], [ 21.996239, 50.07798499900008 ], [ 22.001446, 50.078320999000027 ], [ 22.001513500000044, 50.077371499000037 ], [ 22.001288500000044, 50.075614999000038 ], [ 22.005279500000029, 50.07490449900007 ], [ 22.006427, 50.07515999900005 ], [ 22.011099, 50.075209999000037 ], [ 22.013673, 50.075737999000069 ], [ 22.016392500000052, 50.07566599900008 ], [ 22.018891500000052, 50.075290499000062 ], [ 22.024977, 50.073376499000062 ], [ 22.027285, 50.072020999000074 ], [ 22.029182, 50.071174499000051 ], [ 22.034556500000065, 50.069411499000068 ], [ 22.036455, 50.068330999000068 ], [ 22.037263, 50.068656499000042 ], [ 22.041454, 50.067559499000026 ], [ 22.041575, 50.067590499000062 ], [ 22.041593500000033, 50.067811499000072 ], [ 22.040824, 50.068421999000066 ], [ 22.03779, 50.068958499000075 ], [ 22.037432, 50.069239499000048 ], [ 22.03746, 50.069409999000072 ], [ 22.038400500000023, 50.06976449900003 ], [ 22.040957500000047, 50.070222999000066 ], [ 22.041847, 50.070254999000042 ], [ 22.04246, 50.069916999000043 ], [ 22.042639, 50.069175499000039 ], [ 22.043095, 50.068928499000037 ], [ 22.043654, 50.069126499000049 ], [ 22.044153, 50.069498999000075 ], [ 22.045065500000078, 50.069763499000032 ], [ 22.045145500000046, 50.070066999000062 ], [ 22.044278500000075, 50.070597999000029 ], [ 22.044226500000036, 50.070981999000026 ], [ 22.044518500000038, 50.07116699900007 ], [ 22.048143500000037, 50.071227499000031 ], [ 22.04878350000007, 50.070974499000044 ], [ 22.048825, 50.070600499000079 ], [ 22.04845, 50.070256999000037 ], [ 22.047591500000067, 50.070024499000056 ], [ 22.047496500000022, 50.06980949900003 ], [ 22.047993, 50.069282499000053 ], [ 22.048379, 50.069183999000074 ], [ 22.049422, 50.069847499000048 ], [ 22.049933500000066, 50.070941499000071 ], [ 22.050191, 50.071196499000052 ], [ 22.050983500000029, 50.071496999000033 ], [ 22.051358, 50.071340999000029 ], [ 22.051457, 50.071109999000043 ], [ 22.051005500000031, 50.069904999000073 ], [ 22.051077, 50.069390999000063 ], [ 22.051362, 50.069030999000063 ], [ 22.052062, 50.068867999000076 ], [ 22.052259, 50.069052499000065 ], [ 22.052361500000075, 50.069953999000063 ], [ 22.052223500000025, 50.070744499000057 ], [ 22.052433, 50.071014499000057 ], [ 22.052941, 50.071116499000027 ], [ 22.053522, 50.070969999000056 ], [ 22.054246500000033, 50.070096499000044 ], [ 22.054806, 50.069875999000033 ], [ 22.05505450000004, 50.070070999000052 ], [ 22.054082, 50.071339999000031 ], [ 22.054399, 50.073166499000081 ], [ 22.054866, 50.073587499000041 ], [ 22.057372, 50.074012999000047 ], [ 22.05793, 50.073626999000055 ], [ 22.058090500000048, 50.072955499000045 ], [ 22.058788, 50.072464499000034 ], [ 22.05926850000003, 50.072599499000034 ], [ 22.059576, 50.073042999000052 ], [ 22.060176500000068, 50.073276999000029 ], [ 22.060559500000068, 50.073283999000068 ], [ 22.061728500000072, 50.07284499900004 ], [ 22.061810500000036, 50.07262649900008 ], [ 22.062628500000073, 50.073025999000038 ], [ 22.064126, 50.073428999000043 ], [ 22.065661500000033, 50.073563499000045 ], [ 22.06827050000004, 50.07466849900004 ], [ 22.069153, 50.074590499000067 ], [ 22.070241500000066, 50.075131499000065 ], [ 22.07043, 50.074798499000053 ], [ 22.070493500000055, 50.074014499000043 ], [ 22.070329500000071, 50.072880499000064 ], [ 22.070389500000033, 50.072266499000079 ], [ 22.070658500000036, 50.072233999000048 ], [ 22.070726, 50.071682999000075 ], [ 22.070057, 50.071650499000043 ], [ 22.069968500000073, 50.072493499000075 ], [ 22.069671, 50.072552499000039 ], [ 22.069156, 50.072501999000053 ], [ 22.068000500000039, 50.072262499000033 ], [ 22.06814, 50.071797999000069 ], [ 22.067223, 50.071592999000075 ], [ 22.067056500000035, 50.071941499000047 ], [ 22.066724, 50.071844999000064 ], [ 22.0663, 50.071180499000036 ], [ 22.065916500000071, 50.070404999000061 ], [ 22.067288, 50.069231499000068 ], [ 22.06687450000004, 50.068591999000034 ], [ 22.066208, 50.068272499000045 ], [ 22.066452, 50.067516999000077 ], [ 22.067210500000044, 50.066943999000046 ], [ 22.068078, 50.067028999000058 ], [ 22.068432, 50.066457999000079 ], [ 22.069117500000061, 50.066300499000079 ], [ 22.069682, 50.066681499000026 ], [ 22.070756, 50.066704499000082 ], [ 22.071308, 50.066913499000066 ], [ 22.071693500000038, 50.067632499000069 ], [ 22.071558500000037, 50.068129499000065 ], [ 22.071719, 50.068337499000052 ], [ 22.073886, 50.068411499000035 ], [ 22.075661, 50.069254999000066 ], [ 22.076808500000027, 50.069105999000044 ], [ 22.076718, 50.068383999000048 ], [ 22.076993, 50.067391999000051 ], [ 22.076450500000078, 50.066737999000054 ], [ 22.075483500000075, 50.066460499000073 ], [ 22.072843, 50.064526999000066 ], [ 22.072621500000025, 50.064097999000069 ], [ 22.073360500000035, 50.063393999000027 ], [ 22.072653500000058, 50.062939999000037 ], [ 22.071949, 50.062112499000079 ], [ 22.071129, 50.061597999000071 ], [ 22.069882500000062, 50.060257999000044 ], [ 22.069734500000038, 50.059721499000034 ], [ 22.070898, 50.058346999000037 ], [ 22.070938, 50.057890499000052 ], [ 22.069218500000034, 50.056751499000029 ], [ 22.068872500000055, 50.056940499000063 ], [ 22.065958, 50.056305499000075 ], [ 22.064892500000042, 50.055801999000039 ], [ 22.064142, 50.055664999000044 ], [ 22.064057500000047, 50.055116499000064 ], [ 22.062130500000023, 50.054909999000074 ], [ 22.061398500000053, 50.05463749900008 ], [ 22.061229, 50.054567499000029 ], [ 22.061412500000074, 50.054108499000051 ], [ 22.056082500000059, 50.051957999000081 ], [ 22.054489500000045, 50.05070949900005 ], [ 22.054085500000042, 50.050280499000053 ], [ 22.054058500000053, 50.049735499000064 ], [ 22.053916500000071, 50.049165999000081 ], [ 22.053478, 50.048587999000063 ], [ 22.054115500000023, 50.047750999000073 ], [ 22.054940500000043, 50.04714399900007 ], [ 22.056037500000059, 50.045403499000031 ], [ 22.056852500000048, 50.045589999000072 ], [ 22.057660500000054, 50.044845499000076 ], [ 22.05880250000007, 50.04243449900008 ], [ 22.058857500000045, 50.041323999000042 ], [ 22.061626500000045, 50.041011499000035 ], [ 22.063464, 50.040515499000037 ], [ 22.063470500000051, 50.039402499000062 ], [ 22.063984, 50.038525999000058 ], [ 22.06520450000005, 50.037768499000038 ], [ 22.066879500000027, 50.037055499000076 ], [ 22.06798, 50.037298999000029 ], [ 22.069754500000045, 50.034069499000054 ], [ 22.07049, 50.033202999000082 ], [ 22.071820500000058, 50.033341999000072 ], [ 22.073033500000065, 50.034013499000082 ], [ 22.073444500000051, 50.034433999000044 ], [ 22.075042, 50.034699999000054 ], [ 22.07682, 50.032341999000039 ], [ 22.079759, 50.029761999000073 ], [ 22.082569, 50.027610499000048 ], [ 22.086172500000032, 50.024530499000036 ], [ 22.086340500000063, 50.024139499000057 ], [ 22.088068500000077, 50.021944999000027 ], [ 22.089383500000054, 50.021014999000045 ], [ 22.089932500000032, 50.020158499000047 ], [ 22.092283500000065, 50.018155999000044 ], [ 22.092729, 50.017029499000046 ], [ 22.093383500000073, 50.015958499000078 ], [ 22.093734, 50.015288499000064 ], [ 22.094013, 50.014506999000048 ], [ 22.094147500000076, 50.013460499000075 ], [ 22.094031500000028, 50.01263349900006 ], [ 22.093361, 50.011992999000029 ], [ 22.092791500000033, 50.010375999000075 ], [ 22.092430500000034, 50.010380999000063 ], [ 22.091803500000026, 50.009929499000066 ], [ 22.091450500000064, 50.00987899900008 ], [ 22.089193, 50.010298499000044 ], [ 22.088495, 50.010086999000066 ], [ 22.088850500000035, 50.008627499000056 ], [ 22.087924, 50.008583999000052 ], [ 22.086728500000049, 50.008894499000064 ], [ 22.084365, 50.008352999000067 ], [ 22.08296050000007, 50.008296999000038 ], [ 22.082495, 50.007935499000041 ], [ 22.082550500000025, 50.007717999000079 ], [ 22.083332, 50.007415999000045 ], [ 22.083997500000066, 50.006809999000041 ], [ 22.084816500000045, 50.00643399900008 ], [ 22.084478, 50.005169499000033 ], [ 22.084519, 50.004369999000062 ], [ 22.084283500000026, 50.003396499000075 ], [ 22.084397500000023, 50.001065499000049 ], [ 22.083946500000025, 50.000342999000054 ], [ 22.083676, 49.999478999000075 ] ] ] } }
]
}
