{
"type": "FeatureCollection",
"name": "suwalki",
"crs": { "type": "name", "properties": { "name": "urn:ogc:def:crs:OGC:1.3:CRS84" } },
"features": [
{ "type": "Feature", "properties": { }, "geometry": { "type": "Polygon", "coordinates": [ [ [ 22.968349, 54.156192999000041 ], [ 22.972673, 54.154092999000056 ], [ 22.973101, 54.154029999000045 ], [ 22.969295500000044, 54.151107499000034 ], [ 22.96865850000006, 54.150480499000082 ], [ 22.968607, 54.150154999000051 ], [ 22.968851500000028, 54.149179999000069 ], [ 22.968106500000033, 54.148109999000042 ], [ 22.967476, 54.146544999000071 ], [ 22.965859, 54.145457499000031 ], [ 22.966676500000062, 54.143944499000042 ], [ 22.968425500000023, 54.143964999000048 ], [ 22.969883, 54.144786999000075 ], [ 22.970518500000026, 54.136360499000034 ], [ 22.972578500000054, 54.136265499000046 ], [ 22.972063500000047, 54.13559649900003 ], [ 22.972941, 54.134311999000033 ], [ 22.974221, 54.130735499000082 ], [ 22.974565, 54.13024099900008 ], [ 22.975850500000035, 54.129123499000059 ], [ 22.976136, 54.12841049900004 ], [ 22.976513, 54.126573999000072 ], [ 22.976305500000024, 54.124243499000045 ], [ 22.977202500000033, 54.122700999000074 ], [ 22.977552, 54.122118499000067 ], [ 22.978215, 54.12176499900005 ], [ 22.978999, 54.121473499000047 ], [ 22.979918500000053, 54.120792499000061 ], [ 22.980019500000026, 54.120653999000069 ], [ 22.980101500000046, 54.120147999000039 ], [ 22.975986, 54.11951749900004 ], [ 22.974838, 54.119184999000026 ], [ 22.969753, 54.118591499000047 ], [ 22.970394500000054, 54.116929999000035 ], [ 22.970323500000063, 54.116732999000078 ], [ 22.969249, 54.116411999000036 ], [ 22.969271500000048, 54.115706499000055 ], [ 22.970367, 54.113447499000074 ], [ 22.970174500000041, 54.11330999900008 ], [ 22.970709, 54.112794499000074 ], [ 22.972773, 54.113007999000047 ], [ 22.972652500000038, 54.112640999000064 ], [ 22.973057, 54.112156999000035 ], [ 22.973941500000024, 54.111582999000063 ], [ 22.974695, 54.110709499000052 ], [ 22.974754500000074, 54.110249499000076 ], [ 22.975272, 54.109570499000029 ], [ 22.976173500000073, 54.10853699900008 ], [ 22.97554, 54.108195999000031 ], [ 22.975505, 54.108022499000072 ], [ 22.97581, 54.107746999000028 ], [ 22.977336500000035, 54.10741899900006 ], [ 22.97932650000007, 54.106584999000063 ], [ 22.980800500000043, 54.105917499000043 ], [ 22.981284500000072, 54.105748499000072 ], [ 22.98319250000003, 54.10597049900008 ], [ 22.98484650000006, 54.10580999900003 ], [ 22.986116, 54.106004499000051 ], [ 22.986343, 54.105928999000071 ], [ 22.987150500000041, 54.104558999000062 ], [ 22.989124500000059, 54.102917999000056 ], [ 22.977175500000044, 54.101168999000038 ], [ 22.976812500000051, 54.100880499000027 ], [ 22.976899500000059, 54.100439499000061 ], [ 22.977108, 54.099817999000038 ], [ 22.977962500000046, 54.098769999000069 ], [ 22.979045500000041, 54.098719499000026 ], [ 22.97937, 54.098311999000032 ], [ 22.979927500000031, 54.095993999000029 ], [ 22.978492, 54.095747499000026 ], [ 22.978829, 54.095106499000053 ], [ 22.979571500000077, 54.094474999000056 ], [ 22.98312, 54.093288999000038 ], [ 22.981387500000039, 54.091511999000033 ], [ 22.983167, 54.090884499000026 ], [ 22.975918500000034, 54.089705999000046 ], [ 22.975958500000047, 54.088391499000068 ], [ 22.976475, 54.087871999000072 ], [ 22.976184, 54.08725799900003 ], [ 22.975817500000062, 54.086827499000037 ], [ 22.975716500000033, 54.086091499000077 ], [ 22.975910500000055, 54.085821499000076 ], [ 22.976478500000042, 54.085345499000027 ], [ 22.977955, 54.084789499000067 ], [ 22.978106, 54.084149499000034 ], [ 22.978355500000077, 54.083988999000042 ], [ 22.980027500000062, 54.083736999000052 ], [ 22.980474, 54.083103999000059 ], [ 22.980683500000055, 54.082508999000027 ], [ 22.980665, 54.080539999000052 ], [ 22.981135, 54.08020699900004 ], [ 22.981963500000063, 54.080385499000045 ], [ 22.98309, 54.079890499000044 ], [ 22.985341, 54.079749499000059 ], [ 22.985959500000035, 54.079446499000028 ], [ 22.986957500000074, 54.079296999000064 ], [ 22.988, 54.079271999000071 ], [ 22.988242500000069, 54.079109999000082 ], [ 22.98885, 54.078287999000054 ], [ 22.988148500000023, 54.078139499000031 ], [ 22.988268, 54.077520999000058 ], [ 22.988857500000051, 54.07682199900006 ], [ 22.989941500000043, 54.076524499000072 ], [ 22.990885, 54.076323999000067 ], [ 22.991887, 54.075871999000071 ], [ 22.99287350000003, 54.075376499000072 ], [ 22.993044500000053, 54.075070999000047 ], [ 22.992658500000061, 54.074204499000075 ], [ 22.993892500000072, 54.072576999000034 ], [ 22.994671, 54.071979499000065 ], [ 22.994512500000042, 54.071271499000034 ], [ 22.993196, 54.070742499000062 ], [ 22.991829, 54.070526499000039 ], [ 22.991584500000044, 54.070347999000035 ], [ 22.991735500000061, 54.07022149900007 ], [ 22.992625, 54.070277499000042 ], [ 22.992902, 54.069961499000044 ], [ 22.993314500000054, 54.068771999000035 ], [ 22.993117, 54.068562999000051 ], [ 22.991682, 54.06882149900008 ], [ 22.991129500000056, 54.068977999000026 ], [ 22.990272, 54.068994499000041 ], [ 22.989537, 54.068874999000059 ], [ 22.988834, 54.068551999000078 ], [ 22.988101, 54.06836449900004 ], [ 22.988121500000034, 54.068608999000048 ], [ 22.987186, 54.06884399900008 ], [ 22.985279500000047, 54.068441999000072 ], [ 22.984238, 54.068453499000043 ], [ 22.983517500000062, 54.06864949900006 ], [ 22.982762, 54.069072499000072 ], [ 22.982052, 54.069651499000031 ], [ 22.980698500000074, 54.070251499000051 ], [ 22.980455500000062, 54.070200999000065 ], [ 22.979743500000041, 54.069477499000072 ], [ 22.980039, 54.068996499000036 ], [ 22.979467500000055, 54.069093999000074 ], [ 22.978719, 54.069406499000081 ], [ 22.978330500000027, 54.06968899900005 ], [ 22.978434500000049, 54.069856999000081 ], [ 22.979946, 54.070065499000066 ], [ 22.978826500000025, 54.071061499000052 ], [ 22.978314500000067, 54.071076499000071 ], [ 22.978439500000036, 54.070403499000065 ], [ 22.977735500000051, 54.07054849900004 ], [ 22.97736, 54.070774999000037 ], [ 22.976308500000073, 54.070810499000061 ], [ 22.976305, 54.07054049900006 ], [ 22.977393, 54.070118499000046 ], [ 22.977228, 54.070006999000043 ], [ 22.976254, 54.070245999000065 ], [ 22.975923500000079, 54.070169499000031 ], [ 22.975903500000072, 54.069870999000045 ], [ 22.975107, 54.070033499000033 ], [ 22.974653500000045, 54.070602499000074 ], [ 22.974211, 54.071489499000052 ], [ 22.973952, 54.072881499000061 ], [ 22.973226500000067, 54.07415099900004 ], [ 22.97149950000005, 54.075403999000059 ], [ 22.971775500000035, 54.075550999000029 ], [ 22.971137500000054, 54.075903999000047 ], [ 22.969793500000037, 54.076049999000077 ], [ 22.962782, 54.073998499000027 ], [ 22.959576500000026, 54.073478999000031 ], [ 22.962355, 54.069774499000061 ], [ 22.963428500000077, 54.069986999000037 ], [ 22.964798, 54.067607999000074 ], [ 22.967052500000023, 54.068055499000081 ], [ 22.969530500000076, 54.063742499000057 ], [ 22.970782, 54.063685999000029 ], [ 22.972284500000058, 54.063976499000034 ], [ 22.974265, 54.060428999000067 ], [ 22.972444500000051, 54.060069999000063 ], [ 22.973047, 54.059019499000044 ], [ 22.962874500000055, 54.056993999000042 ], [ 22.96531, 54.052713499000049 ], [ 22.963432, 54.052336499000035 ], [ 22.961675500000069, 54.054536499000051 ], [ 22.937331, 54.051447499000062 ], [ 22.937490500000024, 54.050682499000061 ], [ 22.935439, 54.049663499000076 ], [ 22.937596500000041, 54.047557999000048 ], [ 22.937184500000058, 54.045311999000035 ], [ 22.934573, 54.040415999000061 ], [ 22.908604500000024, 54.046560499000066 ], [ 22.900325500000065, 54.048868499000037 ], [ 22.899462, 54.049029499000028 ], [ 22.898502500000063, 54.049009999000077 ], [ 22.894227, 54.05250649900006 ], [ 22.901123, 54.060309999000026 ], [ 22.900896500000044, 54.060257499000045 ], [ 22.895905500000026, 54.068789499000047 ], [ 22.89332950000005, 54.068189999000026 ], [ 22.88994850000006, 54.069613999000069 ], [ 22.886704, 54.07077749900003 ], [ 22.88405, 54.072837999000058 ], [ 22.882671, 54.075812499000051 ], [ 22.891285, 54.077939499000081 ], [ 22.888768500000026, 54.08289049900003 ], [ 22.88799350000005, 54.082728999000039 ], [ 22.881161, 54.094007499000043 ], [ 22.873726, 54.092494999000053 ], [ 22.874476, 54.091237499000044 ], [ 22.869798500000059, 54.091174499000033 ], [ 22.868177, 54.09129899900006 ], [ 22.863907, 54.091177499000082 ], [ 22.863758500000074, 54.092240999000069 ], [ 22.867234500000052, 54.092753499000082 ], [ 22.866955, 54.093276499000069 ], [ 22.867358, 54.093998499000065 ], [ 22.868431, 54.094353999000077 ], [ 22.868624500000067, 54.094077499000036 ], [ 22.869229, 54.094221499000071 ], [ 22.868970500000046, 54.095228999000028 ], [ 22.868267, 54.096436999000048 ], [ 22.871019, 54.097067499000048 ], [ 22.869369, 54.099106499000072 ], [ 22.876180500000032, 54.102482499000075 ], [ 22.872671, 54.108757999000034 ], [ 22.870579500000076, 54.110746999000071 ], [ 22.872897500000079, 54.111760999000069 ], [ 22.873411500000032, 54.112264999000047 ], [ 22.872684, 54.113265499000079 ], [ 22.872350500000039, 54.114084999000056 ], [ 22.872233, 54.115422499000033 ], [ 22.891714, 54.13394499900005 ], [ 22.930937500000027, 54.139381499000081 ], [ 22.93176150000005, 54.154218499000081 ], [ 22.931809500000043, 54.15731899900004 ], [ 22.934667500000046, 54.158499999000071 ], [ 22.950118, 54.165017499000044 ], [ 22.968349, 54.156192999000041 ] ] ] } }
]
}
