{
"type": "FeatureCollection",
"name": "szczecin",
"crs": { "type": "name", "properties": { "name": "urn:ogc:def:crs:OGC:1.3:CRS84" } },
"features": [
{ "type": "Feature", "properties": { }, "geometry": { "type": "Polygon", "coordinates": [ [ [ 14.572425500000065, 53.532898499000055 ], [ 14.573872, 53.532850499000062 ], [ 14.573902, 53.533514499000034 ], [ 14.574296500000059, 53.533600499000045 ], [ 14.575553500000069, 53.533521499000074 ], [ 14.57645750000006, 53.53328699900004 ], [ 14.578539500000034, 53.535774999000068 ], [ 14.581141500000058, 53.535383499000034 ], [ 14.584276, 53.53445799900004 ], [ 14.585767, 53.533441999000047 ], [ 14.585679500000026, 53.533172999000044 ], [ 14.585949, 53.532627999000056 ], [ 14.586768, 53.532124499000076 ], [ 14.588788500000021, 53.533146999000053 ], [ 14.590723500000024, 53.533880499000077 ], [ 14.593491, 53.531247999000072 ], [ 14.594999500000029, 53.530801999000062 ], [ 14.595345500000064, 53.532107999000061 ], [ 14.597441, 53.532268499000054 ], [ 14.599369500000023, 53.532670999000061 ], [ 14.600238, 53.533084999000039 ], [ 14.600835500000073, 53.533167499000058 ], [ 14.601082500000075, 53.533045499000082 ], [ 14.601809, 53.533327999000051 ], [ 14.605327500000044, 53.535352499000055 ], [ 14.60374, 53.53604449900007 ], [ 14.602551, 53.536198499000079 ], [ 14.603657500000054, 53.537019499000053 ], [ 14.604125, 53.537070499000038 ], [ 14.606149, 53.536373499000035 ], [ 14.606956500000024, 53.536359499000071 ], [ 14.610289500000022, 53.536801499000035 ], [ 14.610911, 53.536707999000043 ], [ 14.611706500000025, 53.53606699900007 ], [ 14.619555500000047, 53.535460999000065 ], [ 14.628296500000033, 53.532792999000037 ], [ 14.635265, 53.533924999000078 ], [ 14.636778, 53.533604999000033 ], [ 14.63748350000003, 53.532846499000073 ], [ 14.637483, 53.532263499000067 ], [ 14.636595500000055, 53.531073499000058 ], [ 14.63649950000007, 53.52975899900008 ], [ 14.636478500000067, 53.527961499000071 ], [ 14.636591500000065, 53.527323499000033 ], [ 14.636824, 53.526681499000063 ], [ 14.637128500000074, 53.526526999000055 ], [ 14.638873, 53.526383999000075 ], [ 14.638450500000033, 53.526005499000064 ], [ 14.639181500000063, 53.525590499000032 ], [ 14.64257850000007, 53.52526799900005 ], [ 14.644967500000064, 53.526110999000082 ], [ 14.646537500000022, 53.526613499000064 ], [ 14.648178, 53.527287499000067 ], [ 14.650025, 53.527638999000033 ], [ 14.65137, 53.527669499000069 ], [ 14.651883500000054, 53.52826249900005 ], [ 14.652329500000064, 53.528824499000052 ], [ 14.652333500000054, 53.529260499000031 ], [ 14.653188, 53.529499499000053 ], [ 14.654532, 53.530279499000073 ], [ 14.655125500000054, 53.531295999000065 ], [ 14.656302, 53.531513499000027 ], [ 14.656176500000072, 53.531886499000052 ], [ 14.655521500000077, 53.53210449900007 ], [ 14.654428500000051, 53.533042499000032 ], [ 14.654384, 53.533801499000049 ], [ 14.654525, 53.534160499000052 ], [ 14.655809, 53.534565999000051 ], [ 14.656449500000065, 53.534996499000044 ], [ 14.658013500000038, 53.535406999000031 ], [ 14.65815850000007, 53.535694999000043 ], [ 14.658552, 53.535935499000061 ], [ 14.660944500000028, 53.535910499000067 ], [ 14.661786, 53.53610549900003 ], [ 14.664207500000032, 53.535892999000055 ], [ 14.665032, 53.536194999000031 ], [ 14.666451500000051, 53.536582999000075 ], [ 14.667828500000041, 53.536559499000077 ], [ 14.668876500000067, 53.536347999000043 ], [ 14.669358, 53.535937499000056 ], [ 14.670443500000033, 53.536021499000071 ], [ 14.671534, 53.536606499000072 ], [ 14.672003, 53.53615299900008 ], [ 14.672513, 53.536252999000055 ], [ 14.672849, 53.536684499000046 ], [ 14.673143, 53.536782999000081 ], [ 14.675704500000052, 53.536631999000065 ], [ 14.676160500000037, 53.536350999000035 ], [ 14.677497, 53.536098999000046 ], [ 14.677921500000025, 53.53537699900005 ], [ 14.678844, 53.53486299900004 ], [ 14.679142, 53.53428849900007 ], [ 14.678843500000028, 53.533855999000082 ], [ 14.678996500000039, 53.533603999000036 ], [ 14.679329, 53.533355499000038 ], [ 14.67996450000004, 53.53323799900005 ], [ 14.68092050000007, 53.532755999000074 ], [ 14.681079, 53.531974999000056 ], [ 14.681871500000057, 53.531334499000081 ], [ 14.682354, 53.531206499000064 ], [ 14.682771, 53.531277499000055 ], [ 14.682867500000043, 53.531157499000074 ], [ 14.681220500000052, 53.529600499000082 ], [ 14.680138500000055, 53.529233499000043 ], [ 14.680777, 53.528144499000064 ], [ 14.681182, 53.527994499000044 ], [ 14.681791500000031, 53.527195999000071 ], [ 14.681886500000076, 53.525967499000046 ], [ 14.681466, 53.524945999000067 ], [ 14.680693500000075, 53.524423999000078 ], [ 14.679800500000056, 53.523837499000081 ], [ 14.678131, 53.524003999000058 ], [ 14.67844, 53.524136499000065 ], [ 14.67838, 53.524346499000046 ], [ 14.678135500000053, 53.524245499000074 ], [ 14.678077500000029, 53.523997999000073 ], [ 14.678185500000041, 53.523770999000078 ], [ 14.679140500000074, 53.523007499000073 ], [ 14.680015, 53.522913499000026 ], [ 14.680722, 53.52257699900008 ], [ 14.681423500000051, 53.521615499000063 ], [ 14.681381, 53.521388499000068 ], [ 14.680356500000073, 53.52040099900006 ], [ 14.679788, 53.520208999000033 ], [ 14.67841, 53.520007999000029 ], [ 14.678158500000052, 53.520343499000035 ], [ 14.67847, 53.520289499000057 ], [ 14.678307, 53.520506999000077 ], [ 14.677904500000068, 53.520555999000067 ], [ 14.678268, 53.519429999000067 ], [ 14.678895, 53.518137999000032 ], [ 14.67883, 53.517652499000064 ], [ 14.678588500000046, 53.517258999000035 ], [ 14.678877, 53.515272499000048 ], [ 14.679012, 53.51445699900006 ], [ 14.679789500000027, 53.512932499000044 ], [ 14.680519500000059, 53.512408999000058 ], [ 14.682080500000041, 53.511991499000032 ], [ 14.682648, 53.512076499000045 ], [ 14.683163500000035, 53.512060499000029 ], [ 14.683401500000059, 53.512030999000046 ], [ 14.684470500000032, 53.511658499000077 ], [ 14.687288, 53.510593999000037 ], [ 14.689090500000077, 53.510867999000027 ], [ 14.691005, 53.511755999000059 ], [ 14.692955, 53.51159799900006 ], [ 14.694425, 53.510835499000052 ], [ 14.694827, 53.510429999000053 ], [ 14.694905, 53.509586499000079 ], [ 14.694646, 53.50906849900008 ], [ 14.69479350000006, 53.508879999000044 ], [ 14.695689, 53.508772499000031 ], [ 14.695905500000038, 53.508891499000072 ], [ 14.696994500000073, 53.508892499000069 ], [ 14.698471, 53.508658999000033 ], [ 14.699661, 53.508093999000039 ], [ 14.699877, 53.507722999000066 ], [ 14.69961150000006, 53.507594999000048 ], [ 14.699498, 53.50730949900003 ], [ 14.700035, 53.506606999000041 ], [ 14.700813500000038, 53.505103999000028 ], [ 14.701160500000071, 53.504805499000042 ], [ 14.701955, 53.504419999000049 ], [ 14.701644, 53.503498999000044 ], [ 14.701075500000059, 53.502815499000064 ], [ 14.700739, 53.502515499000026 ], [ 14.70035, 53.50239349900005 ], [ 14.700187500000027, 53.502072499000064 ], [ 14.70015, 53.50167699900004 ], [ 14.70064, 53.501190499000074 ], [ 14.700627500000053, 53.500531499000033 ], [ 14.700586500000043, 53.500069999000061 ], [ 14.700279, 53.499640999000064 ], [ 14.700344, 53.498295499000051 ], [ 14.69956250000007, 53.49779249900007 ], [ 14.700694500000054, 53.496403999000051 ], [ 14.700507, 53.496145999000078 ], [ 14.700799, 53.494581499000049 ], [ 14.700236500000074, 53.49395849900003 ], [ 14.698565, 53.493532999000081 ], [ 14.697837500000048, 53.492890999000053 ], [ 14.697365, 53.492725999000072 ], [ 14.69612, 53.492399499000044 ], [ 14.694998, 53.492309499000044 ], [ 14.694587, 53.492413999000064 ], [ 14.694269500000075, 53.492039499000043 ], [ 14.694235, 53.491673999000056 ], [ 14.69458, 53.491051499000037 ], [ 14.694666, 53.490436999000053 ], [ 14.69456, 53.48902399900004 ], [ 14.694126, 53.487742499000035 ], [ 14.694228500000065, 53.487310999000044 ], [ 14.694946, 53.486650999000062 ], [ 14.697554500000024, 53.486005999000042 ], [ 14.698127, 53.485749499000065 ], [ 14.697169, 53.484209499000031 ], [ 14.695513, 53.483660999000051 ], [ 14.695298500000035, 53.483476999000061 ], [ 14.695213500000023, 53.482889999000065 ], [ 14.695528500000023, 53.481784499000071 ], [ 14.696076500000061, 53.480959499000051 ], [ 14.696365, 53.48064449900005 ], [ 14.696762500000034, 53.480437499000061 ], [ 14.698769500000026, 53.480553999000051 ], [ 14.699162500000057, 53.480141999000068 ], [ 14.699232500000051, 53.479723499000045 ], [ 14.698875500000042, 53.478744499000072 ], [ 14.697933500000033, 53.478467499000033 ], [ 14.697549, 53.478521499000067 ], [ 14.696649500000035, 53.479181499000049 ], [ 14.696276, 53.479179499000054 ], [ 14.695973500000036, 53.478260499000044 ], [ 14.694847, 53.477661999000077 ], [ 14.694362, 53.47765399900004 ], [ 14.69341, 53.47721449900007 ], [ 14.692911, 53.47580399900005 ], [ 14.693624, 53.475324499000067 ], [ 14.694946, 53.474684499000034 ], [ 14.695846500000073, 53.474019499000065 ], [ 14.696196500000042, 53.472970499000041 ], [ 14.695932, 53.471823499000038 ], [ 14.69524, 53.471538999000074 ], [ 14.694396500000039, 53.470480999000074 ], [ 14.693289, 53.470481499000073 ], [ 14.692943500000069, 53.470933999000067 ], [ 14.693114500000036, 53.471569499000054 ], [ 14.692416500000036, 53.471871499000031 ], [ 14.691338, 53.471998499000051 ], [ 14.690872500000069, 53.471379999000078 ], [ 14.690990500000055, 53.470279499000071 ], [ 14.694951500000059, 53.469685999000035 ], [ 14.696063, 53.468814499000075 ], [ 14.696297500000071, 53.468454499000075 ], [ 14.697268500000064, 53.468237499000054 ], [ 14.698998500000073, 53.468320999000071 ], [ 14.69980350000003, 53.469024499000056 ], [ 14.701834500000075, 53.469564499000057 ], [ 14.703423, 53.469676499000059 ], [ 14.703737500000045, 53.469588999000052 ], [ 14.707132500000057, 53.467737999000065 ], [ 14.706982, 53.46763099900005 ], [ 14.707200500000056, 53.46728149900008 ], [ 14.708331500000043, 53.46589349900006 ], [ 14.708389500000067, 53.46515449900005 ], [ 14.709243500000071, 53.464116999000055 ], [ 14.71004350000004, 53.46333499900004 ], [ 14.71006, 53.463128999000048 ], [ 14.708207500000071, 53.463282499000059 ], [ 14.707648500000062, 53.463634499000079 ], [ 14.706697500000075, 53.46346199900006 ], [ 14.707570500000031, 53.463042999000038 ], [ 14.708852500000035, 53.462887999000031 ], [ 14.710371, 53.463046499000029 ], [ 14.710429, 53.462947499000052 ], [ 14.710631, 53.461311999000031 ], [ 14.709960500000022, 53.460764499000049 ], [ 14.707937500000071, 53.460322999000027 ], [ 14.707865500000025, 53.460147999000071 ], [ 14.708486500000049, 53.460050499000033 ], [ 14.708670500000039, 53.460294499000042 ], [ 14.709038, 53.460432499000035 ], [ 14.709436, 53.460429999000041 ], [ 14.709928500000046, 53.460204999000041 ], [ 14.709795500000041, 53.459979499000042 ], [ 14.709374, 53.460235999000076 ], [ 14.708899, 53.460218999000062 ], [ 14.708824500000048, 53.460065999000051 ], [ 14.709505500000034, 53.459662999000045 ], [ 14.709627500000067, 53.459516499000074 ], [ 14.709762, 53.459241999000028 ], [ 14.709334, 53.457756499000027 ], [ 14.708986, 53.45692899900007 ], [ 14.707981, 53.455761499000062 ], [ 14.707690500000069, 53.455598999000074 ], [ 14.707569500000034, 53.455323999000029 ], [ 14.707882500000039, 53.45457299900005 ], [ 14.708512, 53.454300999000054 ], [ 14.708997, 53.453892499000062 ], [ 14.709493500000065, 53.453103999000064 ], [ 14.710873, 53.452490999000076 ], [ 14.71130850000003, 53.452655999000058 ], [ 14.712102500000071, 53.450824499000078 ], [ 14.711981, 53.449611499000071 ], [ 14.711007500000051, 53.448127999000064 ], [ 14.709915, 53.447495999000068 ], [ 14.709132, 53.446151499000052 ], [ 14.707876500000054, 53.44541749900003 ], [ 14.706352, 53.444883499000071 ], [ 14.705939, 53.444507499000053 ], [ 14.705719500000043, 53.444050999000069 ], [ 14.70535650000005, 53.443012999000075 ], [ 14.705106, 53.441342999000028 ], [ 14.704968, 53.440802499000029 ], [ 14.704123, 53.440066499000068 ], [ 14.703624500000046, 53.439734499000053 ], [ 14.702385, 53.439335999000036 ], [ 14.702022, 53.438888499000029 ], [ 14.702318500000047, 53.438220499000067 ], [ 14.702822500000025, 53.437696499000026 ], [ 14.702822500000025, 53.43740899900007 ], [ 14.702418500000022, 53.436705499000027 ], [ 14.701282, 53.435862999000051 ], [ 14.700378, 53.435048499000061 ], [ 14.70543, 53.429676999000037 ], [ 14.708741500000031, 53.426484499000082 ], [ 14.709185, 53.426492499000062 ], [ 14.709790500000054, 53.426802999000074 ], [ 14.710164500000076, 53.427382999000031 ], [ 14.713369500000056, 53.429329499000062 ], [ 14.716715500000078, 53.427821499000061 ], [ 14.718129500000032, 53.427347499000064 ], [ 14.71903, 53.42736349900008 ], [ 14.720504, 53.427758999000048 ], [ 14.726912500000026, 53.430830999000079 ], [ 14.728384, 53.432804499000042 ], [ 14.728196, 53.432838999000069 ], [ 14.728896, 53.434001499000033 ], [ 14.730699, 53.435125999000036 ], [ 14.731977, 53.434880999000029 ], [ 14.736056, 53.434871499000053 ], [ 14.740951500000051, 53.438155499000061 ], [ 14.74086, 53.439175999000042 ], [ 14.741234500000076, 53.440147999000033 ], [ 14.743499, 53.439732999000057 ], [ 14.745679, 53.444041999000035 ], [ 14.748710500000072, 53.443370999000081 ], [ 14.750730500000031, 53.443222499000058 ], [ 14.752668500000027, 53.442412999000055 ], [ 14.75838, 53.441908499000078 ], [ 14.761989, 53.441245499000047 ], [ 14.752734, 53.435208999000054 ], [ 14.74704, 53.431677999000044 ], [ 14.752598, 53.425826999000037 ], [ 14.742175, 53.422800499000061 ], [ 14.731577, 53.417653499000039 ], [ 14.721482, 53.414705999000034 ], [ 14.721215, 53.414459499000031 ], [ 14.720709500000055, 53.414133999000057 ], [ 14.718682, 53.413293999000075 ], [ 14.716855, 53.412730499000077 ], [ 14.719865500000026, 53.407559999000057 ], [ 14.726776500000028, 53.404741499000068 ], [ 14.737250500000073, 53.404209999000045 ], [ 14.741388500000028, 53.405481999000074 ], [ 14.755768500000045, 53.40654949900005 ], [ 14.766375, 53.407015499000067 ], [ 14.767207, 53.405253999000081 ], [ 14.769696, 53.403999999000064 ], [ 14.770013500000061, 53.404843499000037 ], [ 14.770644, 53.404739499000073 ], [ 14.77106, 53.405603499000051 ], [ 14.772953, 53.404453999000054 ], [ 14.775525500000072, 53.40409149900006 ], [ 14.777988500000049, 53.402979499000082 ], [ 14.780375, 53.403108499000041 ], [ 14.780029, 53.402109499000062 ], [ 14.783672500000023, 53.402055999000027 ], [ 14.785985, 53.398930999000072 ], [ 14.787928, 53.396914999000046 ], [ 14.790975, 53.397240499000077 ], [ 14.791054, 53.396109999000032 ], [ 14.790306500000042, 53.39441049900006 ], [ 14.787753500000065, 53.393245999000044 ], [ 14.771758, 53.387152999000079 ], [ 14.771983, 53.38693949900005 ], [ 14.770045500000037, 53.386176999000043 ], [ 14.768766, 53.385876999000061 ], [ 14.768752, 53.386095499000078 ], [ 14.76592, 53.383223999000052 ], [ 14.774828, 53.382062999000027 ], [ 14.775124, 53.376911999000072 ], [ 14.763612500000022, 53.376662999000075 ], [ 14.763199500000042, 53.382390999000052 ], [ 14.762563500000056, 53.382673999000076 ], [ 14.760555500000066, 53.382989999000074 ], [ 14.758764, 53.383200999000053 ], [ 14.758118, 53.383140499000035 ], [ 14.753942, 53.381112499000039 ], [ 14.750692500000071, 53.379736999000045 ], [ 14.746796, 53.378547499000035 ], [ 14.746419500000059, 53.37827549900004 ], [ 14.743949500000042, 53.377295999000069 ], [ 14.740503500000045, 53.375455999000053 ], [ 14.738678500000049, 53.375822999000036 ], [ 14.735858500000063, 53.375550999000041 ], [ 14.735835500000064, 53.374783499000046 ], [ 14.736018500000057, 53.374760999000046 ], [ 14.735909500000048, 53.374454999000079 ], [ 14.735089, 53.374339999000028 ], [ 14.733273500000053, 53.374748999000076 ], [ 14.732905, 53.374042999000039 ], [ 14.732005500000071, 53.373192499000027 ], [ 14.731976, 53.372594499000058 ], [ 14.732375, 53.372110999000029 ], [ 14.732792500000073, 53.371983999000065 ], [ 14.734488500000055, 53.372427499000082 ], [ 14.735064500000021, 53.372334499000033 ], [ 14.735356, 53.372115499000074 ], [ 14.735186500000054, 53.371603499000059 ], [ 14.73536, 53.37087499900008 ], [ 14.735743500000069, 53.370966999000075 ], [ 14.737197500000036, 53.370390499000052 ], [ 14.736503500000026, 53.37013999900006 ], [ 14.736771, 53.36932149900008 ], [ 14.737716, 53.368645499000081 ], [ 14.738058500000022, 53.368667499000082 ], [ 14.740049500000055, 53.369593999000074 ], [ 14.74111, 53.369888999000068 ], [ 14.741122500000074, 53.369408499000031 ], [ 14.742188500000054, 53.368821999000033 ], [ 14.744123500000057, 53.36729499900008 ], [ 14.746920500000044, 53.365518999000074 ], [ 14.751470500000039, 53.364763999000047 ], [ 14.75328, 53.364119999000081 ], [ 14.754779500000041, 53.363939999000081 ], [ 14.755908, 53.363979499000038 ], [ 14.756592500000068, 53.363523499000053 ], [ 14.75619, 53.363362499000061 ], [ 14.759483500000044, 53.361642999000082 ], [ 14.758202, 53.360718999000028 ], [ 14.758597500000064, 53.357461999000066 ], [ 14.759703, 53.35677799900003 ], [ 14.760092500000042, 53.355772999000067 ], [ 14.761952, 53.354597499000079 ], [ 14.762256, 53.354249499000048 ], [ 14.762233500000036, 53.353873499000031 ], [ 14.762108, 53.353270999000074 ], [ 14.762725500000045, 53.351988999000071 ], [ 14.763399500000048, 53.351082999000027 ], [ 14.763028500000075, 53.350698999000031 ], [ 14.763148500000057, 53.350540499000033 ], [ 14.765354, 53.349883499000043 ], [ 14.766349, 53.349008499000035 ], [ 14.766434, 53.348874499000033 ], [ 14.765705, 53.348557999000036 ], [ 14.765636, 53.348406999000076 ], [ 14.76684350000005, 53.347792499000036 ], [ 14.767047, 53.347560999000052 ], [ 14.766510500000038, 53.347079499000074 ], [ 14.766565, 53.346586499000068 ], [ 14.768827, 53.345203499000036 ], [ 14.769665, 53.344962499000076 ], [ 14.771367500000053, 53.344907499000044 ], [ 14.771531, 53.345349999000064 ], [ 14.773449, 53.345037999000056 ], [ 14.775295500000027, 53.34650349900005 ], [ 14.77419, 53.347153999000057 ], [ 14.775707500000067, 53.348236499000052 ], [ 14.775435500000071, 53.348592499000063 ], [ 14.775846, 53.349074499000039 ], [ 14.777202, 53.349908999000036 ], [ 14.786606500000062, 53.351315999000064 ], [ 14.787954, 53.350626999000042 ], [ 14.788375500000029, 53.349934499000028 ], [ 14.787914, 53.349616499000035 ], [ 14.788017500000024, 53.348907999000062 ], [ 14.788660500000049, 53.347520999000039 ], [ 14.785108500000035, 53.346936499000037 ], [ 14.785265500000037, 53.346592499000053 ], [ 14.783782, 53.346351999000035 ], [ 14.783570500000053, 53.345761999000047 ], [ 14.784746, 53.344877999000062 ], [ 14.784328500000072, 53.34476199900007 ], [ 14.786470500000064, 53.343909999000061 ], [ 14.787014500000055, 53.344268999000064 ], [ 14.788707500000044, 53.344306499000027 ], [ 14.790863500000057, 53.345271499000035 ], [ 14.791734, 53.345183999000028 ], [ 14.793667500000026, 53.343729499000062 ], [ 14.793316, 53.34301399900005 ], [ 14.791801, 53.342356499000061 ], [ 14.792459, 53.34141949900004 ], [ 14.793378500000074, 53.340298999000026 ], [ 14.79345550000005, 53.339770999000052 ], [ 14.796219, 53.338633999000081 ], [ 14.797242500000038, 53.337900499000057 ], [ 14.798052, 53.338329499000054 ], [ 14.798471, 53.33821049900007 ], [ 14.804612500000076, 53.334304499000041 ], [ 14.80333550000006, 53.333649999000045 ], [ 14.805416500000035, 53.331814499000075 ], [ 14.803940500000067, 53.331018499000038 ], [ 14.804759, 53.330376999000066 ], [ 14.802929500000062, 53.329459999000051 ], [ 14.803832, 53.32736249900006 ], [ 14.800944500000071, 53.325774499000033 ], [ 14.800734, 53.32620349900003 ], [ 14.801587500000039, 53.327239499000029 ], [ 14.801213, 53.328431499000033 ], [ 14.80115950000004, 53.329182499000069 ], [ 14.801295500000037, 53.329725999000061 ], [ 14.801017500000057, 53.33004949900004 ], [ 14.800053, 53.330261499000073 ], [ 14.799685500000066, 53.330889999000078 ], [ 14.799476500000026, 53.331003499000076 ], [ 14.797960500000045, 53.331007999000065 ], [ 14.796463500000073, 53.331781999000043 ], [ 14.794927, 53.33144149900005 ], [ 14.794344, 53.331830499000034 ], [ 14.79419450000006, 53.33209449900005 ], [ 14.794741500000043, 53.33264949900007 ], [ 14.794371, 53.333453499000029 ], [ 14.793600500000025, 53.333684499000071 ], [ 14.792679500000077, 53.333584999000038 ], [ 14.792151, 53.333751999000071 ], [ 14.791524500000037, 53.335105499000065 ], [ 14.790086500000029, 53.335616999000081 ], [ 14.787929500000075, 53.335877999000047 ], [ 14.786941, 53.336313999000026 ], [ 14.786200500000064, 53.336437999000054 ], [ 14.785820500000057, 53.335906499000032 ], [ 14.785379500000033, 53.335975499000028 ], [ 14.784617, 53.336402999000029 ], [ 14.784671, 53.336667999000042 ], [ 14.784382, 53.337268499000061 ], [ 14.782785500000045, 53.337853499000062 ], [ 14.780749, 53.337407499000051 ], [ 14.777953500000024, 53.338198499000043 ], [ 14.776823500000035, 53.337995999000043 ], [ 14.775792, 53.338115499000082 ], [ 14.774419500000022, 53.338829999000041 ], [ 14.773599500000046, 53.33908849900007 ], [ 14.774489, 53.34041699900007 ], [ 14.771615500000053, 53.341279499000052 ], [ 14.768683500000066, 53.343274999000073 ], [ 14.76763, 53.342814999000041 ], [ 14.765984500000059, 53.342745999000044 ], [ 14.765240500000061, 53.342656999000042 ], [ 14.765265, 53.342549999000028 ], [ 14.762457500000039, 53.342277499000033 ], [ 14.762998500000037, 53.34143399900006 ], [ 14.762867500000027, 53.340639499000076 ], [ 14.761532500000044, 53.340520499000036 ], [ 14.76085, 53.340968499000041 ], [ 14.761609, 53.34146449900004 ], [ 14.760927, 53.341910999000049 ], [ 14.75981, 53.341585999000074 ], [ 14.756246500000032, 53.342677999000045 ], [ 14.755771, 53.342404999000053 ], [ 14.756648, 53.340651999000045 ], [ 14.757687, 53.33991099900004 ], [ 14.757072, 53.339796499000045 ], [ 14.755868, 53.338993999000081 ], [ 14.755101500000023, 53.338066499000035 ], [ 14.754736500000035, 53.336907999000061 ], [ 14.756410500000072, 53.335515499000053 ], [ 14.757018, 53.335221999000055 ], [ 14.758023, 53.336581999000032 ], [ 14.758376, 53.338811999000029 ], [ 14.758707, 53.339428999000063 ], [ 14.761244, 53.338441999000054 ], [ 14.763316, 53.337436999000033 ], [ 14.763188, 53.335834499000043 ], [ 14.762822, 53.334011499000042 ], [ 14.764494, 53.334470499000076 ], [ 14.76481, 53.336811499000078 ], [ 14.768192500000055, 53.33561449900003 ], [ 14.769796, 53.334597999000039 ], [ 14.768044, 53.334191499000042 ], [ 14.769139, 53.333436999000071 ], [ 14.768668, 53.332509499000082 ], [ 14.768701500000077, 53.331467499000041 ], [ 14.76785, 53.330347499000027 ], [ 14.765992500000038, 53.330280499000082 ], [ 14.764222500000074, 53.329551499000047 ], [ 14.763147500000059, 53.32892799900003 ], [ 14.761404500000026, 53.329090999000073 ], [ 14.760293, 53.328421999000057 ], [ 14.758004, 53.327952499000048 ], [ 14.751695500000039, 53.327805499000078 ], [ 14.751382500000034, 53.32901799900003 ], [ 14.751368, 53.329826499000035 ], [ 14.74863, 53.329626499000028 ], [ 14.747683, 53.329351999000039 ], [ 14.746291500000041, 53.32918999900005 ], [ 14.745897500000069, 53.33126549900004 ], [ 14.744904, 53.332147999000028 ], [ 14.743721, 53.331803999000044 ], [ 14.742159500000071, 53.330830999000057 ], [ 14.740874500000075, 53.33217649900007 ], [ 14.739931500000068, 53.332870999000079 ], [ 14.738637500000038, 53.333487999000056 ], [ 14.739508500000056, 53.334760999000082 ], [ 14.736112500000047, 53.334168499000043 ], [ 14.735031, 53.334156999000072 ], [ 14.734219500000052, 53.33447299900007 ], [ 14.736185500000033, 53.335464999000067 ], [ 14.735116500000061, 53.336543999000071 ], [ 14.73184150000003, 53.335608999000044 ], [ 14.727331500000048, 53.336541499000077 ], [ 14.724396, 53.338102999000057 ], [ 14.724021, 53.339773999000045 ], [ 14.723504, 53.339976499000045 ], [ 14.723246, 53.34148299900005 ], [ 14.723254, 53.342412999000032 ], [ 14.722724500000027, 53.343125499000053 ], [ 14.722436, 53.344070999000053 ], [ 14.71654, 53.342890999000076 ], [ 14.715016, 53.342754999000078 ], [ 14.714343500000041, 53.342949499000042 ], [ 14.714183, 53.343223999000031 ], [ 14.716033500000037, 53.344384999000056 ], [ 14.715166500000066, 53.345011499000066 ], [ 14.714526, 53.34588799900007 ], [ 14.713444, 53.346336499000074 ], [ 14.716303, 53.348489499000038 ], [ 14.719925, 53.346981499000037 ], [ 14.722038500000053, 53.348350999000047 ], [ 14.718211500000052, 53.350434999000072 ], [ 14.717118, 53.349464499000078 ], [ 14.716584, 53.350025499000026 ], [ 14.715333, 53.349647499000071 ], [ 14.715021, 53.350318999000081 ], [ 14.716790500000059, 53.351481499000045 ], [ 14.715949500000022, 53.352132999000048 ], [ 14.714048, 53.351568999000051 ], [ 14.712856500000044, 53.350990499000034 ], [ 14.71161150000006, 53.351950499000054 ], [ 14.710922500000038, 53.351510999000027 ], [ 14.710911, 53.351351499000032 ], [ 14.708474500000023, 53.349822499000027 ], [ 14.707228, 53.349987999000064 ], [ 14.712359500000048, 53.35326599900003 ], [ 14.713572, 53.354366999000035 ], [ 14.714602500000069, 53.353774499000053 ], [ 14.715789, 53.354726499000037 ], [ 14.718571, 53.35653049900003 ], [ 14.717466, 53.356884999000044 ], [ 14.71859, 53.357793499000081 ], [ 14.719811500000048, 53.358372499000041 ], [ 14.721492500000068, 53.35954749900003 ], [ 14.719519, 53.360482499000057 ], [ 14.720896500000038, 53.361549999000033 ], [ 14.719189500000027, 53.36240949900008 ], [ 14.710664, 53.360836999000071 ], [ 14.707283500000074, 53.360615999000061 ], [ 14.702852500000063, 53.359728999000026 ], [ 14.695674, 53.359921999000051 ], [ 14.693010500000071, 53.360378999000034 ], [ 14.69133, 53.36116849900003 ], [ 14.691944, 53.358947499000067 ], [ 14.694109, 53.358746999000061 ], [ 14.693645500000059, 53.357786499000042 ], [ 14.693493, 53.357645999000056 ], [ 14.693203500000038, 53.357647499000052 ], [ 14.692489, 53.357299499000078 ], [ 14.692004, 53.356690499000081 ], [ 14.692015500000025, 53.35627099900006 ], [ 14.688169500000072, 53.356238999000027 ], [ 14.683520500000043, 53.354628999000056 ], [ 14.683363500000041, 53.354217499000072 ], [ 14.682597, 53.353851999000028 ], [ 14.678296, 53.352915499000062 ], [ 14.677454, 53.353057999000043 ], [ 14.677599500000042, 53.353484999000045 ], [ 14.677169500000048, 53.353857499000071 ], [ 14.672087, 53.354377999000064 ], [ 14.670066, 53.355890499000054 ], [ 14.668655, 53.355855999000028 ], [ 14.667244500000038, 53.355526499000064 ], [ 14.66685, 53.355265999000039 ], [ 14.666452500000048, 53.355266999000037 ], [ 14.664454500000033, 53.35666549900003 ], [ 14.663698500000066, 53.357519499000034 ], [ 14.66241, 53.357435999000074 ], [ 14.662283500000058, 53.357166499000073 ], [ 14.661174, 53.357443499000055 ], [ 14.659527500000024, 53.358393999000043 ], [ 14.659615, 53.359319999000036 ], [ 14.659376500000064, 53.360151999000038 ], [ 14.659299500000031, 53.360325499000055 ], [ 14.658762500000023, 53.360420499000043 ], [ 14.658427, 53.361774999000033 ], [ 14.656349, 53.362115999000082 ], [ 14.653375500000038, 53.362262999000052 ], [ 14.653163500000062, 53.362484499000061 ], [ 14.649567500000046, 53.363025999000058 ], [ 14.648481500000059, 53.363301999000043 ], [ 14.648206, 53.36359199900005 ], [ 14.643757, 53.364724999000032 ], [ 14.642089, 53.364778999000066 ], [ 14.640872, 53.363889999000037 ], [ 14.638818, 53.363368499000046 ], [ 14.635499, 53.363412999000047 ], [ 14.634377500000028, 53.364202499000044 ], [ 14.634983500000033, 53.365668499000037 ], [ 14.631936, 53.366006999000035 ], [ 14.62899, 53.366064499000061 ], [ 14.626521, 53.365820499000051 ], [ 14.623265500000059, 53.365081499000041 ], [ 14.621615500000075, 53.364478999000028 ], [ 14.619811, 53.363503499000046 ], [ 14.620281, 53.362937999000053 ], [ 14.620051, 53.362388999000075 ], [ 14.619480500000066, 53.362198999000043 ], [ 14.617769, 53.362268499000038 ], [ 14.618151500000067, 53.361988499000063 ], [ 14.617700500000069, 53.360136999000076 ], [ 14.61819, 53.360117999000067 ], [ 14.617243500000029, 53.357544999000027 ], [ 14.617831500000023, 53.357312999000044 ], [ 14.620956, 53.35718599900008 ], [ 14.620429, 53.355533999000045 ], [ 14.619612500000073, 53.353791999000066 ], [ 14.610643500000037, 53.353405999000074 ], [ 14.609185500000024, 53.353884999000059 ], [ 14.605767, 53.354692499000066 ], [ 14.603844, 53.352642499000069 ], [ 14.602866500000061, 53.351236999000037 ], [ 14.602340500000025, 53.350959999000054 ], [ 14.601781500000072, 53.350341999000079 ], [ 14.601720500000056, 53.349947999000051 ], [ 14.600738, 53.349127499000076 ], [ 14.599591, 53.347841499000026 ], [ 14.59744, 53.346393999000043 ], [ 14.595872, 53.345558999000048 ], [ 14.593751, 53.344778499000029 ], [ 14.591756, 53.34430499900003 ], [ 14.590174500000046, 53.340455499000029 ], [ 14.590162, 53.339865499000041 ], [ 14.591450500000064, 53.339201999000068 ], [ 14.593542500000069, 53.336543999000071 ], [ 14.590359, 53.336086999000031 ], [ 14.590353, 53.336545999000066 ], [ 14.589645500000074, 53.336434499000063 ], [ 14.589637500000038, 53.335916499000064 ], [ 14.58842, 53.335214499000074 ], [ 14.586893500000031, 53.334821499000043 ], [ 14.581134, 53.33465299900007 ], [ 14.579178, 53.334367499000052 ], [ 14.579438500000037, 53.333830999000043 ], [ 14.577032, 53.333767999000031 ], [ 14.575121, 53.333499499000027 ], [ 14.576259500000049, 53.332093499000052 ], [ 14.578425500000037, 53.330071499000042 ], [ 14.580550500000072, 53.328210999000078 ], [ 14.582079, 53.327181999000061 ], [ 14.583573500000057, 53.325608999000053 ], [ 14.584179, 53.324589499000069 ], [ 14.584599, 53.324137499000074 ], [ 14.578854, 53.323716999000055 ], [ 14.570929500000034, 53.323815999000033 ], [ 14.570629, 53.323150499000064 ], [ 14.571536500000036, 53.322886999000048 ], [ 14.572004500000048, 53.32213499900007 ], [ 14.572052500000041, 53.321709499000065 ], [ 14.571201500000029, 53.322239999000033 ], [ 14.568967, 53.323233999000081 ], [ 14.568073500000025, 53.323897999000053 ], [ 14.567229500000053, 53.324895499000036 ], [ 14.567018, 53.325388499000042 ], [ 14.566938500000049, 53.326736999000047 ], [ 14.566702, 53.327359499000067 ], [ 14.566292500000031, 53.328045499000041 ], [ 14.564752500000054, 53.329085999000029 ], [ 14.562906500000054, 53.327994999000055 ], [ 14.56139150000007, 53.328949999000031 ], [ 14.560694500000068, 53.329598999000041 ], [ 14.558340500000043, 53.330169999000077 ], [ 14.557447500000023, 53.330773499000031 ], [ 14.552672, 53.330478499000037 ], [ 14.550562500000069, 53.331012999000052 ], [ 14.549188, 53.331121499000062 ], [ 14.547651, 53.33183899900007 ], [ 14.544087500000046, 53.332380999000065 ], [ 14.543688, 53.331620499000053 ], [ 14.542767, 53.333060499000055 ], [ 14.540461, 53.332757499000081 ], [ 14.536649500000067, 53.332680999000047 ], [ 14.534361500000045, 53.332858499000054 ], [ 14.530754, 53.333559999000045 ], [ 14.530944, 53.334045999000068 ], [ 14.532346500000074, 53.336136499000077 ], [ 14.534968500000048, 53.337916499000073 ], [ 14.537096500000075, 53.339612499000054 ], [ 14.538785500000074, 53.341687499000045 ], [ 14.54033, 53.34323899900005 ], [ 14.543041500000072, 53.345181499000034 ], [ 14.54892650000005, 53.348078999000052 ], [ 14.551221, 53.349597499000026 ], [ 14.552896500000031, 53.351867999000035 ], [ 14.554831500000034, 53.354142999000032 ], [ 14.554487, 53.354449999000053 ], [ 14.560627, 53.359444999000061 ], [ 14.567518500000062, 53.361204499000053 ], [ 14.570473, 53.361628499000062 ], [ 14.574905500000057, 53.361491499000067 ], [ 14.577828500000066, 53.362067999000033 ], [ 14.581130500000029, 53.36383199900007 ], [ 14.586356, 53.367057499000055 ], [ 14.585341500000027, 53.367809499000032 ], [ 14.581754, 53.367902499000081 ], [ 14.578495, 53.36903649900006 ], [ 14.576498, 53.369926999000029 ], [ 14.574310500000024, 53.371423999000058 ], [ 14.569868, 53.371597999000073 ], [ 14.568919, 53.371186499000032 ], [ 14.562262, 53.371773999000027 ], [ 14.559541500000023, 53.371423999000058 ], [ 14.554930500000069, 53.373842499000034 ], [ 14.552234, 53.374505999000064 ], [ 14.546198, 53.375031999000043 ], [ 14.543717, 53.37546499900003 ], [ 14.540886, 53.375184999000055 ], [ 14.538777, 53.375155499000073 ], [ 14.538056500000039, 53.372455499000068 ], [ 14.537447, 53.371968499000047 ], [ 14.532862, 53.373453999000048 ], [ 14.533042, 53.375074999000049 ], [ 14.534476, 53.380317999000056 ], [ 14.53557550000005, 53.382383499000071 ], [ 14.531001500000059, 53.383781499000065 ], [ 14.528181, 53.385293999000055 ], [ 14.526608500000066, 53.385946999000055 ], [ 14.523566500000072, 53.38640999900008 ], [ 14.518094500000075, 53.386793499000078 ], [ 14.51470050000006, 53.387714999000082 ], [ 14.514522, 53.387497999000061 ], [ 14.505621500000075, 53.390083999000069 ], [ 14.491769500000032, 53.393638999000075 ], [ 14.49022, 53.393657499000028 ], [ 14.488596500000028, 53.392967999000064 ], [ 14.48621, 53.390890999000078 ], [ 14.479492500000049, 53.393678999000031 ], [ 14.47891450000003, 53.393991999000036 ], [ 14.480943500000024, 53.395079999000075 ], [ 14.481586500000049, 53.395872999000062 ], [ 14.481572, 53.396600499000044 ], [ 14.480880500000069, 53.397401999000067 ], [ 14.480312, 53.397710999000026 ], [ 14.478094500000054, 53.398168999000063 ], [ 14.478146, 53.398358999000038 ], [ 14.476436500000034, 53.398659499000075 ], [ 14.477101, 53.398764999000036 ], [ 14.46825350000006, 53.400893499000063 ], [ 14.471427500000061, 53.401611499000069 ], [ 14.472354500000051, 53.405921499000044 ], [ 14.484466500000053, 53.407164499000032 ], [ 14.484484500000065, 53.417219499000055 ], [ 14.482705, 53.417824499000062 ], [ 14.48104, 53.417727999000078 ], [ 14.480413, 53.417308499000058 ], [ 14.478197500000022, 53.415262999000049 ], [ 14.47748, 53.414688999000077 ], [ 14.477297, 53.414686999000082 ], [ 14.47723, 53.417290999000045 ], [ 14.475127500000042, 53.417273999000031 ], [ 14.475143, 53.417812999000034 ], [ 14.469123500000023, 53.41773149900007 ], [ 14.470949, 53.418490999000028 ], [ 14.471159, 53.419669999000064 ], [ 14.474979, 53.426995499000043 ], [ 14.475697500000024, 53.427623499000049 ], [ 14.479326, 53.427155999000036 ], [ 14.481962500000066, 53.433553499000027 ], [ 14.481700500000045, 53.43470699900007 ], [ 14.481928, 53.435434499000053 ], [ 14.482965, 53.436499999000034 ], [ 14.481654, 53.436882999000034 ], [ 14.480449500000077, 53.437444499000037 ], [ 14.480047, 53.437994499000069 ], [ 14.479041500000051, 53.438511499000072 ], [ 14.477561, 53.438430999000047 ], [ 14.476559500000064, 53.438865999000029 ], [ 14.47536, 53.438951499000041 ], [ 14.474512, 53.439257999000063 ], [ 14.473291, 53.43917299900005 ], [ 14.462999, 53.441941999000051 ], [ 14.458924500000023, 53.442049999000062 ], [ 14.445855, 53.444167499000059 ], [ 14.446944500000029, 53.445281999000031 ], [ 14.448764, 53.448186999000029 ], [ 14.453153, 53.44675249900007 ], [ 14.455113500000039, 53.446720999000036 ], [ 14.455607, 53.447821999000041 ], [ 14.458216, 53.447817999000051 ], [ 14.460623, 53.447418499000037 ], [ 14.459932500000036, 53.446587499000032 ], [ 14.463226500000076, 53.446067499000037 ], [ 14.464803500000073, 53.449478999000064 ], [ 14.465301, 53.450163499000041 ], [ 14.473045, 53.449758999000039 ], [ 14.472692, 53.452273499000057 ], [ 14.471202, 53.452545999000051 ], [ 14.47124, 53.452800999000033 ], [ 14.468375500000036, 53.453312499000049 ], [ 14.470668, 53.454969499000072 ], [ 14.466918500000077, 53.455920499000058 ], [ 14.461475, 53.45652749900006 ], [ 14.46292, 53.461135499000079 ], [ 14.4706, 53.459490999000082 ], [ 14.470284500000048, 53.460998999000026 ], [ 14.470064, 53.461351999000044 ], [ 14.465302, 53.465806999000051 ], [ 14.463911, 53.46743249900004 ], [ 14.458971, 53.47251299900006 ], [ 14.458632500000022, 53.472601499000064 ], [ 14.458689, 53.472886499000026 ], [ 14.459517500000061, 53.473906999000064 ], [ 14.460598, 53.476447999000072 ], [ 14.455253, 53.479851499000063 ], [ 14.453255, 53.481581499000072 ], [ 14.451835500000072, 53.481961499000079 ], [ 14.444970500000068, 53.48457649900007 ], [ 14.443823500000065, 53.484762999000054 ], [ 14.443979500000069, 53.48607049900005 ], [ 14.444854, 53.487133499000038 ], [ 14.446566500000074, 53.489722499000038 ], [ 14.446723, 53.49050599900005 ], [ 14.448493500000041, 53.492676999000082 ], [ 14.448845500000061, 53.49376649900006 ], [ 14.449446500000022, 53.494822999000064 ], [ 14.443819, 53.495445999000026 ], [ 14.446984500000042, 53.496194999000068 ], [ 14.449181500000066, 53.496336499000051 ], [ 14.451426, 53.496170999000071 ], [ 14.453163500000073, 53.496392499000081 ], [ 14.45491, 53.496391999000082 ], [ 14.456146, 53.49572899900005 ], [ 14.458169, 53.495206499000062 ], [ 14.461922, 53.496227999000041 ], [ 14.46282, 53.496770999000034 ], [ 14.464383500000054, 53.497296499000072 ], [ 14.464534, 53.497021999000026 ], [ 14.466071, 53.495835999000064 ], [ 14.468055, 53.492896999000038 ], [ 14.468285, 53.492793499000072 ], [ 14.469109, 53.49290699900007 ], [ 14.470784500000036, 53.494383499000037 ], [ 14.47195, 53.49456899900008 ], [ 14.473168500000043, 53.495023999000068 ], [ 14.474389500000029, 53.495267499000079 ], [ 14.475346, 53.495747499000061 ], [ 14.477801, 53.495545499000059 ], [ 14.478755500000034, 53.49570249900006 ], [ 14.478951500000051, 53.495235999000045 ], [ 14.480598, 53.495508999000037 ], [ 14.481216, 53.491400999000064 ], [ 14.483776500000033, 53.491816499000038 ], [ 14.483387, 53.492727499000068 ], [ 14.483538500000066, 53.492987999000036 ], [ 14.484119500000077, 53.493733999000028 ], [ 14.484582, 53.493817499000045 ], [ 14.48503050000005, 53.493146499000034 ], [ 14.485050500000057, 53.492717999000035 ], [ 14.486459500000024, 53.493014999000081 ], [ 14.486351, 53.493549999000038 ], [ 14.486896, 53.493703999000047 ], [ 14.487511, 53.49385649900006 ], [ 14.488326500000028, 53.493760999000074 ], [ 14.49096650000007, 53.494301999000072 ], [ 14.491777500000069, 53.49244199900005 ], [ 14.492909, 53.49219849900004 ], [ 14.494093, 53.492408999000077 ], [ 14.492924, 53.493630999000061 ], [ 14.496260500000062, 53.492285499000047 ], [ 14.496260500000062, 53.491632499000048 ], [ 14.496771, 53.491597499000079 ], [ 14.498471500000051, 53.491968999000051 ], [ 14.499699500000077, 53.491713999000069 ], [ 14.50205, 53.490670999000031 ], [ 14.503477, 53.49092949900006 ], [ 14.506427500000029, 53.491147999000077 ], [ 14.508313, 53.492106999000043 ], [ 14.508016, 53.492883999000071 ], [ 14.508839, 53.493141999000045 ], [ 14.507591, 53.495768499000064 ], [ 14.508552500000064, 53.495944999000073 ], [ 14.510657, 53.495781499000032 ], [ 14.513414500000067, 53.496289499000056 ], [ 14.514641, 53.496777499000075 ], [ 14.515987500000051, 53.497021999000026 ], [ 14.517996500000038, 53.496884499000032 ], [ 14.519341500000053, 53.496970499000042 ], [ 14.520544500000028, 53.496700499000042 ], [ 14.521789500000068, 53.496182999000041 ], [ 14.523782, 53.495990999000071 ], [ 14.525590500000021, 53.496452499000043 ], [ 14.525572, 53.495834499000068 ], [ 14.526524, 53.495558499000026 ], [ 14.529919, 53.496259499000075 ], [ 14.529325, 53.495617999000046 ], [ 14.529878, 53.495403499000076 ], [ 14.531129500000077, 53.495444999000028 ], [ 14.534075500000029, 53.496732499000075 ], [ 14.533628500000077, 53.497122499000056 ], [ 14.538193, 53.496268499000053 ], [ 14.53906, 53.498868999000081 ], [ 14.539647, 53.498775499000033 ], [ 14.540178500000025, 53.498657999000045 ], [ 14.541246500000057, 53.498370999000031 ], [ 14.540957500000047, 53.497692999000037 ], [ 14.541816500000039, 53.497452499000076 ], [ 14.541439, 53.49649849900004 ], [ 14.541442500000073, 53.495237499000041 ], [ 14.546107, 53.494204999000033 ], [ 14.541799500000025, 53.493408999000053 ], [ 14.542156500000033, 53.492414499000063 ], [ 14.54511750000006, 53.492931999000064 ], [ 14.545976, 53.49291099900006 ], [ 14.547824, 53.493198999000072 ], [ 14.548328, 53.493138999000053 ], [ 14.55027350000006, 53.493515999000067 ], [ 14.550750500000049, 53.494261499000061 ], [ 14.551108, 53.495187999000052 ], [ 14.551628500000049, 53.495900499000072 ], [ 14.552481500000056, 53.496667999000067 ], [ 14.554115, 53.498816999000042 ], [ 14.562563500000067, 53.497319999000069 ], [ 14.565657, 53.499402499000041 ], [ 14.56696850000003, 53.500600999000028 ], [ 14.570647, 53.499295499000027 ], [ 14.575007, 53.501361999000039 ], [ 14.575599, 53.501786499000048 ], [ 14.576791, 53.501688999000066 ], [ 14.577847500000075, 53.502153999000029 ], [ 14.579178, 53.501876999000046 ], [ 14.580962500000055, 53.502309499000035 ], [ 14.581400500000029, 53.502585499000077 ], [ 14.5829, 53.502854999000078 ], [ 14.58463450000005, 53.503593499000033 ], [ 14.585462, 53.503922999000054 ], [ 14.585758, 53.503792499000042 ], [ 14.586719500000072, 53.504292999000029 ], [ 14.587153, 53.505283999000028 ], [ 14.585407500000031, 53.505129499000077 ], [ 14.584404, 53.505216999000027 ], [ 14.584077500000035, 53.507336499000075 ], [ 14.583413500000063, 53.509699499000078 ], [ 14.580245, 53.513096999000027 ], [ 14.580245500000046, 53.513434999000026 ], [ 14.580621, 53.514136499000074 ], [ 14.580745, 53.51529399900005 ], [ 14.581618500000047, 53.515856499000051 ], [ 14.581597500000044, 53.516999499000065 ], [ 14.581262, 53.517705999000043 ], [ 14.580456, 53.518250499000033 ], [ 14.578673500000036, 53.519266999000081 ], [ 14.575899500000048, 53.51952299900006 ], [ 14.575642500000072, 53.519119999000054 ], [ 14.57445, 53.52014949900007 ], [ 14.574029500000051, 53.520034999000075 ], [ 14.573581500000046, 53.520549999000082 ], [ 14.573965500000043, 53.523316999000031 ], [ 14.571346500000061, 53.52272799900004 ], [ 14.571225500000025, 53.522635999000045 ], [ 14.570674500000052, 53.520444499000064 ], [ 14.568374500000061, 53.519864999000049 ], [ 14.568679, 53.521876999000028 ], [ 14.565043, 53.521828499000037 ], [ 14.563860500000033, 53.522714499000074 ], [ 14.562329500000033, 53.52298599900007 ], [ 14.56209750000005, 53.523319499000081 ], [ 14.562144500000045, 53.523485999000059 ], [ 14.561903, 53.523678999000026 ], [ 14.560592, 53.523467999000047 ], [ 14.558995500000037, 53.523750499000073 ], [ 14.558755500000075, 53.524063999000077 ], [ 14.558184500000038, 53.52434099900006 ], [ 14.556820500000072, 53.52473549900003 ], [ 14.556143500000076, 53.525338499000043 ], [ 14.554723500000023, 53.525686499000074 ], [ 14.553602, 53.526433499000063 ], [ 14.553516500000057, 53.527108999000063 ], [ 14.553923500000053, 53.52753799900006 ], [ 14.554102500000056, 53.528170999000054 ], [ 14.553600500000073, 53.528491999000039 ], [ 14.553356500000064, 53.529192999000031 ], [ 14.553660500000035, 53.529559499000072 ], [ 14.554281, 53.530227499000034 ], [ 14.55481, 53.530800999000064 ], [ 14.554684500000064, 53.531648499000028 ], [ 14.554135500000029, 53.53210849900006 ], [ 14.554495, 53.532644499000071 ], [ 14.555263, 53.532907999000031 ], [ 14.556064, 53.532843999000079 ], [ 14.556738500000051, 53.533027999000069 ], [ 14.564668500000039, 53.535977999000067 ], [ 14.570537500000057, 53.53768149900003 ], [ 14.572100500000033, 53.536610499000062 ], [ 14.569966500000078, 53.533855499000026 ], [ 14.572336, 53.533717999000032 ], [ 14.572466500000075, 53.533652999000026 ], [ 14.572425500000065, 53.532898499000055 ] ] ] } }
]
}
