{
"type": "FeatureCollection",
"name": "turin",
"crs": { "type": "name", "properties": { "name": "urn:ogc:def:crs:OGC:1.3:CRS84" } },
"features": [
{ "type": "Feature", "properties": { }, "geometry": { "type": "MultiPolygon", "coordinates": [ [ [ [ 7.655444500000044, 45.008035999000072 ], [ 7.655135, 45.007298999000056 ], [ 7.654053, 45.00792799900006 ], [ 7.652571500000022, 45.008051499000032 ], [ 7.652423, 45.008663499000079 ], [ 7.652023, 45.008889999000075 ], [ 7.651226500000064, 45.008661499000027 ], [ 7.649826500000074, 45.00790549900006 ], [ 7.649065500000063, 45.007988499000078 ], [ 7.647755500000073, 45.007809999000074 ], [ 7.646928, 45.00754149900007 ], [ 7.646230500000058, 45.007048499000064 ], [ 7.645438, 45.006960999000057 ], [ 7.64467, 45.007009499000048 ], [ 7.64441, 45.006779499000061 ], [ 7.642404, 45.006969999000034 ], [ 7.641183500000068, 45.007312499000079 ], [ 7.640446, 45.008271999000044 ], [ 7.639056, 45.008830999000054 ], [ 7.638233, 45.008939999000063 ], [ 7.637165, 45.008167499000081 ], [ 7.636680500000068, 45.008085999000059 ], [ 7.633546, 45.010102499000027 ], [ 7.632262500000024, 45.010313999000061 ], [ 7.629034, 45.01035149900008 ], [ 7.628010500000073, 45.00910649900004 ], [ 7.627585500000066, 45.008319999000037 ], [ 7.626531500000056, 45.008084999000062 ], [ 7.625206, 45.008063999000058 ], [ 7.622998500000051, 45.00829999900003 ], [ 7.621365, 45.008799499000077 ], [ 7.618156500000055, 45.010234499000035 ], [ 7.615484500000036, 45.010765999000057 ], [ 7.614384, 45.011169499000061 ], [ 7.612182500000074, 45.010384499000054 ], [ 7.61054050000007, 45.009818499000062 ], [ 7.610065, 45.009777499000052 ], [ 7.609158, 45.010068499000056 ], [ 7.608044, 45.011074499000074 ], [ 7.606582, 45.01121499900006 ], [ 7.605924, 45.011774499000069 ], [ 7.603393, 45.012803999000027 ], [ 7.602621500000055, 45.013263499000061 ], [ 7.601108500000066, 45.013496499000041 ], [ 7.599468500000057, 45.012967999000068 ], [ 7.598261, 45.012084499000025 ], [ 7.596678500000053, 45.012183999000058 ], [ 7.596179, 45.012543999000059 ], [ 7.596895, 45.014092499000071 ], [ 7.596678500000053, 45.014491999000029 ], [ 7.59543050000002, 45.014968499000076 ], [ 7.59491950000006, 45.014864999000054 ], [ 7.594691500000067, 45.014437999000052 ], [ 7.594155, 45.014062999000032 ], [ 7.593134500000076, 45.014015999000037 ], [ 7.592411500000026, 45.014534999000034 ], [ 7.590881, 45.01604499900003 ], [ 7.589783, 45.016364999000075 ], [ 7.592403500000046, 45.017250499000056 ], [ 7.591860500000053, 45.019390999000052 ], [ 7.591976500000044, 45.019722499000068 ], [ 7.592707500000074, 45.019901999000069 ], [ 7.600534, 45.018767499000035 ], [ 7.607372, 45.029770499000051 ], [ 7.601569500000039, 45.028283499000054 ], [ 7.598821, 45.030027499000028 ], [ 7.598475500000063, 45.029903499000056 ], [ 7.597759, 45.029932999000039 ], [ 7.593981500000041, 45.032058999000071 ], [ 7.589698, 45.034041499000068 ], [ 7.588418500000046, 45.034475999000051 ], [ 7.585838, 45.035433999000077 ], [ 7.583541500000024, 45.036533499000029 ], [ 7.582892, 45.037284499000066 ], [ 7.581133, 45.038243499000032 ], [ 7.579868500000032, 45.039864999000031 ], [ 7.577854500000058, 45.04181599900005 ], [ 7.580326500000069, 45.044283499000073 ], [ 7.582204, 45.043671999000026 ], [ 7.582236, 45.043031499000051 ], [ 7.583942, 45.042065499000046 ], [ 7.586727, 45.044839999000033 ], [ 7.592585, 45.042107499000053 ], [ 7.592683500000021, 45.04162399900008 ], [ 7.594397500000071, 45.040814999000077 ], [ 7.596825, 45.039819499000032 ], [ 7.598187, 45.039553999000077 ], [ 7.600046500000076, 45.038781999000037 ], [ 7.606539, 45.035606999000038 ], [ 7.609142500000075, 45.034783499000071 ], [ 7.611631, 45.033734499000047 ], [ 7.614677500000028, 45.039833999000052 ], [ 7.616464, 45.038995499000066 ], [ 7.617438500000048, 45.040913999000054 ], [ 7.618409, 45.043744999000069 ], [ 7.618174500000066, 45.043903999000065 ], [ 7.618605, 45.044460499000081 ], [ 7.619370500000059, 45.044856999000046 ], [ 7.620289500000069, 45.044606999000052 ], [ 7.621219500000052, 45.045904499000073 ], [ 7.619448, 45.04617999900006 ], [ 7.617907, 45.046754999000029 ], [ 7.618739, 45.048315499000068 ], [ 7.617395, 45.048922499000071 ], [ 7.61934750000006, 45.050213499000051 ], [ 7.620681500000046, 45.051375499000073 ], [ 7.621598500000061, 45.051847999000074 ], [ 7.622777, 45.052220999000042 ], [ 7.625120500000037, 45.057442999000045 ], [ 7.625324500000033, 45.057648499000038 ], [ 7.625096, 45.059646999000051 ], [ 7.620243500000072, 45.059360499000036 ], [ 7.618708500000025, 45.058986999000069 ], [ 7.615702500000054, 45.059239999000056 ], [ 7.612765, 45.060094999000057 ], [ 7.610389, 45.060498499000062 ], [ 7.610136, 45.060441499000035 ], [ 7.609827500000051, 45.060123999000041 ], [ 7.607626500000038, 45.06054799900005 ], [ 7.609394, 45.064976499000068 ], [ 7.614062500000045, 45.066183999000032 ], [ 7.613175, 45.066759999000055 ], [ 7.609529500000065, 45.068027999000037 ], [ 7.608465, 45.070306499000026 ], [ 7.60662, 45.070758499000078 ], [ 7.603517500000066, 45.071131499000046 ], [ 7.605711, 45.074107999000034 ], [ 7.611405, 45.082554999000081 ], [ 7.611403, 45.084031499000048 ], [ 7.611153, 45.085590499000034 ], [ 7.611227500000041, 45.086278999000058 ], [ 7.612609, 45.087645499000075 ], [ 7.61331, 45.088707499000066 ], [ 7.61542, 45.088945999000032 ], [ 7.61791, 45.090745999000035 ], [ 7.618307500000071, 45.091315499000075 ], [ 7.61838750000004, 45.092010499000025 ], [ 7.619638500000065, 45.095106499000053 ], [ 7.618663, 45.096714499000029 ], [ 7.614438, 45.099716999000066 ], [ 7.614249, 45.100000499000032 ], [ 7.611804, 45.107126999000059 ], [ 7.614225500000032, 45.108119499000054 ], [ 7.618565, 45.108162499000059 ], [ 7.620143, 45.107947499000034 ], [ 7.622661500000049, 45.108453499000063 ], [ 7.62261, 45.113433999000051 ], [ 7.622897, 45.113814499000057 ], [ 7.646139, 45.11203049900007 ], [ 7.647687, 45.112165499000071 ], [ 7.64993, 45.112133499000038 ], [ 7.654491500000063, 45.112785999000039 ], [ 7.654587500000048, 45.114834999000038 ], [ 7.653047500000071, 45.116351999000074 ], [ 7.652626, 45.12322049900007 ], [ 7.653646, 45.123874999000066 ], [ 7.654255, 45.124538999000038 ], [ 7.657115500000032, 45.127736999000035 ], [ 7.657111500000042, 45.128155999000057 ], [ 7.656673, 45.128919499000062 ], [ 7.655753, 45.129619999000056 ], [ 7.655331500000045, 45.129116499000077 ], [ 7.654620500000021, 45.129536999000038 ], [ 7.655317500000024, 45.130457499000045 ], [ 7.654354, 45.13146449900006 ], [ 7.655703, 45.133260499000073 ], [ 7.655043, 45.133534499000064 ], [ 7.652886, 45.135008499000037 ], [ 7.657338500000037, 45.134756999000047 ], [ 7.66080450000004, 45.135072499000046 ], [ 7.661634, 45.134874999000033 ], [ 7.663438, 45.134069999000076 ], [ 7.663736, 45.135262499000078 ], [ 7.661959500000023, 45.135585499000058 ], [ 7.661121500000036, 45.136160499000027 ], [ 7.661398, 45.137050999000053 ], [ 7.662461500000063, 45.139169499000047 ], [ 7.663298, 45.139932999000052 ], [ 7.663998500000048, 45.140164499000036 ], [ 7.664856, 45.140084499000068 ], [ 7.665989500000023, 45.139103999000042 ], [ 7.666183, 45.138696999000047 ], [ 7.666344500000037, 45.138478999000029 ], [ 7.667958, 45.138486499000066 ], [ 7.668855, 45.138013499000067 ], [ 7.670349, 45.137656999000058 ], [ 7.671196500000065, 45.137777499000038 ], [ 7.671726, 45.138161499000034 ], [ 7.672488, 45.137947499000063 ], [ 7.673955, 45.137363999000058 ], [ 7.675166, 45.137085499000079 ], [ 7.676398500000062, 45.137263999000027 ], [ 7.67681250000004, 45.137961499000028 ], [ 7.678077500000029, 45.138527999000075 ], [ 7.678745, 45.137896499000078 ], [ 7.679154500000038, 45.137810999000067 ], [ 7.68058, 45.138822499000071 ], [ 7.681666, 45.137731999000039 ], [ 7.682046, 45.137880499000062 ], [ 7.683423, 45.137182999000061 ], [ 7.683202, 45.136468999000044 ], [ 7.683633500000042, 45.135785499000065 ], [ 7.684025, 45.135486499000081 ], [ 7.685846, 45.135147499000027 ], [ 7.686129, 45.134587999000075 ], [ 7.686627500000043, 45.133975999000029 ], [ 7.6874, 45.133945499000049 ], [ 7.690184500000043, 45.132971999000063 ], [ 7.690501500000039, 45.13350949900007 ], [ 7.690633, 45.134572499000058 ], [ 7.693745, 45.134376499000041 ], [ 7.694084, 45.134354999000038 ], [ 7.693941500000051, 45.13326949900005 ], [ 7.693902500000036, 45.132972499000061 ], [ 7.693997500000023, 45.132955499000047 ], [ 7.696361, 45.132531499000038 ], [ 7.696363, 45.130946999000059 ], [ 7.701224, 45.131483999000068 ], [ 7.703382500000032, 45.131604499000048 ], [ 7.703530500000056, 45.131612999000026 ], [ 7.703748500000074, 45.131624999000053 ], [ 7.709376500000076, 45.132551999000043 ], [ 7.70981850000004, 45.133508999000071 ], [ 7.711135500000069, 45.133155499000054 ], [ 7.711271, 45.13368549900008 ], [ 7.711449, 45.134382499000026 ], [ 7.711763, 45.135609999000053 ], [ 7.712110500000051, 45.13696999900003 ], [ 7.712443500000063, 45.137186499000052 ], [ 7.713343500000065, 45.137526499000046 ], [ 7.71383650000007, 45.137549999000043 ], [ 7.714888500000029, 45.137306999000032 ], [ 7.71546, 45.137482499000043 ], [ 7.716688500000032, 45.138063499000054 ], [ 7.718093, 45.138026999000033 ], [ 7.719140500000037, 45.137758499000029 ], [ 7.719833, 45.13802799900003 ], [ 7.720322, 45.13787049900003 ], [ 7.720783500000039, 45.137659499000051 ], [ 7.720978500000058, 45.137575499000036 ], [ 7.722338, 45.136989999000036 ], [ 7.723041500000022, 45.136881499000026 ], [ 7.72378150000003, 45.13717549900008 ], [ 7.724789500000043, 45.136746499000026 ], [ 7.724652500000047, 45.135776499000031 ], [ 7.724553, 45.135482499000034 ], [ 7.724187500000028, 45.135406999000054 ], [ 7.723472500000071, 45.132702499000061 ], [ 7.722921, 45.132795499000053 ], [ 7.722868500000061, 45.131610999000031 ], [ 7.721251, 45.131337999000039 ], [ 7.720963, 45.130513499000074 ], [ 7.718175500000029, 45.130445499000075 ], [ 7.71738, 45.127300499000057 ], [ 7.719225, 45.126740999000049 ], [ 7.721337, 45.125097499000049 ], [ 7.722441, 45.126234999000076 ], [ 7.724928500000033, 45.126939999000058 ], [ 7.729637, 45.125206499000058 ], [ 7.729535, 45.124875499000041 ], [ 7.728919500000075, 45.124249999000028 ], [ 7.730539, 45.123646999000073 ], [ 7.731604, 45.123800499000026 ], [ 7.732437, 45.123649499000066 ], [ 7.733951500000046, 45.12381749900004 ], [ 7.735359, 45.123760999000069 ], [ 7.736575500000072, 45.12350649900003 ], [ 7.736711500000069, 45.123365999000043 ], [ 7.736189500000023, 45.122120499000061 ], [ 7.735929, 45.12201249900005 ], [ 7.735126500000035, 45.119563499000037 ], [ 7.738517500000057, 45.119187499000077 ], [ 7.738582, 45.118881499000054 ], [ 7.738492500000064, 45.118216999000026 ], [ 7.736972500000036, 45.117260999000052 ], [ 7.736626, 45.112832499000035 ], [ 7.737291500000026, 45.112649499000042 ], [ 7.739086, 45.113094499000056 ], [ 7.739782, 45.112953999000069 ], [ 7.739914, 45.112837999000078 ], [ 7.739938, 45.111096499000041 ], [ 7.739990500000033, 45.109533499000065 ], [ 7.741563, 45.109398499000065 ], [ 7.743858500000044, 45.108182999000064 ], [ 7.744309500000043, 45.107589999000027 ], [ 7.744342, 45.107338999000035 ], [ 7.743959, 45.106719499000064 ], [ 7.746084, 45.105781499000045 ], [ 7.748008, 45.10449249900006 ], [ 7.752380500000072, 45.102633499000035 ], [ 7.751380500000039, 45.10040649900003 ], [ 7.751337, 45.09862399900004 ], [ 7.750952500000039, 45.097302999000078 ], [ 7.74786, 45.095421499000054 ], [ 7.745819, 45.094386499000052 ], [ 7.741643, 45.092599499000073 ], [ 7.743866500000024, 45.09083399900004 ], [ 7.744603, 45.089074999000047 ], [ 7.745206500000052, 45.08860499900004 ], [ 7.745546500000046, 45.08860899900003 ], [ 7.746608, 45.087921999000059 ], [ 7.746738, 45.087705499000037 ], [ 7.74666250000007, 45.087117499000044 ], [ 7.747064, 45.086520999000072 ], [ 7.748485, 45.085679499000037 ], [ 7.74858450000005, 45.085297499000035 ], [ 7.748889, 45.084983499000032 ], [ 7.750791, 45.08361749900007 ], [ 7.753335, 45.083065499000043 ], [ 7.754664500000047, 45.083156999000039 ], [ 7.755202, 45.082665499000029 ], [ 7.756246, 45.082191999000031 ], [ 7.756940500000042, 45.082098999000038 ], [ 7.757825500000024, 45.082315999000059 ], [ 7.760502, 45.082358499000065 ], [ 7.762256, 45.082566499000052 ], [ 7.763585, 45.082364999000049 ], [ 7.764478, 45.082567999000048 ], [ 7.76508350000006, 45.082403499000065 ], [ 7.766914500000041, 45.080955999000025 ], [ 7.768977, 45.081660999000064 ], [ 7.769192, 45.080862999000033 ], [ 7.769048, 45.08065749900004 ], [ 7.767396, 45.080170999000075 ], [ 7.767503500000032, 45.079723499000067 ], [ 7.768013500000052, 45.079108999000027 ], [ 7.769976500000041, 45.078279499000075 ], [ 7.77070150000003, 45.078129999000055 ], [ 7.771158, 45.078143499000078 ], [ 7.771627, 45.07841649900007 ], [ 7.772713, 45.078340499000035 ], [ 7.773029500000064, 45.078226999000037 ], [ 7.773324500000058, 45.077825999000027 ], [ 7.767230500000039, 45.070812499000056 ], [ 7.755810500000052, 45.057742499000028 ], [ 7.748184500000036, 45.051130999000065 ], [ 7.740274, 45.044707499000026 ], [ 7.736057500000072, 45.041047499000058 ], [ 7.732642500000054, 45.037746999000035 ], [ 7.722548, 45.031155499000079 ], [ 7.708169, 45.026946499000076 ], [ 7.707608500000049, 45.023921999000038 ], [ 7.70584, 45.023920499000042 ], [ 7.704182, 45.024246499000071 ], [ 7.70359650000006, 45.023993499000028 ], [ 7.702372, 45.023965499000042 ], [ 7.701567, 45.023690999000053 ], [ 7.700363500000037, 45.02401799900008 ], [ 7.700130500000057, 45.023479499000075 ], [ 7.699645, 45.023300999000071 ], [ 7.697849500000075, 45.023019499000043 ], [ 7.697379500000068, 45.023155999000039 ], [ 7.696335, 45.023161999000081 ], [ 7.695627500000057, 45.022960499000078 ], [ 7.693924, 45.023698499000034 ], [ 7.691971500000022, 45.02401799900008 ], [ 7.689909, 45.024627999000074 ], [ 7.687058500000035, 45.024549999000044 ], [ 7.685135, 45.023983999000052 ], [ 7.683954, 45.023311499000044 ], [ 7.682844500000044, 45.022050499000045 ], [ 7.682379500000025, 45.020855999000048 ], [ 7.682037500000035, 45.020344999000031 ], [ 7.681449, 45.019999999000049 ], [ 7.681301500000075, 45.019399999000029 ], [ 7.680886, 45.018625499000052 ], [ 7.679330500000049, 45.01759849900003 ], [ 7.677812, 45.016194499000051 ], [ 7.670580500000028, 45.017080999000029 ], [ 7.66486, 45.016765999000029 ], [ 7.658909, 45.016250999000079 ], [ 7.655444500000044, 45.008035999000072 ] ] ], [ [ [ 7.742915500000038, 45.122257999000055 ], [ 7.743455, 45.122520999000074 ], [ 7.744519500000024, 45.123771499000043 ], [ 7.746013, 45.124684499000068 ], [ 7.747059, 45.123885999000038 ], [ 7.748367, 45.124625999000045 ], [ 7.749194, 45.123879999000053 ], [ 7.749715500000036, 45.122249499000077 ], [ 7.748998, 45.121493999000052 ], [ 7.748770500000035, 45.120951499000057 ], [ 7.748223500000051, 45.120431999000061 ], [ 7.743398, 45.117280999000059 ], [ 7.740455500000053, 45.119461499000067 ], [ 7.743101, 45.121334499000056 ], [ 7.742915500000038, 45.122257999000055 ] ] ] ] } }
]
}
