{
"type": "FeatureCollection",
"name": "vilnius",
"crs": { "type": "name", "properties": { "name": "urn:ogc:def:crs:OGC:1.3:CRS84" } },
"features": [
{ "type": "Feature", "properties": { }, "geometry": { "type": "Polygon", "coordinates": [ [ [ 25.413562500000069, 54.712115499000049 ], [ 25.41877, 54.711197999000035 ], [ 25.427059, 54.709111499000073 ], [ 25.428728500000034, 54.710658999000032 ], [ 25.427689500000042, 54.712081999000077 ], [ 25.426422, 54.712487999000075 ], [ 25.425905, 54.712496499000054 ], [ 25.425998500000048, 54.713094499000078 ], [ 25.426833, 54.714285499000027 ], [ 25.42674, 54.714907499000049 ], [ 25.42749850000007, 54.715759999000056 ], [ 25.428900500000054, 54.714146499000037 ], [ 25.430121500000041, 54.713834999000028 ], [ 25.433225500000049, 54.714279999000041 ], [ 25.435746, 54.712227999000049 ], [ 25.436991500000033, 54.711903999000072 ], [ 25.437927, 54.710605999000052 ], [ 25.441039, 54.70791949900007 ], [ 25.451916500000038, 54.705586999000047 ], [ 25.45786350000003, 54.706188999000062 ], [ 25.458612, 54.706991999000081 ], [ 25.459558, 54.707611499000052 ], [ 25.461037, 54.70797249900005 ], [ 25.461775500000044, 54.707898499000066 ], [ 25.46208450000006, 54.707434999000043 ], [ 25.462986500000056, 54.707539499000063 ], [ 25.463969, 54.707835499000055 ], [ 25.463816, 54.708228499000029 ], [ 25.464443, 54.708439999000063 ], [ 25.465914, 54.705527499000027 ], [ 25.466060500000026, 54.704343999000059 ], [ 25.463984, 54.703241499000058 ], [ 25.464440500000023, 54.702094499000054 ], [ 25.460220500000048, 54.696781999000052 ], [ 25.464821, 54.697088499000074 ], [ 25.465212500000064, 54.695455999000046 ], [ 25.472409, 54.695404999000061 ], [ 25.47964, 54.696961999000052 ], [ 25.481459500000028, 54.693487499000071 ], [ 25.479884500000026, 54.69313549900005 ], [ 25.481103500000074, 54.687810499000079 ], [ 25.481440500000076, 54.687651999000082 ], [ 25.480815500000062, 54.687184999000067 ], [ 25.480336500000078, 54.686040999000056 ], [ 25.479856500000039, 54.685850999000081 ], [ 25.479156500000045, 54.685876499000074 ], [ 25.478245500000071, 54.685424999000077 ], [ 25.477226, 54.685709999000039 ], [ 25.476554, 54.685314499000071 ], [ 25.475594, 54.685219999000026 ], [ 25.474849500000062, 54.685425999000074 ], [ 25.473718500000075, 54.686269999000046 ], [ 25.472100500000067, 54.688145999000028 ], [ 25.471504500000037, 54.688428999000052 ], [ 25.469918500000063, 54.688697999000055 ], [ 25.466914, 54.688387499000044 ], [ 25.46550650000006, 54.687969499000076 ], [ 25.464033500000028, 54.687156999000081 ], [ 25.462493500000051, 54.68594949900006 ], [ 25.461948500000062, 54.685949999000059 ], [ 25.458337500000027, 54.687347999000053 ], [ 25.456402, 54.686727499000028 ], [ 25.449400500000024, 54.685271499000066 ], [ 25.445574, 54.681692499000064 ], [ 25.451102, 54.678300999000044 ], [ 25.446289500000034, 54.675739999000029 ], [ 25.438588, 54.67513199900003 ], [ 25.43704, 54.67370549900005 ], [ 25.432701500000064, 54.675517999000078 ], [ 25.431158, 54.676647499000069 ], [ 25.430513500000075, 54.675246499000082 ], [ 25.428418500000078, 54.674218999000061 ], [ 25.425701500000059, 54.675438499000052 ], [ 25.422425, 54.676073999000039 ], [ 25.420785500000079, 54.676104499000076 ], [ 25.418627500000071, 54.677432999000075 ], [ 25.415054500000053, 54.678081499000029 ], [ 25.414184500000033, 54.679767499000036 ], [ 25.41392, 54.679738499000052 ], [ 25.412560500000041, 54.681489999000064 ], [ 25.40944, 54.680671999000026 ], [ 25.409407, 54.677632499000026 ], [ 25.410268, 54.676094499000044 ], [ 25.409071, 54.676053499000034 ], [ 25.40896, 54.675508499000046 ], [ 25.404851500000063, 54.675434999000061 ], [ 25.40435350000007, 54.672347499000068 ], [ 25.403738500000031, 54.672403999000039 ], [ 25.404204, 54.669773999000029 ], [ 25.403039, 54.669137499000044 ], [ 25.40084, 54.668328999000039 ], [ 25.398754, 54.667953499000077 ], [ 25.390106, 54.666999999000041 ], [ 25.38677, 54.666338999000061 ], [ 25.384333, 54.665297999000074 ], [ 25.382619, 54.663988999000082 ], [ 25.381750500000066, 54.662629999000046 ], [ 25.380191500000024, 54.657404499000052 ], [ 25.37953, 54.656519499000069 ], [ 25.370545, 54.647340499000052 ], [ 25.363837, 54.643556499000056 ], [ 25.362895, 54.642312999000069 ], [ 25.362800500000048, 54.639662499000053 ], [ 25.361547, 54.639714999000034 ], [ 25.358314500000063, 54.640319499000043 ], [ 25.354467500000055, 54.641223999000033 ], [ 25.35202, 54.642123999000034 ], [ 25.351533, 54.641827999000043 ], [ 25.335693500000048, 54.645685999000079 ], [ 25.323665500000061, 54.648623999000051 ], [ 25.322174, 54.646294999000077 ], [ 25.320498, 54.646647999000038 ], [ 25.319807, 54.645646999000064 ], [ 25.319664500000044, 54.639432999000064 ], [ 25.320552500000076, 54.63131899900003 ], [ 25.321379500000035, 54.630191999000033 ], [ 25.325671500000055, 54.631133499000043 ], [ 25.327825, 54.626535999000055 ], [ 25.320689500000071, 54.625505499000042 ], [ 25.321160500000076, 54.62426399900005 ], [ 25.321008, 54.622691499000041 ], [ 25.32136950000006, 54.621043999000051 ], [ 25.321513500000037, 54.617723999000077 ], [ 25.321701500000074, 54.617127999000047 ], [ 25.322502, 54.616200999000057 ], [ 25.324699, 54.614650499000049 ], [ 25.327101, 54.612172499000053 ], [ 25.330889, 54.609705999000028 ], [ 25.325247500000046, 54.607643499000062 ], [ 25.321315500000026, 54.606948499000055 ], [ 25.322419, 54.603754999000046 ], [ 25.313699, 54.602690499000062 ], [ 25.314089500000023, 54.599369999000032 ], [ 25.313707500000078, 54.599273999000047 ], [ 25.296034500000076, 54.594911999000033 ], [ 25.292233500000066, 54.594251999000051 ], [ 25.287550500000066, 54.592812499000047 ], [ 25.287602500000048, 54.594691499000078 ], [ 25.283510500000034, 54.594521499000052 ], [ 25.27972, 54.59485199900007 ], [ 25.27143, 54.594184999000049 ], [ 25.271066500000074, 54.592427999000051 ], [ 25.268424, 54.592637999000033 ], [ 25.268175500000041, 54.591909999000052 ], [ 25.267947500000048, 54.591927999000063 ], [ 25.26554150000004, 54.592007499000033 ], [ 25.265133, 54.592020999000056 ], [ 25.264848, 54.592030499000032 ], [ 25.264265500000079, 54.592049999000039 ], [ 25.264064500000075, 54.59205649900008 ], [ 25.26415, 54.591894999000033 ], [ 25.263907, 54.591570499000056 ], [ 25.263286, 54.590739499000051 ], [ 25.261739, 54.590713999000059 ], [ 25.260813, 54.591276999000058 ], [ 25.260741, 54.592116999000041 ], [ 25.259183500000063, 54.592132999000057 ], [ 25.258976, 54.591927499000064 ], [ 25.258851500000048, 54.591892999000038 ], [ 25.256923500000028, 54.591360999000074 ], [ 25.256786, 54.591061499000034 ], [ 25.256631, 54.590722999000036 ], [ 25.255529, 54.591034999000044 ], [ 25.254106, 54.59143799900005 ], [ 25.252860500000054, 54.592478499000038 ], [ 25.25343950000007, 54.592899499000055 ], [ 25.253404500000045, 54.592990999000051 ], [ 25.25084, 54.594415999000034 ], [ 25.249599, 54.594864999000038 ], [ 25.249347500000056, 54.594979999000032 ], [ 25.248835500000041, 54.595010999000067 ], [ 25.248176, 54.59426299900008 ], [ 25.248161500000037, 54.593794999000067 ], [ 25.248782500000061, 54.593530499000053 ], [ 25.249643500000047, 54.592840999000032 ], [ 25.247147, 54.590351999000063 ], [ 25.246866500000067, 54.590071999000031 ], [ 25.246158, 54.590161499000033 ], [ 25.24293, 54.59287099900007 ], [ 25.241356, 54.592951999000036 ], [ 25.240302, 54.592671499000062 ], [ 25.238518500000055, 54.591356999000027 ], [ 25.237966, 54.590167499000074 ], [ 25.23722, 54.590050499000029 ], [ 25.236175500000058, 54.589062499000079 ], [ 25.237529500000051, 54.588594999000065 ], [ 25.240968500000065, 54.586797499000056 ], [ 25.239095, 54.585795999000027 ], [ 25.238636500000041, 54.584725499000058 ], [ 25.23724, 54.584261499000036 ], [ 25.236467, 54.583747499000026 ], [ 25.240756, 54.581405499000027 ], [ 25.246466, 54.577877999000066 ], [ 25.24936850000006, 54.576945499000033 ], [ 25.249127, 54.576471999000034 ], [ 25.245149, 54.57739949900008 ], [ 25.242835, 54.575770999000042 ], [ 25.240686500000038, 54.57484099900006 ], [ 25.238646, 54.574583999000026 ], [ 25.236363500000039, 54.574941999000032 ], [ 25.233265500000073, 54.576641499000061 ], [ 25.233841, 54.582215499000029 ], [ 25.230842500000051, 54.584657499000059 ], [ 25.225135, 54.587768999000048 ], [ 25.221423, 54.588474999000027 ], [ 25.216342500000053, 54.58852149900008 ], [ 25.214081500000077, 54.588984499000048 ], [ 25.212079, 54.587564499000052 ], [ 25.211495, 54.587854999000058 ], [ 25.211569, 54.588843999000062 ], [ 25.210493500000041, 54.590232499000081 ], [ 25.208763500000032, 54.59151599900008 ], [ 25.202207500000043, 54.599581999000065 ], [ 25.200700500000039, 54.600650999000038 ], [ 25.199585500000069, 54.599732499000027 ], [ 25.196784, 54.600669499000048 ], [ 25.194921, 54.602055999000072 ], [ 25.193521500000031, 54.601470499000072 ], [ 25.191513, 54.60234949900007 ], [ 25.190619, 54.601491499000076 ], [ 25.186544, 54.603017999000031 ], [ 25.187546, 54.603478499000062 ], [ 25.182165500000053, 54.605582499000036 ], [ 25.179993, 54.605258999000057 ], [ 25.178252, 54.606139499000051 ], [ 25.176645, 54.606547999000043 ], [ 25.175910500000043, 54.606035499000029 ], [ 25.173317, 54.606694499000071 ], [ 25.171213500000079, 54.60522449900003 ], [ 25.166805, 54.601375499000028 ], [ 25.162838500000078, 54.599645499000076 ], [ 25.165600500000039, 54.598730499000055 ], [ 25.166714500000069, 54.598161999000069 ], [ 25.168355, 54.597690999000065 ], [ 25.169708, 54.597877999000048 ], [ 25.171575, 54.598668499000041 ], [ 25.173241, 54.598729499000058 ], [ 25.177544, 54.59787299900006 ], [ 25.176649500000053, 54.59639099900005 ], [ 25.176715500000057, 54.595908999000073 ], [ 25.182861500000058, 54.593210499000065 ], [ 25.182404500000075, 54.592685499000027 ], [ 25.184546500000067, 54.592030499000032 ], [ 25.185141, 54.591424499000027 ], [ 25.183878, 54.589689499000031 ], [ 25.183205500000042, 54.589278999000044 ], [ 25.186343500000078, 54.580251999000041 ], [ 25.185595500000034, 54.580201499000054 ], [ 25.186188500000071, 54.575390499000036 ], [ 25.186378500000046, 54.569521499000075 ], [ 25.181328, 54.569238999000049 ], [ 25.180057, 54.568892499000071 ], [ 25.169241, 54.570039499000075 ], [ 25.157086, 54.570938499000079 ], [ 25.148187500000063, 54.573511999000061 ], [ 25.148434, 54.57651099900005 ], [ 25.145482500000071, 54.578184499000031 ], [ 25.141723500000069, 54.579088999000078 ], [ 25.141678500000069, 54.578239499000063 ], [ 25.138068500000031, 54.57911449900007 ], [ 25.135256, 54.57740349900007 ], [ 25.129071, 54.578936499000065 ], [ 25.128678500000035, 54.57878099900006 ], [ 25.131596, 54.57373749900006 ], [ 25.121280500000069, 54.569672999000034 ], [ 25.115388, 54.578690499000061 ], [ 25.11303, 54.578356499000051 ], [ 25.103429500000061, 54.582803999000078 ], [ 25.09255150000007, 54.589781999000081 ], [ 25.096781, 54.589873499000078 ], [ 25.101255500000036, 54.590323499000078 ], [ 25.105466, 54.590847999000061 ], [ 25.111825, 54.592042499000058 ], [ 25.114427500000033, 54.592262499000071 ], [ 25.113711, 54.595595499000069 ], [ 25.112365500000067, 54.596996499000056 ], [ 25.115419, 54.601148499000033 ], [ 25.112802500000043, 54.601932999000041 ], [ 25.111126, 54.603764999000077 ], [ 25.108635500000048, 54.603936499000042 ], [ 25.107290500000033, 54.604948499000045 ], [ 25.104806, 54.603728499000056 ], [ 25.099329500000067, 54.609011999000074 ], [ 25.084001, 54.605232999000066 ], [ 25.078487500000051, 54.599039499000071 ], [ 25.075725, 54.60094699900003 ], [ 25.074501500000054, 54.606731499000034 ], [ 25.073191500000064, 54.608285499000033 ], [ 25.071196500000042, 54.609788999000045 ], [ 25.069191, 54.613733999000033 ], [ 25.066051500000071, 54.619628499000044 ], [ 25.035923500000024, 54.622312499000031 ], [ 25.024598, 54.623158999000054 ], [ 25.025497, 54.623953999000037 ], [ 25.026969500000064, 54.624159999000028 ], [ 25.033521500000063, 54.627217999000038 ], [ 25.040133500000024, 54.629701499000078 ], [ 25.045151, 54.63014399900004 ], [ 25.044662, 54.631793999000081 ], [ 25.049791500000026, 54.631148499000062 ], [ 25.049791500000026, 54.631566999000029 ], [ 25.050345500000049, 54.631869499000061 ], [ 25.059506500000055, 54.63268449900005 ], [ 25.058282, 54.635145499000032 ], [ 25.065093, 54.635414499000035 ], [ 25.064861500000063, 54.637186499000052 ], [ 25.071578, 54.637212499000043 ], [ 25.07383150000004, 54.638386499000035 ], [ 25.076443, 54.639476499000068 ], [ 25.076798500000052, 54.640053499000032 ], [ 25.070684, 54.642131999000071 ], [ 25.06821750000006, 54.642772999000044 ], [ 25.068293500000038, 54.644056499000044 ], [ 25.074415500000043, 54.643855999000039 ], [ 25.075018, 54.649740999000073 ], [ 25.073199, 54.649918999000079 ], [ 25.073494, 54.650630999000043 ], [ 25.073720500000036, 54.654227999000057 ], [ 25.074196, 54.655613999000082 ], [ 25.076047500000072, 54.655475999000032 ], [ 25.08185, 54.655529999000066 ], [ 25.086639500000047, 54.656243499000027 ], [ 25.087961500000063, 54.655810999000039 ], [ 25.090561500000035, 54.656561999000076 ], [ 25.096381, 54.656356499000026 ], [ 25.105964500000027, 54.655677999000034 ], [ 25.107895, 54.655912499000067 ], [ 25.110119500000053, 54.655918499000052 ], [ 25.110304500000041, 54.656936999000038 ], [ 25.109905, 54.658195999000043 ], [ 25.110645500000032, 54.658392999000057 ], [ 25.109552, 54.659204499000055 ], [ 25.108235500000035, 54.659575999000026 ], [ 25.106156500000054, 54.65986999900008 ], [ 25.104186500000026, 54.659870499000078 ], [ 25.10363650000005, 54.660043499000039 ], [ 25.103977500000042, 54.661016999000026 ], [ 25.105461500000047, 54.662522999000032 ], [ 25.10596, 54.662681999000029 ], [ 25.107354, 54.662538999000049 ], [ 25.107885, 54.662629999000046 ], [ 25.109653, 54.663751999000056 ], [ 25.111257500000079, 54.663828999000032 ], [ 25.110021500000073, 54.664080499000079 ], [ 25.107427, 54.663558499000032 ], [ 25.094866, 54.66181799900005 ], [ 25.086781, 54.661942499000077 ], [ 25.086628, 54.661769999000057 ], [ 25.085725500000024, 54.661932499000045 ], [ 25.084647500000074, 54.66249749900004 ], [ 25.084726500000045, 54.66263249900004 ], [ 25.082778, 54.663513999000031 ], [ 25.082404500000052, 54.663424999000028 ], [ 25.079513500000076, 54.664623499000072 ], [ 25.079412, 54.666280999000037 ], [ 25.079196, 54.666602999000077 ], [ 25.080287, 54.667224999000041 ], [ 25.079149, 54.667670499000053 ], [ 25.077588500000047, 54.667828999000051 ], [ 25.076522, 54.668820499000049 ], [ 25.074683500000049, 54.669650499000056 ], [ 25.074437, 54.670344999000065 ], [ 25.072445, 54.672663999000065 ], [ 25.072948, 54.673257999000043 ], [ 25.072787, 54.673953999000048 ], [ 25.071864, 54.673982999000032 ], [ 25.071821, 54.675132499000028 ], [ 25.072571500000038, 54.675716499000032 ], [ 25.07271, 54.677931499000067 ], [ 25.071018, 54.678694999000072 ], [ 25.071649, 54.679588999000032 ], [ 25.071718500000031, 54.680595499000049 ], [ 25.071526500000061, 54.680874499000026 ], [ 25.070535500000062, 54.682030499000064 ], [ 25.069717500000024, 54.681825999000068 ], [ 25.069532500000037, 54.682007999000064 ], [ 25.069544, 54.682432999000071 ], [ 25.070268500000054, 54.682807999000033 ], [ 25.069085500000028, 54.684011499000064 ], [ 25.069422, 54.684867499000063 ], [ 25.068651, 54.686982499000067 ], [ 25.06876550000004, 54.68746599900004 ], [ 25.068233500000076, 54.690335999000069 ], [ 25.07101, 54.690677999000059 ], [ 25.071212500000058, 54.689869499000054 ], [ 25.071845, 54.68913599900003 ], [ 25.072737500000073, 54.688593999000034 ], [ 25.074181, 54.688216499000077 ], [ 25.076927500000068, 54.688034499000082 ], [ 25.079839500000048, 54.687554999000042 ], [ 25.080468500000052, 54.687264999000035 ], [ 25.081331500000033, 54.686490499000058 ], [ 25.082413, 54.684133999000039 ], [ 25.082116, 54.682160999000075 ], [ 25.082781500000067, 54.68152599900003 ], [ 25.084458, 54.680994499000064 ], [ 25.093397, 54.679042499000047 ], [ 25.097170500000061, 54.677361499000028 ], [ 25.109879500000034, 54.673772499000052 ], [ 25.114516500000036, 54.67312799900003 ], [ 25.116312, 54.673016999000026 ], [ 25.118353500000069, 54.673096999000052 ], [ 25.120945500000062, 54.673746999000059 ], [ 25.127941500000077, 54.67664299900008 ], [ 25.128485500000068, 54.67696599900006 ], [ 25.129363, 54.678130499000076 ], [ 25.129867500000046, 54.678471999000067 ], [ 25.136722, 54.681247499000051 ], [ 25.141294, 54.681402499000058 ], [ 25.14319, 54.68125849900008 ], [ 25.144022, 54.681036499000072 ], [ 25.144829500000071, 54.680820999000048 ], [ 25.14816, 54.679580499000053 ], [ 25.151317, 54.67907449900008 ], [ 25.15245, 54.679103999000063 ], [ 25.153309500000034, 54.67933399900005 ], [ 25.154843500000027, 54.680370999000047 ], [ 25.157552, 54.680731499000046 ], [ 25.159487, 54.680595999000047 ], [ 25.16062850000003, 54.680108999000026 ], [ 25.161242, 54.67960449900005 ], [ 25.163893, 54.674490999000056 ], [ 25.164428500000042, 54.673619999000039 ], [ 25.16539750000004, 54.672801499000059 ], [ 25.167232500000068, 54.672181999000031 ], [ 25.169335500000045, 54.671995499000047 ], [ 25.173578500000076, 54.672354499000051 ], [ 25.176078500000074, 54.673280499000043 ], [ 25.17775, 54.673450499000069 ], [ 25.179191, 54.673308999000028 ], [ 25.180162, 54.674491999000054 ], [ 25.181546, 54.675101999000049 ], [ 25.182902500000068, 54.676835499000049 ], [ 25.189488500000039, 54.68093649900004 ], [ 25.191761, 54.683120999000039 ], [ 25.190608, 54.68368749900003 ], [ 25.188143, 54.685378999000079 ], [ 25.187128500000028, 54.688934499000027 ], [ 25.186214500000062, 54.690845499000034 ], [ 25.184956, 54.692076499000052 ], [ 25.183173500000066, 54.693389999000033 ], [ 25.182244500000024, 54.694722499000079 ], [ 25.182037500000035, 54.698626999000055 ], [ 25.18179850000007, 54.699388999000064 ], [ 25.181134500000041, 54.700498999000047 ], [ 25.180078500000036, 54.701224499000034 ], [ 25.177994, 54.700790999000048 ], [ 25.176321, 54.700201499000059 ], [ 25.176168500000074, 54.699509499000044 ], [ 25.174469500000043, 54.699237999000047 ], [ 25.173305, 54.69855349900007 ], [ 25.170993, 54.698283999000068 ], [ 25.169876500000044, 54.69832449900008 ], [ 25.169153, 54.697158499000068 ], [ 25.16729950000007, 54.697800499000039 ], [ 25.166, 54.698543999000037 ], [ 25.165753, 54.698221499000056 ], [ 25.163823500000035, 54.698402999000052 ], [ 25.163996500000053, 54.699172999000041 ], [ 25.157602, 54.700934999000026 ], [ 25.156561, 54.701115499000082 ], [ 25.153884, 54.700807499000064 ], [ 25.15282, 54.699848499000041 ], [ 25.151522500000056, 54.698098499000082 ], [ 25.149453, 54.696602999000049 ], [ 25.147702500000037, 54.696096999000076 ], [ 25.145430500000032, 54.696879999000032 ], [ 25.145807500000046, 54.698094999000034 ], [ 25.141816500000061, 54.698296999000036 ], [ 25.141570500000057, 54.698075999000082 ], [ 25.137378500000068, 54.697140999000055 ], [ 25.134829, 54.695371999000031 ], [ 25.13378, 54.696610999000029 ], [ 25.132000500000061, 54.696370499000068 ], [ 25.129033500000048, 54.697418999000035 ], [ 25.124976500000059, 54.698386999000036 ], [ 25.124179, 54.699123999000051 ], [ 25.118835, 54.699557999000035 ], [ 25.118281, 54.69883149900005 ], [ 25.110304, 54.700711499000079 ], [ 25.105605, 54.701046499000029 ], [ 25.103376500000024, 54.701511499000048 ], [ 25.101036, 54.702234499000042 ], [ 25.10373450000003, 54.704489999000032 ], [ 25.105854, 54.703838499000028 ], [ 25.113198, 54.708959499000059 ], [ 25.126198500000044, 54.70622699900008 ], [ 25.127543500000058, 54.70780699900007 ], [ 25.133325, 54.706055499000058 ], [ 25.134799500000042, 54.706081499000049 ], [ 25.13477, 54.706895499000041 ], [ 25.135402, 54.707189999000036 ], [ 25.139192, 54.70759749900003 ], [ 25.137538500000062, 54.708668999000054 ], [ 25.138516, 54.710198999000056 ], [ 25.139410500000054, 54.709949499000061 ], [ 25.140256500000078, 54.710873999000057 ], [ 25.141553500000043, 54.710714499000062 ], [ 25.144497, 54.710027499000034 ], [ 25.148946, 54.711376499000039 ], [ 25.149739, 54.71235899900006 ], [ 25.150031, 54.713407999000026 ], [ 25.151407500000062, 54.71458399900007 ], [ 25.152621, 54.714965999000071 ], [ 25.147638, 54.724713999000073 ], [ 25.150879, 54.725230499000077 ], [ 25.152486500000066, 54.725704999000072 ], [ 25.154319, 54.729677999000046 ], [ 25.161462500000027, 54.728250999000068 ], [ 25.16455250000007, 54.727153499000053 ], [ 25.165716, 54.725734499000055 ], [ 25.167880500000024, 54.725123999000061 ], [ 25.170041500000025, 54.726968999000064 ], [ 25.177935, 54.723662499000056 ], [ 25.177898, 54.72331549900008 ], [ 25.180865500000039, 54.722116499000037 ], [ 25.186445, 54.72137249900004 ], [ 25.187333500000022, 54.721575499000039 ], [ 25.187997500000051, 54.719474999000056 ], [ 25.186596, 54.718253999000069 ], [ 25.187596500000041, 54.716320499000062 ], [ 25.188431500000036, 54.715373999000064 ], [ 25.19024950000005, 54.715491999000051 ], [ 25.1911, 54.716310499000031 ], [ 25.196199, 54.715551499000071 ], [ 25.198299500000076, 54.713648499000044 ], [ 25.198593, 54.71376649900003 ], [ 25.199196500000028, 54.713083999000048 ], [ 25.199603, 54.714098999000043 ], [ 25.199193500000035, 54.714805999000077 ], [ 25.199449, 54.715226499000039 ], [ 25.200646, 54.716699499000072 ], [ 25.201, 54.716695999000081 ], [ 25.201778500000046, 54.717016999000066 ], [ 25.202556500000071, 54.717732999000077 ], [ 25.202163, 54.718670499000041 ], [ 25.201176500000031, 54.719760999000073 ], [ 25.201599, 54.720713999000054 ], [ 25.201182, 54.721816999000055 ], [ 25.20189350000004, 54.724484999000026 ], [ 25.201765, 54.724833499000056 ], [ 25.200999, 54.725282499000059 ], [ 25.200827, 54.726023499000064 ], [ 25.201543, 54.726297499000054 ], [ 25.202256500000033, 54.727417499000069 ], [ 25.203223500000036, 54.727280499000074 ], [ 25.205689, 54.728195499000037 ], [ 25.205504, 54.739971499000035 ], [ 25.205111, 54.744623999000055 ], [ 25.204978500000038, 54.745300999000051 ], [ 25.201302500000054, 54.744268499000043 ], [ 25.199174500000026, 54.74475699900006 ], [ 25.195633500000042, 54.742895999000041 ], [ 25.193319, 54.741472499000054 ], [ 25.194679, 54.73909149900004 ], [ 25.194252500000061, 54.738256499000045 ], [ 25.195267500000057, 54.737424999000041 ], [ 25.195046500000046, 54.735900499000081 ], [ 25.192288, 54.735560999000029 ], [ 25.19034350000004, 54.735852499000032 ], [ 25.18189, 54.739645999000061 ], [ 25.179726, 54.741928499000039 ], [ 25.176516, 54.743739499000071 ], [ 25.181004500000029, 54.744511999000053 ], [ 25.180246, 54.745242499000028 ], [ 25.177520500000071, 54.744776499000068 ], [ 25.176373, 54.746343499000034 ], [ 25.174525500000072, 54.746990999000047 ], [ 25.173719, 54.747591999000065 ], [ 25.173744, 54.751831499000048 ], [ 25.174934500000063, 54.752553499000044 ], [ 25.174683500000071, 54.753390499000034 ], [ 25.180737500000077, 54.752359999000078 ], [ 25.182538, 54.748932999000033 ], [ 25.188803500000063, 54.750953499000047 ], [ 25.186833, 54.753205499000046 ], [ 25.191455500000075, 54.75470049900008 ], [ 25.194065500000079, 54.757396999000036 ], [ 25.197474500000055, 54.75411499900008 ], [ 25.200022, 54.756067999000038 ], [ 25.200060500000063, 54.75658499900004 ], [ 25.202991, 54.759511499000041 ], [ 25.209481500000038, 54.754197999000041 ], [ 25.214078500000028, 54.750169999000036 ], [ 25.214344, 54.750263499000027 ], [ 25.214756, 54.750408499000059 ], [ 25.217859500000031, 54.754301499000064 ], [ 25.218287500000031, 54.756183499000031 ], [ 25.229515500000048, 54.754082999000047 ], [ 25.229827, 54.757688499000039 ], [ 25.234405500000037, 54.757114999000066 ], [ 25.234064, 54.755413999000041 ], [ 25.236114500000042, 54.755129499000077 ], [ 25.236995500000035, 54.756398999000055 ], [ 25.237121, 54.756880999000032 ], [ 25.236622500000067, 54.757066999000074 ], [ 25.237053, 54.75801799900006 ], [ 25.239069500000028, 54.75793199900005 ], [ 25.239316, 54.757391999000049 ], [ 25.240417, 54.757292999000072 ], [ 25.240769, 54.757392499000048 ], [ 25.240894500000024, 54.757943999000076 ], [ 25.24185250000005, 54.757997999000054 ], [ 25.243178, 54.760094499000047 ], [ 25.24351450000006, 54.760140499000045 ], [ 25.243711500000074, 54.760678999000049 ], [ 25.243778, 54.761468499000046 ], [ 25.243354, 54.762450999000066 ], [ 25.243994, 54.762759499000026 ], [ 25.244677500000023, 54.763542999000038 ], [ 25.245963, 54.76363599900003 ], [ 25.249286, 54.765556999000069 ], [ 25.247906, 54.766729999000063 ], [ 25.262401500000067, 54.771079999000051 ], [ 25.268155, 54.77271199900008 ], [ 25.267184500000042, 54.774270499000068 ], [ 25.266335500000025, 54.774892499000032 ], [ 25.264944, 54.775515999000049 ], [ 25.264722, 54.776171999000042 ], [ 25.265039500000057, 54.776961499000038 ], [ 25.268115500000079, 54.777150999000071 ], [ 25.268572, 54.776357499000028 ], [ 25.270324500000072, 54.776518499000076 ], [ 25.270706500000074, 54.776382999000077 ], [ 25.270793, 54.775823499000069 ], [ 25.271128, 54.775505999000075 ], [ 25.272557, 54.775516999000047 ], [ 25.272134, 54.774419499000032 ], [ 25.272783, 54.77430399900004 ], [ 25.275962500000048, 54.773949999000081 ], [ 25.276600500000029, 54.775026999000033 ], [ 25.284763, 54.774357499000075 ], [ 25.284542500000043, 54.778514499000039 ], [ 25.27415, 54.778265499000042 ], [ 25.275269, 54.782344999000031 ], [ 25.275667, 54.794178499000054 ], [ 25.280793, 54.794512499000064 ], [ 25.281861, 54.796306499000082 ], [ 25.282482, 54.796541999000056 ], [ 25.288384, 54.795432499000071 ], [ 25.290853500000026, 54.798052999000049 ], [ 25.288568500000054, 54.798327499000038 ], [ 25.290373, 54.79948949900006 ], [ 25.289603500000055, 54.800272999000072 ], [ 25.287857, 54.799978999000075 ], [ 25.287371500000063, 54.802150499000049 ], [ 25.289492500000051, 54.801631499000052 ], [ 25.290345, 54.804535999000052 ], [ 25.290902, 54.805206999000063 ], [ 25.289652500000045, 54.805939499000033 ], [ 25.289345, 54.806877999000051 ], [ 25.289946, 54.80761349900007 ], [ 25.289115, 54.808432499000048 ], [ 25.290292, 54.809580499000049 ], [ 25.291415500000028, 54.809292999000036 ], [ 25.293997500000046, 54.809554499000058 ], [ 25.29411, 54.811703499000032 ], [ 25.291725, 54.811599499000067 ], [ 25.291563, 54.81243949900005 ], [ 25.290056500000048, 54.813176499000065 ], [ 25.287334, 54.812080499000047 ], [ 25.285162, 54.813552499000082 ], [ 25.285329, 54.815173499000082 ], [ 25.286289500000066, 54.816458499000078 ], [ 25.285887, 54.817145499000048 ], [ 25.286732, 54.819801999000049 ], [ 25.287615500000072, 54.820726499000045 ], [ 25.285366, 54.821182499000031 ], [ 25.286164500000041, 54.821843499000067 ], [ 25.283982500000036, 54.822441999000034 ], [ 25.284538500000053, 54.823220999000057 ], [ 25.28617550000007, 54.823338499000045 ], [ 25.28942150000006, 54.82267149900008 ], [ 25.29372550000005, 54.827170999000032 ], [ 25.296129, 54.827067999000064 ], [ 25.296292, 54.827464999000028 ], [ 25.297639500000059, 54.827375999000083 ], [ 25.298881, 54.826934999000059 ], [ 25.30013, 54.825672999000062 ], [ 25.301555, 54.825605999000061 ], [ 25.302794500000061, 54.826834499000029 ], [ 25.305352, 54.826747499000078 ], [ 25.306535, 54.829414499000052 ], [ 25.314448, 54.832322499000043 ], [ 25.316851500000041, 54.830229999000039 ], [ 25.317663, 54.82895049900003 ], [ 25.320516500000053, 54.827285499000027 ], [ 25.319989, 54.825748499000042 ], [ 25.321303500000056, 54.826380999000037 ], [ 25.324780500000031, 54.825812499000051 ], [ 25.324077, 54.826662499000065 ], [ 25.325365, 54.826868499000057 ], [ 25.326237500000047, 54.826165499000069 ], [ 25.32538, 54.825782999000069 ], [ 25.327056, 54.825175499000068 ], [ 25.330044500000042, 54.824635499000067 ], [ 25.329791500000056, 54.824393499000053 ], [ 25.331645, 54.82361449900003 ], [ 25.333739, 54.823757999000065 ], [ 25.334381, 54.823637499000029 ], [ 25.33541450000007, 54.821315499000036 ], [ 25.332514500000059, 54.820551999000031 ], [ 25.330241, 54.820179499000062 ], [ 25.3284, 54.819626999000036 ], [ 25.321485, 54.818187999000031 ], [ 25.321579, 54.81712649900004 ], [ 25.324339500000065, 54.817247499000075 ], [ 25.32485, 54.815744499000061 ], [ 25.326201500000025, 54.815624999000079 ], [ 25.326786500000026, 54.815856499000063 ], [ 25.328807, 54.814274499000078 ], [ 25.327530500000023, 54.813545999000041 ], [ 25.327846, 54.811346999000079 ], [ 25.32919, 54.810455999000055 ], [ 25.331488, 54.809520999000028 ], [ 25.332218, 54.809374999000056 ], [ 25.335902, 54.810045499000069 ], [ 25.336978500000043, 54.810727999000051 ], [ 25.339787500000057, 54.810249499000065 ], [ 25.343481, 54.809891499000059 ], [ 25.350157500000023, 54.808408999000051 ], [ 25.350592, 54.808563499000059 ], [ 25.351313, 54.811102499000071 ], [ 25.349786, 54.813164999000037 ], [ 25.34939, 54.81408299900005 ], [ 25.350887, 54.814422499000045 ], [ 25.352517, 54.811819999000079 ], [ 25.353950500000053, 54.81050699900004 ], [ 25.354297, 54.809931499000072 ], [ 25.354562500000043, 54.808562499000061 ], [ 25.355161, 54.808595499000035 ], [ 25.35553, 54.808320499000047 ], [ 25.356052500000033, 54.807538499000032 ], [ 25.356320500000038, 54.80620699900004 ], [ 25.359428500000035, 54.806287999000062 ], [ 25.359640500000069, 54.806293499000049 ], [ 25.36052, 54.807451499000081 ], [ 25.361204500000042, 54.811374999000066 ], [ 25.359722, 54.814482999000063 ], [ 25.356917, 54.818301999000028 ], [ 25.356523, 54.81931699900008 ], [ 25.357075500000064, 54.820712499000081 ], [ 25.35812, 54.821689499000058 ], [ 25.366100500000073, 54.825951499000041 ], [ 25.366181500000039, 54.825997499000039 ], [ 25.366719500000045, 54.825802999000075 ], [ 25.367892500000039, 54.825379499000064 ], [ 25.365556500000025, 54.82370449900003 ], [ 25.362538500000028, 54.822557999000082 ], [ 25.360547, 54.821450499000036 ], [ 25.360239500000034, 54.821450999000035 ], [ 25.359047, 54.820004999000048 ], [ 25.360696, 54.816379999000048 ], [ 25.363132500000063, 54.815944999000067 ], [ 25.377421500000025, 54.815831999000068 ], [ 25.377159, 54.805779999000038 ], [ 25.409553500000072, 54.805394499000045 ], [ 25.40806, 54.803918999000075 ], [ 25.416043500000058, 54.803676999000061 ], [ 25.415700500000071, 54.799235999000075 ], [ 25.455028, 54.801725499000042 ], [ 25.455879500000037, 54.79781549900008 ], [ 25.455167500000073, 54.795399499000041 ], [ 25.454404, 54.778220499000042 ], [ 25.454626, 54.778237999000055 ], [ 25.454525, 54.775918499000056 ], [ 25.452511500000071, 54.750408499000059 ], [ 25.451458500000058, 54.740873499000031 ], [ 25.448122, 54.740741999000079 ], [ 25.444225500000073, 54.742533499000047 ], [ 25.443981500000064, 54.743349499000033 ], [ 25.442074500000047, 54.743557499000076 ], [ 25.440523, 54.744086499000048 ], [ 25.437792500000057, 54.741977999000028 ], [ 25.438272, 54.740258999000048 ], [ 25.427052, 54.738958499000034 ], [ 25.427759, 54.737423999000043 ], [ 25.427802, 54.736089499000059 ], [ 25.42493950000005, 54.735398499000041 ], [ 25.425640500000043, 54.729868999000075 ], [ 25.423978, 54.729304999000078 ], [ 25.418340500000056, 54.728754499000047 ], [ 25.418318500000055, 54.728089999000076 ], [ 25.411974500000042, 54.728209499000059 ], [ 25.412449, 54.726230999000052 ], [ 25.412056, 54.724407499000051 ], [ 25.40813, 54.723348999000052 ], [ 25.408344, 54.717939999000066 ], [ 25.412026, 54.718374499000049 ], [ 25.412408500000026, 54.717411999000035 ], [ 25.412436, 54.71315099900005 ], [ 25.413562500000069, 54.712115499000049 ] ] ] } }
]
}
