{
"type": "FeatureCollection",
"name": "warszawa",
"crs": { "type": "name", "properties": { "name": "urn:ogc:def:crs:OGC:1.3:CRS84" } },
"features": [
{ "type": "Feature", "properties": { }, "geometry": { "type": "Polygon", "coordinates": [ [ [ 20.971272500000055, 52.358977999000047 ], [ 20.978136, 52.358977499000048 ], [ 20.991937, 52.362772499000073 ], [ 20.994673, 52.361826999000073 ], [ 20.996356500000047, 52.362091999000029 ], [ 20.998579500000062, 52.362660499000071 ], [ 20.999427500000024, 52.363158999000063 ], [ 20.999982500000044, 52.363282999000035 ], [ 21.004378, 52.36385049900008 ], [ 21.005665500000077, 52.364096999000026 ], [ 21.007965500000068, 52.360662499000057 ], [ 21.008196, 52.360186499000065 ], [ 21.008069500000033, 52.358247999000071 ], [ 21.008780500000057, 52.357032999000069 ], [ 21.009486, 52.356793499000048 ], [ 21.013326500000062, 52.356868999000028 ], [ 21.013489, 52.356500499000049 ], [ 21.013414500000067, 52.356075999000041 ], [ 21.020688, 52.356952999000043 ], [ 21.021016, 52.35648799900008 ], [ 21.023349500000052, 52.357403499000043 ], [ 21.02359, 52.358405499000071 ], [ 21.023964, 52.358998499000052 ], [ 21.024178, 52.359867499000075 ], [ 21.02485450000006, 52.360881999000071 ], [ 21.025216500000056, 52.361855499000058 ], [ 21.025254500000074, 52.363243999000076 ], [ 21.025501, 52.363581499000077 ], [ 21.027575, 52.365128999000035 ], [ 21.030674, 52.361603999000067 ], [ 21.040843500000051, 52.362822999000059 ], [ 21.044568, 52.364000999000041 ], [ 21.048628500000063, 52.363625999000078 ], [ 21.049217500000054, 52.361698499000056 ], [ 21.053969500000051, 52.363063999000076 ], [ 21.060649, 52.362549999000066 ], [ 21.061263, 52.365824499000041 ], [ 21.063705, 52.365585499000076 ], [ 21.066035500000055, 52.366179499000054 ], [ 21.065979500000026, 52.366009999000028 ], [ 21.073809, 52.367287999000041 ], [ 21.077107, 52.359438499000078 ], [ 21.076234500000055, 52.359301499000026 ], [ 21.078659500000072, 52.353662999000051 ], [ 21.0817, 52.354139499000041 ], [ 21.085897500000044, 52.343512999000041 ], [ 21.080879, 52.343124499000055 ], [ 21.082453, 52.337349999000082 ], [ 21.085202500000037, 52.337402499000063 ], [ 21.085728, 52.334598999000036 ], [ 21.086042500000076, 52.333923499000036 ], [ 21.086675500000069, 52.332738499000072 ], [ 21.087521, 52.332864499000038 ], [ 21.087764500000048, 52.332295499000054 ], [ 21.086046, 52.33197399900007 ], [ 21.087739, 52.328219499000056 ], [ 21.089517500000056, 52.323763499000052 ], [ 21.077782500000069, 52.321964999000045 ], [ 21.082118500000036, 52.31143399900003 ], [ 21.08202650000004, 52.311333499000057 ], [ 21.082843, 52.30904349900004 ], [ 21.085514, 52.303247499000065 ], [ 21.083569, 52.302853999000035 ], [ 21.087574, 52.295514499000035 ], [ 21.087804500000061, 52.29554949900006 ], [ 21.09520150000003, 52.28816099900007 ], [ 21.094917, 52.288096999000061 ], [ 21.095838, 52.286259499000039 ], [ 21.098091500000066, 52.286141499000053 ], [ 21.098925, 52.286484499000039 ], [ 21.100264500000037, 52.284720999000058 ], [ 21.105009500000051, 52.273993999000027 ], [ 21.141469, 52.27845699900007 ], [ 21.149060500000076, 52.279348999000035 ], [ 21.150663500000064, 52.280535999000051 ], [ 21.151568500000053, 52.281448499000078 ], [ 21.154264, 52.282767999000043 ], [ 21.155624500000044, 52.283695499000032 ], [ 21.159718500000054, 52.28476899900005 ], [ 21.161342, 52.285576499000058 ], [ 21.162063500000045, 52.286415499000043 ], [ 21.163197500000024, 52.288406999000074 ], [ 21.16433, 52.289715999000066 ], [ 21.16516050000007, 52.290228999000078 ], [ 21.166516, 52.290629999000032 ], [ 21.169226, 52.291105499000082 ], [ 21.172405500000025, 52.288808999000082 ], [ 21.17222, 52.28678099900003 ], [ 21.172445500000038, 52.28676099900008 ], [ 21.171188500000028, 52.277316499000051 ], [ 21.170669500000031, 52.276958999000044 ], [ 21.176451, 52.272114999000053 ], [ 21.177452, 52.27144849900003 ], [ 21.183554, 52.268127499000059 ], [ 21.184286, 52.267476499000054 ], [ 21.184986, 52.266248499000028 ], [ 21.185063, 52.264924999000073 ], [ 21.184587500000077, 52.261343499000077 ], [ 21.184146, 52.259598999000048 ], [ 21.183214500000076, 52.258427999000048 ], [ 21.182296500000064, 52.257765999000071 ], [ 21.18118, 52.257227999000065 ], [ 21.17932, 52.256698499000038 ], [ 21.190486, 52.25617599900005 ], [ 21.250465500000075, 52.262689499000032 ], [ 21.25243, 52.253270499000052 ], [ 21.25464450000004, 52.253168999000081 ], [ 21.253717, 52.245761999000081 ], [ 21.23794950000007, 52.245027499000059 ], [ 21.239467, 52.236255999000036 ], [ 21.244621, 52.236029999000039 ], [ 21.248784, 52.236599999000077 ], [ 21.252262, 52.238172499000029 ], [ 21.254769500000066, 52.238732999000035 ], [ 21.254381500000022, 52.235273499000073 ], [ 21.250428500000055, 52.231927499000051 ], [ 21.24945850000006, 52.222558999000057 ], [ 21.250491500000066, 52.222560499000053 ], [ 21.250322, 52.222484499000075 ], [ 21.250658500000043, 52.222057999000072 ], [ 21.261726, 52.210074499000029 ], [ 21.261212, 52.209857499000066 ], [ 21.259824, 52.209898999000075 ], [ 21.254143, 52.20943599900005 ], [ 21.249089, 52.206959999000048 ], [ 21.248236, 52.205978999000081 ], [ 21.248591, 52.204233499000054 ], [ 21.25095, 52.20249349900007 ], [ 21.245740500000068, 52.200867999000081 ], [ 21.245076500000039, 52.200267499000063 ], [ 21.243006, 52.199329499000044 ], [ 21.242985500000032, 52.198374499000067 ], [ 21.240229, 52.195879499000057 ], [ 21.265383500000041, 52.186000499000045 ], [ 21.263386, 52.183987499000068 ], [ 21.259765500000071, 52.182554999000047 ], [ 21.269865500000037, 52.174074499000028 ], [ 21.270045, 52.173947499000064 ], [ 21.271028, 52.174011999000072 ], [ 21.27115150000003, 52.172149999000055 ], [ 21.269957, 52.172040999000046 ], [ 21.269563500000061, 52.173357999000075 ], [ 21.267335500000058, 52.173316499000066 ], [ 21.267526500000031, 52.170124499000053 ], [ 21.270334, 52.169561499000054 ], [ 21.270798500000069, 52.168512999000029 ], [ 21.26763, 52.16842249900003 ], [ 21.267694, 52.167443499000058 ], [ 21.263246500000037, 52.16737499900006 ], [ 21.263189, 52.167103999000062 ], [ 21.262007, 52.166553499000031 ], [ 21.261440500000049, 52.16569049900005 ], [ 21.260369, 52.162022999000044 ], [ 21.259303500000044, 52.16130799900003 ], [ 21.256604, 52.160714999000049 ], [ 21.255561, 52.15866599900005 ], [ 21.25403, 52.15737849900006 ], [ 21.262583, 52.153099999000062 ], [ 21.262341500000048, 52.152666499000077 ], [ 21.255739, 52.147177499000065 ], [ 21.255401, 52.147356499000068 ], [ 21.24714, 52.151641999000049 ], [ 21.248752, 52.153035499000055 ], [ 21.234723, 52.158908999000062 ], [ 21.223989500000073, 52.15542399900005 ], [ 21.219648500000062, 52.153869999000051 ], [ 21.218969, 52.153309499000045 ], [ 21.215067500000032, 52.15183199900008 ], [ 21.214737, 52.152171999000075 ], [ 21.201167, 52.150649499000053 ], [ 21.188627500000052, 52.149477999000055 ], [ 21.1884, 52.150510999000062 ], [ 21.175854500000071, 52.148457999000073 ], [ 21.17592650000006, 52.146735499000044 ], [ 21.171426500000052, 52.14544199900007 ], [ 21.164953, 52.144728499000053 ], [ 21.154690500000072, 52.143596499000068 ], [ 21.15314, 52.142506499000035 ], [ 21.153773500000057, 52.140903499000046 ], [ 21.154072, 52.140490999000065 ], [ 21.153849, 52.140130499000065 ], [ 21.151641500000039, 52.139756999000042 ], [ 21.150487500000054, 52.139857999000071 ], [ 21.15009150000003, 52.139743999000075 ], [ 21.147945, 52.13851549900005 ], [ 21.145037, 52.13545349900005 ], [ 21.141225, 52.133199999000055 ], [ 21.140123, 52.132947499000068 ], [ 21.140549, 52.132401499000082 ], [ 21.140512, 52.131970999000032 ], [ 21.140134500000045, 52.131575999000063 ], [ 21.139155500000072, 52.131532499000059 ], [ 21.138719500000036, 52.131320999000081 ], [ 21.138661500000069, 52.131182499000033 ], [ 21.138903, 52.131083999000055 ], [ 21.136019, 52.127866999000048 ], [ 21.13528, 52.12617349900006 ], [ 21.134706, 52.123424999000065 ], [ 21.133223, 52.123006499000041 ], [ 21.132458, 52.123258999000029 ], [ 21.132339, 52.12368899900008 ], [ 21.131569500000069, 52.124886999000068 ], [ 21.130756500000075, 52.125434999000049 ], [ 21.130027, 52.126854499000046 ], [ 21.129558, 52.12717899900008 ], [ 21.127227, 52.126003999000034 ], [ 21.126635500000077, 52.124936999000056 ], [ 21.126474500000029, 52.124160999000026 ], [ 21.126044500000035, 52.124182499000028 ], [ 21.125032, 52.12231299900003 ], [ 21.123712500000067, 52.121009499000081 ], [ 21.121875, 52.11970149900003 ], [ 21.119796, 52.118977999000037 ], [ 21.118015, 52.118535499000075 ], [ 21.11623650000007, 52.118860999000049 ], [ 21.111715, 52.116025999000044 ], [ 21.108751500000039, 52.11459349900008 ], [ 21.110097500000052, 52.113168499000039 ], [ 21.100098, 52.108351999000035 ], [ 21.101829, 52.107815499000026 ], [ 21.101583500000061, 52.107684999000071 ], [ 21.102167500000064, 52.107275499000082 ], [ 21.103537, 52.105755999000053 ], [ 21.101557500000069, 52.105684499000063 ], [ 21.10012, 52.105177999000034 ], [ 21.095965, 52.104549499000029 ], [ 21.094182, 52.104479999000034 ], [ 21.091892500000029, 52.104643499000076 ], [ 21.089331, 52.10394399900008 ], [ 21.087485, 52.103299499000059 ], [ 21.086633, 52.102821999000071 ], [ 21.085045500000035, 52.10152049900006 ], [ 21.083612, 52.099592999000038 ], [ 21.082646, 52.09867949900007 ], [ 21.079975500000046, 52.097849499000063 ], [ 21.078310500000043, 52.098289499000032 ], [ 21.076797, 52.099216999000078 ], [ 21.074212, 52.100358499000038 ], [ 21.069175500000028, 52.10227149900004 ], [ 21.065718, 52.103903499000069 ], [ 21.064020500000026, 52.104514499000061 ], [ 21.062328, 52.105421499000045 ], [ 21.058041500000058, 52.107203499000036 ], [ 21.056525500000077, 52.107725499000026 ], [ 21.056200500000045, 52.107642999000063 ], [ 21.052511, 52.108406499000068 ], [ 21.050455, 52.109152499000061 ], [ 21.048659, 52.110260499000049 ], [ 21.048339, 52.110702999000068 ], [ 21.046103, 52.111984999000072 ], [ 21.044623500000057, 52.112674999000035 ], [ 21.043617500000039, 52.112902999000028 ], [ 21.042136500000026, 52.111991499000055 ], [ 21.041844500000025, 52.111429999000052 ], [ 21.042015500000048, 52.111319499000047 ], [ 21.038431, 52.108993999000063 ], [ 21.037961, 52.108547499000053 ], [ 21.038076500000045, 52.10836099900007 ], [ 21.037089, 52.108123499000044 ], [ 21.0352, 52.10676249900007 ], [ 21.03580450000004, 52.106436999000039 ], [ 21.035504500000059, 52.106190499000036 ], [ 21.018642, 52.106048499000053 ], [ 21.018702, 52.103708999000048 ], [ 20.991924500000039, 52.10345649900006 ], [ 20.991857, 52.103164499000059 ], [ 20.991599, 52.103113999000072 ], [ 20.986859, 52.103902499000071 ], [ 20.987361, 52.105138499000077 ], [ 20.984479500000077, 52.105619999000055 ], [ 20.98669650000005, 52.11056049900003 ], [ 20.984582500000045, 52.11096849900008 ], [ 20.983722, 52.111693999000067 ], [ 20.984501500000079, 52.112716999000043 ], [ 20.987297, 52.115731999000047 ], [ 20.986380500000053, 52.117627499000037 ], [ 20.985074, 52.120441999000036 ], [ 20.989043500000037, 52.123645999000075 ], [ 20.98295950000005, 52.123784499000067 ], [ 20.980182500000069, 52.127337999000076 ], [ 20.979898, 52.128014499000074 ], [ 20.980106500000034, 52.132667999000034 ], [ 20.985034, 52.139077999000051 ], [ 20.983822500000031, 52.139965999000026 ], [ 20.983446500000071, 52.140481499000032 ], [ 20.978647500000022, 52.143137499000034 ], [ 20.977134500000034, 52.143782499000054 ], [ 20.975595500000054, 52.144304999000042 ], [ 20.969596, 52.145524999000031 ], [ 20.961431, 52.148562999000035 ], [ 20.959259, 52.149587499000063 ], [ 20.958298500000069, 52.150127999000063 ], [ 20.956989500000077, 52.151202499000078 ], [ 20.954735, 52.152685999000028 ], [ 20.953767500000026, 52.152989499000057 ], [ 20.953763500000036, 52.156138499000065 ], [ 20.947024500000055, 52.157179499000051 ], [ 20.944993500000066, 52.158095499000069 ], [ 20.942887, 52.158561999000028 ], [ 20.93740850000006, 52.160216999000056 ], [ 20.930147500000032, 52.163214999000047 ], [ 20.929798500000061, 52.163387499000066 ], [ 20.930491500000073, 52.16404699900005 ], [ 20.923942500000067, 52.166278999000042 ], [ 20.925425500000074, 52.167368999000075 ], [ 20.924709, 52.167698499000039 ], [ 20.92461650000007, 52.16799099900004 ], [ 20.924821500000064, 52.168435999000053 ], [ 20.923178500000063, 52.168866999000045 ], [ 20.923382500000059, 52.168987499000082 ], [ 20.923428500000057, 52.169260499000075 ], [ 20.922250500000075, 52.169778999000073 ], [ 20.921593, 52.17054149900008 ], [ 20.920914500000038, 52.170964499000036 ], [ 20.91915750000004, 52.171082999000078 ], [ 20.919156500000042, 52.176469999000062 ], [ 20.918994, 52.176869499000077 ], [ 20.918397, 52.177054999000063 ], [ 20.918737500000077, 52.17744299900005 ], [ 20.916764, 52.177806499000042 ], [ 20.917035500000054, 52.178450999000063 ], [ 20.911221500000067, 52.179557999000053 ], [ 20.914766, 52.18584099900005 ], [ 20.909208500000034, 52.185858499000062 ], [ 20.909042, 52.18454299900003 ], [ 20.903971, 52.184114499000032 ], [ 20.903905500000064, 52.183964999000068 ], [ 20.902661500000022, 52.184018999000045 ], [ 20.901501500000052, 52.184426999000038 ], [ 20.899272500000052, 52.184129499000051 ], [ 20.897726500000033, 52.182541499000081 ], [ 20.879410500000063, 52.182553999000049 ], [ 20.874202500000024, 52.182335499000033 ], [ 20.869331, 52.182564999000078 ], [ 20.867167, 52.182496499000081 ], [ 20.867137, 52.190776499000037 ], [ 20.865326, 52.190172499000028 ], [ 20.86471, 52.18996899900003 ], [ 20.861722, 52.189219499000046 ], [ 20.861634, 52.189306999000053 ], [ 20.856089, 52.187639499000056 ], [ 20.856013500000074, 52.187824999000043 ], [ 20.856599, 52.188647999000068 ], [ 20.856912500000078, 52.189524499000072 ], [ 20.856946, 52.19042599900007 ], [ 20.856467, 52.19169849900004 ], [ 20.856189, 52.192104999000037 ], [ 20.854355, 52.194562499000028 ], [ 20.853064, 52.197193499000036 ], [ 20.853046500000062, 52.197254999000052 ], [ 20.852017, 52.199435999000059 ], [ 20.851916, 52.199716999000032 ], [ 20.851881, 52.199830499000029 ], [ 20.851688500000023, 52.200976499000035 ], [ 20.852102, 52.202864499000043 ], [ 20.852764, 52.203924499000038 ], [ 20.853221500000075, 52.204454499000065 ], [ 20.855055, 52.20585199900006 ], [ 20.856786500000055, 52.206679499000074 ], [ 20.858726500000046, 52.207263999000077 ], [ 20.861062, 52.207717999000067 ], [ 20.870898500000067, 52.208853499000043 ], [ 20.870201500000064, 52.209855499000071 ], [ 20.870158500000059, 52.21038949900003 ], [ 20.871013500000061, 52.210380499000053 ], [ 20.871427, 52.213164499000072 ], [ 20.871935, 52.215261999000063 ], [ 20.87275, 52.215230499000029 ], [ 20.873087500000054, 52.216661499000054 ], [ 20.874621, 52.216659499000059 ], [ 20.875278, 52.224800999000081 ], [ 20.873657500000036, 52.225016499000048 ], [ 20.872537500000078, 52.225667999000052 ], [ 20.872725500000058, 52.225803499000051 ], [ 20.87269, 52.22853199900004 ], [ 20.872902, 52.228938999000036 ], [ 20.878052500000024, 52.230892999000048 ], [ 20.879533, 52.231911499000034 ], [ 20.887256500000035, 52.232097499000076 ], [ 20.889599, 52.231949499000052 ], [ 20.893143, 52.239711999000065 ], [ 20.894017, 52.243699999000057 ], [ 20.891459500000053, 52.24498999900004 ], [ 20.890983, 52.246965499000055 ], [ 20.886538, 52.247264999000038 ], [ 20.88502, 52.247201999000026 ], [ 20.885161, 52.248138499000049 ], [ 20.88489050000004, 52.248176999000066 ], [ 20.884023, 52.247312499000031 ], [ 20.881712, 52.247914999000045 ], [ 20.876548, 52.248550499000032 ], [ 20.872207500000059, 52.249403999000037 ], [ 20.868057500000077, 52.249399499000049 ], [ 20.863806, 52.250016499000026 ], [ 20.875124500000027, 52.261475999000027 ], [ 20.874898, 52.261705999000071 ], [ 20.875714, 52.262132999000073 ], [ 20.878719, 52.265148999000075 ], [ 20.881171, 52.279606499000067 ], [ 20.875756, 52.280487999000059 ], [ 20.876363500000025, 52.286643499000036 ], [ 20.876320500000077, 52.287225499000044 ], [ 20.876436500000068, 52.287388499000031 ], [ 20.877143, 52.294552499000076 ], [ 20.876559500000042, 52.29654399900005 ], [ 20.876662, 52.297505999000066 ], [ 20.876568500000076, 52.297935499000062 ], [ 20.875795, 52.298657999000056 ], [ 20.879634500000066, 52.308254499000043 ], [ 20.880468500000063, 52.309168499000066 ], [ 20.879603, 52.310260999000036 ], [ 20.879251, 52.311060999000063 ], [ 20.878329, 52.312054999000054 ], [ 20.87543850000003, 52.314100999000061 ], [ 20.875683, 52.314851499000042 ], [ 20.879412500000058, 52.313795499000037 ], [ 20.886908500000061, 52.313199499000063 ], [ 20.888648, 52.313301999000032 ], [ 20.889786500000071, 52.313637999000036 ], [ 20.88967, 52.314049999000076 ], [ 20.891466, 52.317601499000034 ], [ 20.895226, 52.321434499000077 ], [ 20.896028, 52.321680499000081 ], [ 20.899549, 52.322195499000031 ], [ 20.902960500000063, 52.32246599900003 ], [ 20.906624, 52.323357999000052 ], [ 20.907083, 52.32212049900005 ], [ 20.907766500000037, 52.32222899900006 ], [ 20.908955500000047, 52.32265299900007 ], [ 20.910232500000063, 52.323966999000049 ], [ 20.910548, 52.324099999000055 ], [ 20.913071500000058, 52.321839999000076 ], [ 20.922057500000051, 52.323734499000068 ], [ 20.92257950000004, 52.326742499000034 ], [ 20.925122, 52.329430499000068 ], [ 20.925822500000038, 52.336672999000029 ], [ 20.925785, 52.338137999000026 ], [ 20.925542, 52.339595999000039 ], [ 20.924595, 52.342166999000028 ], [ 20.923716500000069, 52.343660999000065 ], [ 20.923188, 52.344218999000077 ], [ 20.921120500000029, 52.34608649900008 ], [ 20.918329, 52.348060499000042 ], [ 20.913789500000064, 52.351716499000077 ], [ 20.912429, 52.352975499000081 ], [ 20.915136, 52.354019999000059 ], [ 20.922968500000025, 52.357040999000048 ], [ 20.924077500000067, 52.359578999000064 ], [ 20.926332500000058, 52.359627999000054 ], [ 20.927495, 52.35946799900006 ], [ 20.929273500000022, 52.358940499000028 ], [ 20.93092450000006, 52.357938499000056 ], [ 20.933970500000044, 52.359767999000042 ], [ 20.935905500000047, 52.358914999000035 ], [ 20.938495, 52.358116499000062 ], [ 20.939196, 52.358355999000082 ], [ 20.935083500000076, 52.363243499000077 ], [ 20.935477500000047, 52.363000499000066 ], [ 20.939290500000027, 52.361770499000045 ], [ 20.940980500000023, 52.363746499000058 ], [ 20.94362, 52.366360499000052 ], [ 20.943993, 52.36597449900006 ], [ 20.945167, 52.366219499000067 ], [ 20.944887, 52.366696499000057 ], [ 20.949797500000045, 52.366399499000067 ], [ 20.952524500000038, 52.366433999000037 ], [ 20.95278, 52.366663999000082 ], [ 20.953222500000038, 52.367598999000052 ], [ 20.953544500000078, 52.367761499000039 ], [ 20.954237, 52.367859999000075 ], [ 20.966100500000039, 52.368153999000072 ], [ 20.971272500000055, 52.358977999000047 ] ] ] } }
]
}
