{
"type": "FeatureCollection",
"name": "zagreb",
"crs": { "type": "name", "properties": { "name": "urn:ogc:def:crs:OGC:1.3:CRS84" } },
"features": [
{ "type": "Feature", "properties": { }, "geometry": { "type": "Polygon", "coordinates": [ [ [ 15.802471500000024, 45.736328499000081 ], [ 15.806403500000044, 45.737112499000034 ], [ 15.806128, 45.737857999000028 ], [ 15.807795, 45.73824649900007 ], [ 15.808645500000068, 45.737958999000057 ], [ 15.809315500000025, 45.737622999000052 ], [ 15.809875, 45.737051999000073 ], [ 15.809167, 45.736478999000042 ], [ 15.809654, 45.735896499000035 ], [ 15.809708, 45.735095499000067 ], [ 15.809255500000063, 45.734823999000071 ], [ 15.809102500000051, 45.734557499000061 ], [ 15.808728500000029, 45.73385599900007 ], [ 15.808651500000053, 45.733063499000025 ], [ 15.808638500000029, 45.73291049900007 ], [ 15.809185500000069, 45.731857499000057 ], [ 15.80949, 45.731354999000075 ], [ 15.810373500000026, 45.730811499000026 ], [ 15.811235, 45.73044599900004 ], [ 15.811787, 45.729783499000064 ], [ 15.811987, 45.729310499000064 ], [ 15.812617500000044, 45.728813499000069 ], [ 15.814049, 45.727872499000057 ], [ 15.815466, 45.726977999000042 ], [ 15.815748500000041, 45.72598399900005 ], [ 15.816618500000061, 45.725520999000025 ], [ 15.817686, 45.725169999000059 ], [ 15.819031, 45.72530449900006 ], [ 15.819082, 45.724888999000029 ], [ 15.819300500000054, 45.724745499000051 ], [ 15.820024500000045, 45.724383499000055 ], [ 15.821857, 45.723894999000038 ], [ 15.821908, 45.723477499000069 ], [ 15.822256, 45.723279499000057 ], [ 15.823044500000037, 45.723372999000048 ], [ 15.82375, 45.723516999000026 ], [ 15.82530950000006, 45.723956499000053 ], [ 15.828265, 45.724939999000071 ], [ 15.829493, 45.724720499000057 ], [ 15.830161500000031, 45.725517499000034 ], [ 15.830527, 45.726385999000058 ], [ 15.831267, 45.726684499000044 ], [ 15.831291500000077, 45.72697449900005 ], [ 15.830335, 45.727583999000046 ], [ 15.831014, 45.727768999000034 ], [ 15.831859500000064, 45.72742499900005 ], [ 15.832184500000039, 45.72802099900008 ], [ 15.832570500000031, 45.72822349900008 ], [ 15.833252500000071, 45.728163499000061 ], [ 15.833741500000031, 45.728515999000081 ], [ 15.833953, 45.728677499000071 ], [ 15.834331, 45.728687999000044 ], [ 15.835489, 45.728504999000052 ], [ 15.835766, 45.728049999000064 ], [ 15.835674500000039, 45.727701499000034 ], [ 15.835777, 45.727524499000026 ], [ 15.836746, 45.727469499000051 ], [ 15.837441, 45.727077499000075 ], [ 15.837076500000023, 45.72657749900003 ], [ 15.837096, 45.726279999000042 ], [ 15.837856, 45.725757499000053 ], [ 15.838464, 45.725870999000051 ], [ 15.838635, 45.72572849900007 ], [ 15.838597, 45.725028499000075 ], [ 15.838415500000053, 45.72472699900004 ], [ 15.839633500000048, 45.724270499000056 ], [ 15.840548, 45.724216999000078 ], [ 15.840788, 45.724004999000044 ], [ 15.840851, 45.72383049900003 ], [ 15.841089, 45.722676999000043 ], [ 15.841063, 45.721895999000026 ], [ 15.842281, 45.722277499000029 ], [ 15.842530500000066, 45.72265199900005 ], [ 15.842626500000051, 45.722735499000066 ], [ 15.842844500000069, 45.722754999000074 ], [ 15.843978500000048, 45.722455499000034 ], [ 15.845601500000043, 45.721973499000057 ], [ 15.84576450000003, 45.721831999000074 ], [ 15.845646, 45.721122999000045 ], [ 15.846206500000051, 45.721108499000081 ], [ 15.8467, 45.721335499000077 ], [ 15.847076500000071, 45.721190999000044 ], [ 15.84701, 45.720821499000067 ], [ 15.846503, 45.720300499000075 ], [ 15.846662, 45.720088999000041 ], [ 15.847463, 45.719973999000047 ], [ 15.848322, 45.719827499000075 ], [ 15.848760500000026, 45.719439999000031 ], [ 15.849500500000033, 45.719084499000076 ], [ 15.850240500000041, 45.719371999000032 ], [ 15.850683, 45.718905499000073 ], [ 15.851512, 45.718232999000065 ], [ 15.852367, 45.717627999000058 ], [ 15.852637, 45.717605499000058 ], [ 15.853627, 45.717317499000046 ], [ 15.855137500000069, 45.717704499000035 ], [ 15.855758500000036, 45.718459999000061 ], [ 15.856794500000035, 45.719078499000034 ], [ 15.857097500000066, 45.719817499000044 ], [ 15.857992, 45.720774499000072 ], [ 15.859042, 45.721537499000078 ], [ 15.859704500000078, 45.722521999000037 ], [ 15.860427500000071, 45.72283199900005 ], [ 15.86248850000004, 45.72417899900006 ], [ 15.863784, 45.72448349900003 ], [ 15.865493, 45.726215999000033 ], [ 15.866041500000051, 45.727125499000067 ], [ 15.866951, 45.72804749900007 ], [ 15.868809500000054, 45.728922499000078 ], [ 15.869844500000056, 45.729228499000044 ], [ 15.871454, 45.731206499000052 ], [ 15.870348, 45.731904499000052 ], [ 15.869822, 45.731964499000071 ], [ 15.86934350000007, 45.731324499000038 ], [ 15.868556500000068, 45.732000999000036 ], [ 15.866885, 45.731779999000025 ], [ 15.866527500000075, 45.731903499000055 ], [ 15.865891, 45.732524499000078 ], [ 15.866305500000067, 45.733618999000043 ], [ 15.868864500000029, 45.734732499000074 ], [ 15.87204950000006, 45.73614599900003 ], [ 15.876934, 45.738089999000067 ], [ 15.877348500000039, 45.738426999000069 ], [ 15.877215, 45.738592499000049 ], [ 15.877714500000025, 45.738789499000063 ], [ 15.878584, 45.739772499000026 ], [ 15.88052, 45.744375999000056 ], [ 15.882313500000066, 45.747137999000074 ], [ 15.882732500000031, 45.748036499000079 ], [ 15.883513500000049, 45.74898599900007 ], [ 15.883426, 45.749236999000061 ], [ 15.884952, 45.75087299900008 ], [ 15.885317, 45.750662499000043 ], [ 15.885409, 45.750745499000061 ], [ 15.884343, 45.75179999900007 ], [ 15.879573, 45.755607499000064 ], [ 15.879357, 45.755480499000043 ], [ 15.873145, 45.757685999000046 ], [ 15.871319, 45.756470999000044 ], [ 15.87012, 45.757340499000065 ], [ 15.869111, 45.756665999000063 ], [ 15.868422, 45.756699999000034 ], [ 15.868037, 45.757810499000072 ], [ 15.866696500000046, 45.757187499000054 ], [ 15.866638500000022, 45.757469999000079 ], [ 15.866984, 45.75936499900007 ], [ 15.867813, 45.759517499000026 ], [ 15.867070500000068, 45.761101999000061 ], [ 15.865592, 45.761557999000047 ], [ 15.86628, 45.763242999000056 ], [ 15.865183500000057, 45.763481999000078 ], [ 15.865083, 45.763836499000035 ], [ 15.865709500000037, 45.764912499000047 ], [ 15.86550550000004, 45.76507299900004 ], [ 15.862694, 45.765515999000058 ], [ 15.860513, 45.765669999000067 ], [ 15.852328500000056, 45.763829999000052 ], [ 15.840805500000045, 45.765674499000056 ], [ 15.838927500000068, 45.76710999900007 ], [ 15.838376, 45.767796999000041 ], [ 15.84089, 45.769454999000061 ], [ 15.841597, 45.770103499000072 ], [ 15.841728, 45.770415999000079 ], [ 15.83823, 45.771682999000063 ], [ 15.83604, 45.772651999000061 ], [ 15.833826500000043, 45.773313999000038 ], [ 15.832647500000064, 45.773565999000027 ], [ 15.831313, 45.77354899900007 ], [ 15.827435, 45.774152499000081 ], [ 15.826588, 45.77442049900003 ], [ 15.825547500000027, 45.775116999000034 ], [ 15.823459, 45.777890999000078 ], [ 15.822870500000022, 45.778193999000052 ], [ 15.821663500000057, 45.778504499000064 ], [ 15.823327, 45.779632999000057 ], [ 15.82618, 45.780786499000044 ], [ 15.828676, 45.782015999000066 ], [ 15.828883, 45.782445999000061 ], [ 15.829541500000062, 45.78294949900004 ], [ 15.829461, 45.783231499000067 ], [ 15.829185500000051, 45.783364499000072 ], [ 15.829177, 45.783600999000043 ], [ 15.829034500000034, 45.784076499000037 ], [ 15.830566, 45.784252999000046 ], [ 15.831788500000073, 45.784646999000074 ], [ 15.833489500000042, 45.784910499000034 ], [ 15.833858500000076, 45.785165499000072 ], [ 15.835140500000023, 45.785545999000078 ], [ 15.836956, 45.785712999000054 ], [ 15.838522, 45.787558999000055 ], [ 15.838769, 45.787993999000037 ], [ 15.838989500000025, 45.789009499000031 ], [ 15.839655500000049, 45.789011999000081 ], [ 15.840323, 45.78892249900008 ], [ 15.841945500000065, 45.789182999000047 ], [ 15.842698, 45.789508999000077 ], [ 15.841855, 45.790519499000027 ], [ 15.838978, 45.791062999000076 ], [ 15.83714, 45.792095499000027 ], [ 15.835948500000029, 45.792507499000067 ], [ 15.835553, 45.792901999000037 ], [ 15.835458500000072, 45.793133999000077 ], [ 15.835643, 45.79317499900003 ], [ 15.835564, 45.793992999000068 ], [ 15.835684, 45.795502499000065 ], [ 15.835592, 45.796072999000046 ], [ 15.835408, 45.796072499000047 ], [ 15.83516, 45.797006999000075 ], [ 15.835063, 45.798179499000071 ], [ 15.835191500000064, 45.801228999000045 ], [ 15.83485, 45.801839499000039 ], [ 15.833331, 45.803284499000029 ], [ 15.834032, 45.803363499000056 ], [ 15.834319, 45.80356849900005 ], [ 15.832860500000038, 45.805108499000028 ], [ 15.831947500000069, 45.805794999000057 ], [ 15.83228, 45.805910499000049 ], [ 15.830583, 45.807638999000062 ], [ 15.832315, 45.808191499000031 ], [ 15.833014, 45.808716999000069 ], [ 15.833008, 45.809201999000038 ], [ 15.832265500000062, 45.810336999000072 ], [ 15.832378, 45.810532499000033 ], [ 15.83358, 45.810583999000073 ], [ 15.831266, 45.813320999000041 ], [ 15.829733, 45.81510649900008 ], [ 15.829676500000062, 45.815468999000075 ], [ 15.827672500000062, 45.818787999000051 ], [ 15.827111500000058, 45.819373999000049 ], [ 15.826438, 45.820019499000068 ], [ 15.825397, 45.821283999000059 ], [ 15.825267500000052, 45.821762999000043 ], [ 15.824387500000057, 45.822574999000039 ], [ 15.823931500000072, 45.823556499000063 ], [ 15.823874, 45.824787499000081 ], [ 15.823432, 45.825300999000035 ], [ 15.82284, 45.825574499000027 ], [ 15.82331750000003, 45.82686299900007 ], [ 15.823631500000033, 45.827702999000053 ], [ 15.823250500000029, 45.830122499000026 ], [ 15.822839, 45.831590499000072 ], [ 15.82191, 45.832768999000052 ], [ 15.821791500000074, 45.833405999000036 ], [ 15.822172, 45.834249999000065 ], [ 15.823389500000076, 45.835073999000031 ], [ 15.824154, 45.835949499000037 ], [ 15.824297500000057, 45.836331999000038 ], [ 15.823848, 45.836854999000082 ], [ 15.821935, 45.83763299900005 ], [ 15.821735500000045, 45.837905999000043 ], [ 15.821754500000054, 45.838364999000078 ], [ 15.822195, 45.838989999000034 ], [ 15.822919, 45.839386499000057 ], [ 15.826417, 45.839703999000051 ], [ 15.828107500000044, 45.840284999000062 ], [ 15.829236500000036, 45.841412999000056 ], [ 15.829385500000058, 45.842032499000027 ], [ 15.830434, 45.841554999000039 ], [ 15.83072, 45.841708999000048 ], [ 15.831788, 45.841627499000026 ], [ 15.832320500000037, 45.841345999000055 ], [ 15.833893, 45.841044499000077 ], [ 15.836442500000032, 45.84079949900007 ], [ 15.837355, 45.840562999000042 ], [ 15.837476500000037, 45.84068699900007 ], [ 15.840367, 45.839521999000056 ], [ 15.841473500000063, 45.84001949900005 ], [ 15.843309, 45.840489999000056 ], [ 15.84459350000003, 45.840982999000062 ], [ 15.845655, 45.841057499000044 ], [ 15.845073, 45.84153599900003 ], [ 15.844641500000023, 45.842392999000026 ], [ 15.844548, 45.843865999000059 ], [ 15.844693, 45.844654999000056 ], [ 15.845204, 45.845218999000053 ], [ 15.846117500000048, 45.845734999000058 ], [ 15.847897, 45.846362499000065 ], [ 15.848705500000051, 45.847082499000066 ], [ 15.849757, 45.847409999000035 ], [ 15.850201500000026, 45.848502999000061 ], [ 15.8513, 45.848343999000065 ], [ 15.850777, 45.849424499000065 ], [ 15.850946, 45.849855999000056 ], [ 15.850896, 45.850672499000041 ], [ 15.85052150000007, 45.851187499000048 ], [ 15.850982500000043, 45.852374999000062 ], [ 15.851667, 45.852864999000076 ], [ 15.851969500000052, 45.85298799900005 ], [ 15.852603500000043, 45.85286049900003 ], [ 15.853087500000072, 45.852931499000078 ], [ 15.854568, 45.853722499000071 ], [ 15.855027500000062, 45.854146999000079 ], [ 15.856066500000054, 45.853938499000037 ], [ 15.857232500000066, 45.853937999000038 ], [ 15.857897, 45.854501499000037 ], [ 15.858193, 45.855067499000029 ], [ 15.858893, 45.855239499000049 ], [ 15.859207, 45.855193499000052 ], [ 15.859456500000022, 45.854609499000048 ], [ 15.859299, 45.853809999000077 ], [ 15.859117, 45.853620999000043 ], [ 15.859184, 45.852848999000059 ], [ 15.860786, 45.853466499000035 ], [ 15.861053, 45.85345249900007 ], [ 15.863117, 45.852846499000066 ], [ 15.864075500000069, 45.852403999000046 ], [ 15.865008500000044, 45.852577499000063 ], [ 15.865154, 45.852852999000049 ], [ 15.865433, 45.853001999000071 ], [ 15.86685650000004, 45.853235999000049 ], [ 15.867191, 45.853740499000025 ], [ 15.868023500000049, 45.854464499000073 ], [ 15.869773, 45.854459999000028 ], [ 15.870626500000071, 45.854740499000059 ], [ 15.871438500000068, 45.854522499000041 ], [ 15.871615, 45.854176499000062 ], [ 15.873436500000025, 45.854750499000033 ], [ 15.873767, 45.855455999000071 ], [ 15.873761, 45.856831499000066 ], [ 15.874107500000036, 45.85744549900005 ], [ 15.87482, 45.857503999000073 ], [ 15.875293500000055, 45.857647999000051 ], [ 15.876605500000039, 45.858109499000079 ], [ 15.8757, 45.858340499000064 ], [ 15.874009, 45.859380999000052 ], [ 15.873607500000048, 45.859907999000029 ], [ 15.873497, 45.860322999000061 ], [ 15.873741500000051, 45.861010499000031 ], [ 15.87445, 45.861771999000041 ], [ 15.875337500000057, 45.862217499000053 ], [ 15.875862, 45.862175999000044 ], [ 15.876354500000048, 45.861761999000066 ], [ 15.877218, 45.86168899900008 ], [ 15.878649500000051, 45.862776999000062 ], [ 15.878896, 45.863246999000069 ], [ 15.878337, 45.864205999000035 ], [ 15.877328, 45.864918499000055 ], [ 15.877423, 45.865318499000068 ], [ 15.878496, 45.865222499000026 ], [ 15.879451, 45.864556999000058 ], [ 15.880287500000065, 45.864302499000075 ], [ 15.880811, 45.863197999000079 ], [ 15.882719500000064, 45.861819499000035 ], [ 15.88321, 45.861846999000079 ], [ 15.883478, 45.862170499000058 ], [ 15.884318, 45.862471999000036 ], [ 15.884924, 45.862411999000074 ], [ 15.885364, 45.862097499000072 ], [ 15.886179, 45.862536999000042 ], [ 15.886803, 45.863316499000064 ], [ 15.886361500000078, 45.864460999000073 ], [ 15.885604, 45.865027499000064 ], [ 15.885599, 45.865438499000049 ], [ 15.885862, 45.865814499000066 ], [ 15.885827500000062, 45.867030999000065 ], [ 15.886468, 45.868425499000068 ], [ 15.887087, 45.869206499000029 ], [ 15.888613, 45.86998999900004 ], [ 15.888537, 45.87066949900003 ], [ 15.889114, 45.872168499000054 ], [ 15.88925, 45.873191999000028 ], [ 15.889623500000027, 45.874675499000034 ], [ 15.889866500000039, 45.87563749900005 ], [ 15.891325, 45.876874999000052 ], [ 15.893573500000059, 45.877910499000052 ], [ 15.893847500000049, 45.878203499000051 ], [ 15.893934, 45.878585499000053 ], [ 15.894661, 45.879237999000054 ], [ 15.89591050000007, 45.880219499000077 ], [ 15.897200500000054, 45.881403999000042 ], [ 15.89763, 45.881585499000039 ], [ 15.898962500000039, 45.88157299900007 ], [ 15.899159, 45.881447499000046 ], [ 15.900801, 45.881532999000058 ], [ 15.902183500000035, 45.883785999000054 ], [ 15.90343850000005, 45.884574999000051 ], [ 15.904321500000037, 45.88532649900003 ], [ 15.905168, 45.885701999000048 ], [ 15.906293500000061, 45.886011499000062 ], [ 15.908042, 45.88556199900006 ], [ 15.90843650000005, 45.885727499000041 ], [ 15.909099, 45.886431499000025 ], [ 15.910649, 45.886458499000071 ], [ 15.912184500000023, 45.88681249900003 ], [ 15.913055500000041, 45.887210999000047 ], [ 15.913822, 45.887603499000079 ], [ 15.915334, 45.887838999000053 ], [ 15.916850500000066, 45.887736999000026 ], [ 15.918315, 45.887821999000039 ], [ 15.918778, 45.88829049900005 ], [ 15.922293, 45.889543499000069 ], [ 15.924252, 45.889847499000041 ], [ 15.924629500000037, 45.88974199900008 ], [ 15.926554, 45.88825599900008 ], [ 15.927748500000064, 45.888287999000056 ], [ 15.928966, 45.888005999000029 ], [ 15.930223500000068, 45.888154999000051 ], [ 15.930287, 45.888438999000073 ], [ 15.930523, 45.888835999000037 ], [ 15.93087, 45.88923599900005 ], [ 15.931474500000036, 45.889534499000035 ], [ 15.932317, 45.889532999000039 ], [ 15.933216, 45.88933649900008 ], [ 15.933635500000037, 45.889387999000064 ], [ 15.933646, 45.889609999000072 ], [ 15.934409500000072, 45.889938999000037 ], [ 15.93532, 45.890527499000029 ], [ 15.936041, 45.89103699900005 ], [ 15.936207500000023, 45.891638999000065 ], [ 15.936778, 45.892036999000027 ], [ 15.937591, 45.892344499000046 ], [ 15.938867500000072, 45.893417499000066 ], [ 15.939402, 45.894677999000066 ], [ 15.93988, 45.895277999000029 ], [ 15.94331950000003, 45.897620499000027 ], [ 15.944729, 45.897976999000036 ], [ 15.945836, 45.898750999000072 ], [ 15.947449, 45.899241999000026 ], [ 15.948855, 45.900783499000056 ], [ 15.949530500000037, 45.900990999000044 ], [ 15.952104500000075, 45.901160499000071 ], [ 15.955319, 45.901013999000043 ], [ 15.955862500000023, 45.901443999000037 ], [ 15.956769, 45.901593999000056 ], [ 15.957896, 45.90200949900003 ], [ 15.958356, 45.902843999000027 ], [ 15.959127, 45.90334849900006 ], [ 15.960988, 45.904213999000035 ], [ 15.962219, 45.905145499000071 ], [ 15.962648500000057, 45.905121499000074 ], [ 15.963457, 45.905705499000078 ], [ 15.963767, 45.906597499000043 ], [ 15.964383, 45.90698149900004 ], [ 15.96542850000003, 45.907364499000039 ], [ 15.966761, 45.907383499000048 ], [ 15.96829, 45.907092499000044 ], [ 15.968425, 45.907501999000033 ], [ 15.97062150000005, 45.908233999000061 ], [ 15.97181850000004, 45.90963799900004 ], [ 15.972350500000061, 45.911114499000064 ], [ 15.972382500000037, 45.911553999000034 ], [ 15.973557500000027, 45.912551999000073 ], [ 15.974292, 45.913382499000079 ], [ 15.974775, 45.914476999000044 ], [ 15.97523, 45.915009499000064 ], [ 15.977209, 45.915546999000071 ], [ 15.977953, 45.915987999000038 ], [ 15.98043750000005, 45.916641499000036 ], [ 15.981438, 45.916597499000034 ], [ 15.982209, 45.916754999000034 ], [ 15.983621, 45.917418999000063 ], [ 15.984476, 45.917410999000026 ], [ 15.985640500000045, 45.917661499000076 ], [ 15.985893, 45.918175499000029 ], [ 15.987131, 45.919566499000041 ], [ 15.987929, 45.920060999000043 ], [ 15.989523, 45.920384999000078 ], [ 15.989986500000043, 45.92065149900003 ], [ 15.990353, 45.921096999000042 ], [ 15.991118, 45.921552499000029 ], [ 15.992162, 45.922103999000058 ], [ 15.994590500000072, 45.922133999000039 ], [ 15.996815, 45.922859999000025 ], [ 15.999066, 45.923201999000071 ], [ 15.999855, 45.923599999000032 ], [ 16.000305, 45.924214499000072 ], [ 16.00094850000005, 45.92576899900007 ], [ 16.001297, 45.926121499000033 ], [ 16.002035, 45.926590499000042 ], [ 16.003025, 45.926847999000074 ], [ 16.004315, 45.927867999000057 ], [ 16.006247500000029, 45.92876749900006 ], [ 16.008058500000061, 45.928970999000057 ], [ 16.008833500000037, 45.930091499000071 ], [ 16.009824, 45.93046399900004 ], [ 16.013409, 45.930122999000048 ], [ 16.015444500000058, 45.930654999000069 ], [ 16.016396, 45.930682999000055 ], [ 16.016543500000068, 45.930890499000043 ], [ 16.017935, 45.930851499000028 ], [ 16.018868, 45.93101099900008 ], [ 16.019336, 45.931271499000047 ], [ 16.020466500000055, 45.931209499000033 ], [ 16.022653, 45.931999499000028 ], [ 16.023343500000067, 45.932485499000052 ], [ 16.024253, 45.932653999000081 ], [ 16.025209, 45.933032499000035 ], [ 16.026696500000071, 45.934070499000029 ], [ 16.027225500000043, 45.934290499000042 ], [ 16.027407500000038, 45.933981999000025 ], [ 16.029194, 45.93408849900004 ], [ 16.029713500000071, 45.934497499000031 ], [ 16.029632, 45.935290999000074 ], [ 16.029765, 45.936100499000077 ], [ 16.029927500000042, 45.936284499000067 ], [ 16.029713, 45.937428999000076 ], [ 16.030954, 45.937369999000055 ], [ 16.03357550000004, 45.938297499000043 ], [ 16.036855, 45.938632999000049 ], [ 16.037783500000046, 45.93931849900008 ], [ 16.038418500000034, 45.939490499000044 ], [ 16.040331, 45.939527999000063 ], [ 16.042614, 45.938873999000066 ], [ 16.043652500000064, 45.939225499000031 ], [ 16.045163, 45.939260999000055 ], [ 16.046571500000027, 45.938621999000077 ], [ 16.047340500000075, 45.937672999000029 ], [ 16.047625500000038, 45.937716999000031 ], [ 16.048058500000025, 45.937527499000055 ], [ 16.048981500000025, 45.936795999000026 ], [ 16.050438, 45.936581999000055 ], [ 16.050876, 45.93665549900004 ], [ 16.051801, 45.937424999000029 ], [ 16.051947, 45.938285499000074 ], [ 16.052006500000061, 45.939402999000038 ], [ 16.051497500000039, 45.940176999000073 ], [ 16.052134, 45.941037999000059 ], [ 16.05191, 45.941631999000037 ], [ 16.052219, 45.942927499000064 ], [ 16.05212750000004, 45.943316499000048 ], [ 16.052150500000039, 45.943876999000054 ], [ 16.052444500000036, 45.944434999000066 ], [ 16.053838, 45.944349499000054 ], [ 16.054037500000049, 45.944867999000053 ], [ 16.054247, 45.944977499000061 ], [ 16.056848500000058, 45.945280499000035 ], [ 16.058100500000023, 45.945616499000039 ], [ 16.060588500000051, 45.945717499000068 ], [ 16.061159, 45.94608899900004 ], [ 16.06260750000007, 45.946390499000074 ], [ 16.06334, 45.947013999000035 ], [ 16.063656, 45.947517499000071 ], [ 16.06417, 45.94770199900006 ], [ 16.064441, 45.948000499000045 ], [ 16.065018500000065, 45.949632999000073 ], [ 16.065008, 45.950129999000069 ], [ 16.065342, 45.950510499000075 ], [ 16.066729500000065, 45.95085399900006 ], [ 16.067730500000039, 45.950694499000065 ], [ 16.068629, 45.950821499000028 ], [ 16.070905500000038, 45.951579999000046 ], [ 16.072446, 45.95183399900003 ], [ 16.074074500000052, 45.952759999000079 ], [ 16.074399, 45.953417499000068 ], [ 16.07625, 45.95408799900008 ], [ 16.076708, 45.954571499000053 ], [ 16.076789500000075, 45.95549599900005 ], [ 16.077098, 45.955921499000056 ], [ 16.078089500000033, 45.956050499000071 ], [ 16.080259, 45.955992999000046 ], [ 16.082907500000033, 45.956424999000035 ], [ 16.084602500000074, 45.956313499000032 ], [ 16.085342500000024, 45.95642699900003 ], [ 16.086379500000078, 45.956611999000074 ], [ 16.087907, 45.957251499000051 ], [ 16.088667500000042, 45.957968999000059 ], [ 16.089729, 45.958579499000052 ], [ 16.090332, 45.957258999000032 ], [ 16.091048, 45.956939999000042 ], [ 16.092479500000024, 45.956647499000042 ], [ 16.094215, 45.955835999000044 ], [ 16.095001500000023, 45.955253999000035 ], [ 16.095385, 45.954621499000041 ], [ 16.096595, 45.953415499000073 ], [ 16.098442, 45.954184999000063 ], [ 16.100451, 45.95558999900004 ], [ 16.101844, 45.95575149900003 ], [ 16.104254500000025, 45.955778999000074 ], [ 16.105528500000048, 45.955643499000075 ], [ 16.107813500000077, 45.955907999000033 ], [ 16.107997, 45.956580999000039 ], [ 16.108408, 45.957206499000051 ], [ 16.108998, 45.95738699900005 ], [ 16.110191500000042, 45.957423499000072 ], [ 16.111294, 45.957877499000062 ], [ 16.111979, 45.958782499000051 ], [ 16.112096, 45.959733499000038 ], [ 16.11174550000004, 45.960594499000081 ], [ 16.112396500000045, 45.961431499000071 ], [ 16.113516, 45.961825499000042 ], [ 16.113639, 45.961995499000068 ], [ 16.113598500000023, 45.96288849900003 ], [ 16.113326500000028, 45.96325549900007 ], [ 16.113949500000047, 45.964762999000072 ], [ 16.113862500000039, 45.965981499000065 ], [ 16.113995, 45.968473999000025 ], [ 16.116885, 45.968598499000052 ], [ 16.118508500000075, 45.969152499000074 ], [ 16.119199500000036, 45.969077499000036 ], [ 16.119406500000025, 45.969011999000031 ], [ 16.11973050000006, 45.968450999000027 ], [ 16.120786500000065, 45.967551999000079 ], [ 16.122617500000047, 45.967051499000036 ], [ 16.123599500000068, 45.966956499000048 ], [ 16.1257, 45.967352499000071 ], [ 16.12656, 45.967194499000072 ], [ 16.127103500000032, 45.96689599900003 ], [ 16.127389500000049, 45.96650549900005 ], [ 16.129830500000025, 45.964982999000028 ], [ 16.131565, 45.964801499000032 ], [ 16.132850500000075, 45.964979499000037 ], [ 16.133609500000034, 45.964757499000029 ], [ 16.136750500000062, 45.965132999000048 ], [ 16.137121500000035, 45.965333999000052 ], [ 16.137386500000048, 45.965473499000041 ], [ 16.137662, 45.965735499000061 ], [ 16.137769, 45.966818999000054 ], [ 16.138162, 45.967486499000074 ], [ 16.13886, 45.967861499000037 ], [ 16.139706500000045, 45.968056999000055 ], [ 16.141758, 45.967862499000034 ], [ 16.14258250000006, 45.968484499000056 ], [ 16.143500500000073, 45.968316499000025 ], [ 16.14443650000004, 45.967810499000052 ], [ 16.145237, 45.968030999000064 ], [ 16.147593500000028, 45.968238499000051 ], [ 16.148441500000047, 45.968389999000067 ], [ 16.148830500000031, 45.968629999000029 ], [ 16.149508, 45.968690999000046 ], [ 16.150392500000066, 45.967494999000053 ], [ 16.151283, 45.967441499000074 ], [ 16.151979500000039, 45.967755499000077 ], [ 16.152621, 45.967845999000076 ], [ 16.153170500000044, 45.967517999000052 ], [ 16.153871500000037, 45.967523999000036 ], [ 16.154554, 45.968029999000066 ], [ 16.154813500000046, 45.968773999000064 ], [ 16.155175, 45.969014499000025 ], [ 16.155419, 45.968655999000077 ], [ 16.155889500000058, 45.966500499000063 ], [ 16.156177, 45.964770999000052 ], [ 16.156293500000061, 45.96319599900005 ], [ 16.156046, 45.96270449900004 ], [ 16.156320500000049, 45.961241999000038 ], [ 16.156194500000026, 45.960811499000044 ], [ 16.156272500000057, 45.960555999000064 ], [ 16.157376500000055, 45.959855999000069 ], [ 16.158734, 45.959274999000058 ], [ 16.160025500000074, 45.958910499000069 ], [ 16.161691500000074, 45.957809999000062 ], [ 16.16321, 45.957401499000071 ], [ 16.163626500000078, 45.957079499000031 ], [ 16.16397, 45.956135499000027 ], [ 16.16531150000003, 45.955779999000072 ], [ 16.165771, 45.955502999000032 ], [ 16.165302500000053, 45.954479999000057 ], [ 16.165308, 45.954219499000033 ], [ 16.165472, 45.953466999000057 ], [ 16.166019500000061, 45.953082499000061 ], [ 16.166683500000033, 45.951885999000069 ], [ 16.166673, 45.951448499000037 ], [ 16.166092, 45.950770999000042 ], [ 16.166076, 45.949812499000075 ], [ 16.166586, 45.949288499000033 ], [ 16.166923500000053, 45.949152999000034 ], [ 16.166878500000053, 45.948042499000053 ], [ 16.166903500000046, 45.947557999000026 ], [ 16.166374500000074, 45.946716999000046 ], [ 16.166754, 45.94628749900005 ], [ 16.166828, 45.945737499000074 ], [ 16.167283500000053, 45.944681499000069 ], [ 16.168125, 45.944309499000042 ], [ 16.169252, 45.944105999000044 ], [ 16.171547500000031, 45.942662999000049 ], [ 16.172203500000023, 45.942204999000069 ], [ 16.173083, 45.940837999000053 ], [ 16.173044, 45.940297499000053 ], [ 16.172723500000075, 45.939638499000068 ], [ 16.171859500000039, 45.938705999000035 ], [ 16.172113500000023, 45.937753499000053 ], [ 16.171804500000064, 45.936421499000062 ], [ 16.172369500000059, 45.935815499000057 ], [ 16.172461, 45.935141499000053 ], [ 16.172794, 45.934820499000068 ], [ 16.172975, 45.93392699900005 ], [ 16.172971500000074, 45.933133999000063 ], [ 16.173166, 45.932443499000044 ], [ 16.172780500000044, 45.932024999000078 ], [ 16.172726, 45.931645999000068 ], [ 16.173017, 45.930142499000056 ], [ 16.172984, 45.92891049900004 ], [ 16.173152500000072, 45.928571499000043 ], [ 16.173119, 45.927608999000029 ], [ 16.17326950000006, 45.92713549900003 ], [ 16.17311, 45.925912999000047 ], [ 16.17347, 45.925042499000028 ], [ 16.173678500000051, 45.923726499000054 ], [ 16.174647500000049, 45.923154499000077 ], [ 16.174807500000043, 45.922931499000072 ], [ 16.174833500000034, 45.922493499000041 ], [ 16.174364500000024, 45.921528499000033 ], [ 16.173393, 45.920855999000025 ], [ 16.173141, 45.920160499000076 ], [ 16.173071500000049, 45.918862499000056 ], [ 16.174062, 45.917529999000067 ], [ 16.174431, 45.916334999000071 ], [ 16.174658, 45.916118499000049 ], [ 16.175374500000032, 45.916146499000035 ], [ 16.176965500000051, 45.915744999000026 ], [ 16.178996500000039, 45.915855499000031 ], [ 16.180223, 45.915466499000047 ], [ 16.179649, 45.915298499000073 ], [ 16.179143, 45.914927499000044 ], [ 16.180361, 45.914168999000026 ], [ 16.180524, 45.913772499000061 ], [ 16.179583, 45.913219499000036 ], [ 16.179613500000073, 45.912770999000031 ], [ 16.178837500000043, 45.911777999000037 ], [ 16.180706, 45.911023499000066 ], [ 16.181303, 45.91040349900004 ], [ 16.181442, 45.910002999000028 ], [ 16.182433, 45.909309999000072 ], [ 16.18357, 45.909144999000034 ], [ 16.184165500000063, 45.908664499000054 ], [ 16.184533, 45.907949999000039 ], [ 16.184497500000077, 45.907087499000056 ], [ 16.183796500000028, 45.906043999000076 ], [ 16.18346, 45.905045499000039 ], [ 16.183381, 45.903751499000066 ], [ 16.183596500000021, 45.903106499000046 ], [ 16.183614500000033, 45.902137999000047 ], [ 16.183774500000027, 45.901651499000081 ], [ 16.183558500000061, 45.900143999000079 ], [ 16.183803, 45.898822499000062 ], [ 16.182948, 45.897136499000055 ], [ 16.182093, 45.896272499000077 ], [ 16.180682500000046, 45.895511999000064 ], [ 16.179693500000042, 45.894780999000034 ], [ 16.178574, 45.893211999000073 ], [ 16.17838450000005, 45.892265999000074 ], [ 16.180122500000039, 45.892339999000058 ], [ 16.18695, 45.89141999900005 ], [ 16.189431, 45.891063999000039 ], [ 16.191018500000041, 45.890449499000056 ], [ 16.194373, 45.892490999000074 ], [ 16.196894, 45.893790499000033 ], [ 16.197183, 45.893605499000046 ], [ 16.199632500000064, 45.890191999000081 ], [ 16.199696500000073, 45.889869999000041 ], [ 16.200387, 45.889325499000051 ], [ 16.202158500000053, 45.88677399900007 ], [ 16.205663500000071, 45.880495499000062 ], [ 16.209562, 45.87776149900003 ], [ 16.215448, 45.870031999000048 ], [ 16.225809500000025, 45.862670999000045 ], [ 16.227531500000055, 45.861748499000043 ], [ 16.227552500000058, 45.861497999000051 ], [ 16.227773500000069, 45.861259499000028 ], [ 16.227902500000027, 45.860404999000025 ], [ 16.226874500000065, 45.85882949900008 ], [ 16.227612, 45.85828249900004 ], [ 16.226250500000049, 45.857258999000067 ], [ 16.224427, 45.856586499000059 ], [ 16.223178, 45.855868499000053 ], [ 16.221966500000065, 45.854815999000039 ], [ 16.220137, 45.853700999000068 ], [ 16.22038850000007, 45.853710499000044 ], [ 16.221501, 45.853199499000027 ], [ 16.222222, 45.852662999000074 ], [ 16.221994, 45.852571999000077 ], [ 16.222043, 45.851728499000046 ], [ 16.222879, 45.849762499000065 ], [ 16.222443, 45.849699999000052 ], [ 16.222997500000076, 45.848685999000054 ], [ 16.224452500000041, 45.849025999000048 ], [ 16.224779500000068, 45.848768999000072 ], [ 16.226470500000062, 45.848682999000061 ], [ 16.226662500000032, 45.848154499000032 ], [ 16.226577500000076, 45.84695399900005 ], [ 16.227182500000026, 45.846656499000062 ], [ 16.227471, 45.846576999000035 ], [ 16.228843500000039, 45.84637649900003 ], [ 16.227955500000064, 45.841466999000033 ], [ 16.228860500000053, 45.841164499000058 ], [ 16.229394, 45.841317999000069 ], [ 16.2318, 45.840351499000064 ], [ 16.232004500000073, 45.839616499000044 ], [ 16.232872, 45.839996499000051 ], [ 16.233688, 45.839999999000042 ], [ 16.233848500000022, 45.839094999000054 ], [ 16.234833, 45.838892999000052 ], [ 16.235504500000047, 45.839540999000064 ], [ 16.23574, 45.83942999900006 ], [ 16.23591250000004, 45.838900499000033 ], [ 16.236145, 45.838663999000062 ], [ 16.237355500000035, 45.838589999000078 ], [ 16.237896, 45.838643999000055 ], [ 16.23851250000007, 45.837965499000063 ], [ 16.239583500000037, 45.83745699900004 ], [ 16.23948850000005, 45.837071499000047 ], [ 16.239428500000031, 45.836892999000042 ], [ 16.238769500000046, 45.836629999000081 ], [ 16.237435, 45.836402999000029 ], [ 16.237302500000055, 45.835887999000079 ], [ 16.237108500000033, 45.835837499000036 ], [ 16.235559, 45.836230999000065 ], [ 16.234928500000024, 45.836526999000057 ], [ 16.234835, 45.836653499000079 ], [ 16.234058, 45.837100999000029 ], [ 16.232996, 45.837301999000033 ], [ 16.232701500000076, 45.837262999000075 ], [ 16.231824, 45.837038499000073 ], [ 16.231704500000035, 45.836676999000076 ], [ 16.231487, 45.836532499000043 ], [ 16.229881, 45.836967499000025 ], [ 16.228517, 45.837143499000035 ], [ 16.227582, 45.837123999000028 ], [ 16.226918500000068, 45.83685299900003 ], [ 16.226161500000046, 45.836776999000051 ], [ 16.225825, 45.83699449900007 ], [ 16.225117, 45.837221499000066 ], [ 16.224145, 45.837441499000079 ], [ 16.222585, 45.838204999000027 ], [ 16.220125, 45.838752499000066 ], [ 16.218929, 45.838725499000077 ], [ 16.218227, 45.838342499000078 ], [ 16.217511500000057, 45.838619999000059 ], [ 16.216284, 45.838578999000049 ], [ 16.216095, 45.837790999000049 ], [ 16.214976500000034, 45.837310999000067 ], [ 16.21429, 45.835096499000031 ], [ 16.213252500000067, 45.83535499900006 ], [ 16.212764, 45.834609999000065 ], [ 16.211288500000023, 45.83419599900003 ], [ 16.211117, 45.833816499000079 ], [ 16.211166500000047, 45.83338549900003 ], [ 16.209892, 45.831515999000032 ], [ 16.209095, 45.830707499000027 ], [ 16.20810350000005, 45.83040999900004 ], [ 16.207465500000069, 45.829782999000031 ], [ 16.205648500000052, 45.829384499000071 ], [ 16.205274, 45.82911449900007 ], [ 16.204577500000028, 45.82923899900004 ], [ 16.20447050000007, 45.826756499000055 ], [ 16.204627, 45.826022499000032 ], [ 16.204588, 45.825025999000047 ], [ 16.204303500000037, 45.824280999000052 ], [ 16.203351, 45.823088999000049 ], [ 16.202668500000073, 45.822706499000049 ], [ 16.202132, 45.82168099900008 ], [ 16.200269, 45.820897999000067 ], [ 16.199999, 45.820335499000066 ], [ 16.199774500000046, 45.819292499000028 ], [ 16.200304500000072, 45.81792899900006 ], [ 16.201344, 45.817218999000033 ], [ 16.201555, 45.81678449900005 ], [ 16.201592500000061, 45.816020499000047 ], [ 16.202127, 45.813693999000066 ], [ 16.202490500000067, 45.812883999000064 ], [ 16.202361500000052, 45.81062349900003 ], [ 16.202468500000066, 45.810398999000029 ], [ 16.201593500000058, 45.807989999000029 ], [ 16.200344, 45.808158499000058 ], [ 16.199883500000055, 45.80337399900003 ], [ 16.201068500000076, 45.803093499000056 ], [ 16.200780500000064, 45.802776999000059 ], [ 16.199785, 45.800807999000028 ], [ 16.199349, 45.79938499900004 ], [ 16.199354500000027, 45.79773349900006 ], [ 16.199818, 45.796415499000034 ], [ 16.199369500000046, 45.792773999000076 ], [ 16.198367500000074, 45.788620999000045 ], [ 16.197969500000056, 45.78068999900006 ], [ 16.200528, 45.779323499000043 ], [ 16.198341, 45.777326999000081 ], [ 16.191963500000043, 45.780682499000079 ], [ 16.183139, 45.785310499000047 ], [ 16.174739, 45.789102999000079 ], [ 16.173953500000039, 45.789272999000048 ], [ 16.17078, 45.790436499000066 ], [ 16.165680500000065, 45.792220999000051 ], [ 16.164174, 45.792903499000033 ], [ 16.159046, 45.794390499000031 ], [ 16.146280500000046, 45.79738099900004 ], [ 16.146165, 45.797394999000062 ], [ 16.143939, 45.798004999000057 ], [ 16.142897, 45.798305499000037 ], [ 16.139436, 45.798809999000071 ], [ 16.131573, 45.80051049900004 ], [ 16.131234, 45.800512999000034 ], [ 16.125848500000075, 45.801610499000049 ], [ 16.125586500000054, 45.800973499000065 ], [ 16.127498500000058, 45.80005249900006 ], [ 16.128301500000077, 45.79924999900004 ], [ 16.128601500000059, 45.798738499000081 ], [ 16.128871, 45.797425499000042 ], [ 16.12868, 45.795699999000078 ], [ 16.128273500000034, 45.793863499000054 ], [ 16.127986500000077, 45.793229999000062 ], [ 16.12734, 45.792447999000046 ], [ 16.127567, 45.792270999000039 ], [ 16.127191, 45.791831499000068 ], [ 16.126876500000037, 45.791723499000057 ], [ 16.125983, 45.790628499000036 ], [ 16.125892500000077, 45.790468999000041 ], [ 16.126007, 45.790364999000076 ], [ 16.125464500000078, 45.789618999000027 ], [ 16.123613, 45.787540499000045 ], [ 16.119998500000065, 45.787042499000052 ], [ 16.117806, 45.787102999000069 ], [ 16.110500500000057, 45.788304499000049 ], [ 16.109028, 45.788724999000067 ], [ 16.10709, 45.788578499000039 ], [ 16.106861500000036, 45.789207999000041 ], [ 16.104858500000034, 45.791610499000058 ], [ 16.103254500000048, 45.78963999900003 ], [ 16.101713500000074, 45.788594499000055 ], [ 16.100446, 45.787946499000043 ], [ 16.100552500000049, 45.787697999000045 ], [ 16.102087, 45.786220499000081 ], [ 16.10039, 45.78542599900004 ], [ 16.098376500000029, 45.783990499000026 ], [ 16.096842, 45.783141999000065 ], [ 16.094082, 45.78201849900006 ], [ 16.090941500000042, 45.781319999000061 ], [ 16.087754500000074, 45.780084999000053 ], [ 16.083514500000035, 45.778776999000058 ], [ 16.081823500000041, 45.777579499000069 ], [ 16.080395500000066, 45.776248499000076 ], [ 16.078184, 45.774571499000047 ], [ 16.077466500000071, 45.773963499000047 ], [ 16.076950500000066, 45.77301649900005 ], [ 16.076419, 45.772430999000051 ], [ 16.07547, 45.771880499000076 ], [ 16.073204, 45.771022999000081 ], [ 16.07238250000006, 45.770424499000057 ], [ 16.071350500000051, 45.769938999000033 ], [ 16.070519500000046, 45.769255499000053 ], [ 16.069707, 45.768135999000037 ], [ 16.067082, 45.766890999000054 ], [ 16.066342500000076, 45.766363999000077 ], [ 16.065517, 45.765165999000033 ], [ 16.064578500000039, 45.765004999000041 ], [ 16.062649, 45.762537999000074 ], [ 16.061768500000028, 45.761682999000072 ], [ 16.060049, 45.76040449900006 ], [ 16.057368, 45.759123499000054 ], [ 16.05554, 45.758524999000031 ], [ 16.053803, 45.758178499000053 ], [ 16.050682, 45.758038499000065 ], [ 16.048382, 45.758311499000058 ], [ 16.046685500000024, 45.758698499000047 ], [ 16.041946, 45.760045999000056 ], [ 16.039694500000053, 45.761157999000034 ], [ 16.039373500000067, 45.761630999000033 ], [ 16.038802500000031, 45.761960499000054 ], [ 16.038288, 45.761332999000047 ], [ 16.038261500000033, 45.760832999000058 ], [ 16.03759, 45.760365999000044 ], [ 16.037067500000035, 45.75978599900003 ], [ 16.037093500000026, 45.759386999000071 ], [ 16.036625500000071, 45.757871499000032 ], [ 16.037828500000046, 45.755776499000035 ], [ 16.038028500000053, 45.755026499000053 ], [ 16.036339, 45.754730499000061 ], [ 16.034123500000078, 45.754886999000064 ], [ 16.034219, 45.755381999000065 ], [ 16.0336, 45.755499499000052 ], [ 16.03255050000007, 45.755451999000059 ], [ 16.031708, 45.755040499000074 ], [ 16.029237, 45.754823499000054 ], [ 16.027681, 45.755256999000039 ], [ 16.02643850000004, 45.75384899900007 ], [ 16.025338, 45.754512999000042 ], [ 16.025181, 45.754481999000063 ], [ 16.025333, 45.754304499000057 ], [ 16.025438, 45.753676499000051 ], [ 16.02440850000005, 45.752132499000027 ], [ 16.021475, 45.74993949900005 ], [ 16.019476500000053, 45.74802949900004 ], [ 16.01702, 45.744688999000061 ], [ 16.015941500000054, 45.743488999000078 ], [ 16.017902, 45.74312149900004 ], [ 16.01928950000007, 45.742461999000056 ], [ 16.019951, 45.741586999000049 ], [ 16.019944, 45.741250499000046 ], [ 16.019242500000075, 45.740668999000036 ], [ 16.017942, 45.739860499000031 ], [ 16.01758250000006, 45.739815499000031 ], [ 16.017691500000069, 45.738684999000043 ], [ 16.01864850000004, 45.738353499000027 ], [ 16.019506500000034, 45.737653999000031 ], [ 16.018630500000029, 45.737136999000029 ], [ 16.017324500000029, 45.73601349900008 ], [ 16.016359500000021, 45.732717999000045 ], [ 16.016087500000026, 45.731622499000025 ], [ 16.01609, 45.730567499000074 ], [ 16.017461500000024, 45.729535499000065 ], [ 16.016282500000045, 45.728716499000029 ], [ 16.015075500000023, 45.727503499000079 ], [ 16.016757, 45.726783499000078 ], [ 16.017019, 45.725955499000065 ], [ 16.018755500000054, 45.725085499000045 ], [ 16.018954500000063, 45.724605999000062 ], [ 16.018785500000035, 45.724040999000067 ], [ 16.018654500000025, 45.723922499000025 ], [ 16.01746, 45.72404399900006 ], [ 16.017016500000068, 45.722992499000043 ], [ 16.017165, 45.722382999000047 ], [ 16.017666, 45.721709499000042 ], [ 16.017759500000068, 45.721065999000075 ], [ 16.018135500000028, 45.720774499000072 ], [ 16.0176, 45.720546499000079 ], [ 16.016083500000036, 45.720374999000057 ], [ 16.016063, 45.720181499000034 ], [ 16.01489, 45.720234499000071 ], [ 16.014424500000075, 45.718911999000056 ], [ 16.013161, 45.719049999000049 ], [ 16.012446, 45.718974499000069 ], [ 16.011156, 45.719172499000081 ], [ 16.009500500000058, 45.719684499000039 ], [ 16.004921500000023, 45.719077999000035 ], [ 16.003389, 45.719259499000032 ], [ 16.001047, 45.71983349900006 ], [ 15.999802500000044, 45.719611499000052 ], [ 15.99863, 45.719340999000053 ], [ 15.996633, 45.717685499000027 ], [ 15.995583500000066, 45.717979999000079 ], [ 15.995344500000044, 45.718280499000059 ], [ 15.994889500000056, 45.718295499000078 ], [ 15.994502500000067, 45.717775999000025 ], [ 15.993187, 45.717049999000039 ], [ 15.992862, 45.716892499000039 ], [ 15.991441, 45.71648299900005 ], [ 15.989870500000052, 45.716788499000074 ], [ 15.989022500000033, 45.71667099900003 ], [ 15.988175, 45.716160999000067 ], [ 15.986968500000046, 45.717295499000045 ], [ 15.986632500000042, 45.717931999000029 ], [ 15.986256500000025, 45.718060999000045 ], [ 15.985695, 45.71768699900008 ], [ 15.985461, 45.717286499000068 ], [ 15.985048, 45.717261999000073 ], [ 15.984324, 45.717481999000029 ], [ 15.983267, 45.716777999000044 ], [ 15.983481500000039, 45.716215999000042 ], [ 15.984999500000072, 45.715515999000047 ], [ 15.985783500000025, 45.715741499000046 ], [ 15.98768350000006, 45.71495599900004 ], [ 15.987846, 45.714396499000031 ], [ 15.987522, 45.713647999000045 ], [ 15.986437, 45.712983499000075 ], [ 15.985680500000058, 45.712228999000047 ], [ 15.985539, 45.711745499000074 ], [ 15.985267, 45.711245499000029 ], [ 15.984270500000036, 45.710348499000077 ], [ 15.983877500000062, 45.710240499000065 ], [ 15.982831, 45.710287999000059 ], [ 15.982406500000025, 45.709841499000049 ], [ 15.982108, 45.708382999000037 ], [ 15.981977, 45.707525499000042 ], [ 15.98202, 45.706265999000038 ], [ 15.981736500000068, 45.705433999000036 ], [ 15.980972500000064, 45.704102999000042 ], [ 15.979308500000059, 45.704053999000052 ], [ 15.978952500000048, 45.703435999000078 ], [ 15.978665500000034, 45.703541999000038 ], [ 15.978454500000055, 45.703954499000076 ], [ 15.978389500000048, 45.704064499000026 ], [ 15.978188, 45.704300999000054 ], [ 15.977517500000033, 45.704264499000033 ], [ 15.976478, 45.703071999000031 ], [ 15.976565500000049, 45.702176499000075 ], [ 15.97646, 45.701666499000055 ], [ 15.976039, 45.701076499000067 ], [ 15.975797500000056, 45.70081299900005 ], [ 15.975021, 45.700298499000041 ], [ 15.974235, 45.70036649900004 ], [ 15.973487, 45.700442499000076 ], [ 15.973197500000026, 45.700516499000059 ], [ 15.972369, 45.700590999000042 ], [ 15.971496, 45.699721499000077 ], [ 15.971416500000032, 45.699225499000079 ], [ 15.970893500000045, 45.698618499000077 ], [ 15.970453, 45.698321999000029 ], [ 15.969874, 45.698597499000073 ], [ 15.968839, 45.697950999000057 ], [ 15.968551500000046, 45.697214999000039 ], [ 15.968405, 45.697099499000046 ], [ 15.96764, 45.696717999000043 ], [ 15.966899500000068, 45.696620499000062 ], [ 15.966287, 45.696212499000069 ], [ 15.965894, 45.695399499000075 ], [ 15.965785500000038, 45.694831499000031 ], [ 15.96545750000007, 45.694350499000052 ], [ 15.965024, 45.694053999000062 ], [ 15.965027500000076, 45.693741499000055 ], [ 15.965099, 45.693269999000051 ], [ 15.965272500000026, 45.692684499000052 ], [ 15.965569, 45.692428999000072 ], [ 15.965933500000062, 45.692864499000052 ], [ 15.966431, 45.692675499000075 ], [ 15.966545, 45.69239249900005 ], [ 15.96669, 45.691728999000077 ], [ 15.966209500000048, 45.69083899900005 ], [ 15.966044, 45.690737499000079 ], [ 15.965302, 45.690444999000078 ], [ 15.963986500000033, 45.690380499000071 ], [ 15.963818, 45.690127499000027 ], [ 15.963950500000067, 45.68999799900007 ], [ 15.964347, 45.690127999000026 ], [ 15.96528550000005, 45.689520499000025 ], [ 15.964989, 45.68938349900003 ], [ 15.964555, 45.689245999000036 ], [ 15.965125, 45.688295499000048 ], [ 15.964514, 45.687626499000032 ], [ 15.964687500000025, 45.686455499000033 ], [ 15.965194, 45.685576499000035 ], [ 15.965438, 45.685249999000064 ], [ 15.965882500000077, 45.684250499000029 ], [ 15.965601, 45.68390449900005 ], [ 15.966456500000049, 45.682521999000073 ], [ 15.966791, 45.682413499000063 ], [ 15.967348500000071, 45.682413999000062 ], [ 15.96759, 45.682012999000051 ], [ 15.967880500000035, 45.681215499000075 ], [ 15.967626, 45.680524499000057 ], [ 15.966583, 45.680527999000049 ], [ 15.966303, 45.680236499000046 ], [ 15.966572, 45.679635499000028 ], [ 15.96667350000007, 45.679338999000038 ], [ 15.966846500000031, 45.678789499000061 ], [ 15.966951, 45.678311499000074 ], [ 15.966928, 45.677614499000072 ], [ 15.966551500000037, 45.677028499000073 ], [ 15.966328, 45.676862499000038 ], [ 15.965952500000071, 45.676210499000035 ], [ 15.965455500000076, 45.675337499000079 ], [ 15.965025500000024, 45.674412999000026 ], [ 15.964899500000058, 45.673928999000054 ], [ 15.964756, 45.67333749900007 ], [ 15.965476, 45.671488499000077 ], [ 15.965712500000052, 45.671252499000047 ], [ 15.966079500000035, 45.671204999000054 ], [ 15.966236500000036, 45.670837999000071 ], [ 15.965779, 45.67027149900008 ], [ 15.965238, 45.670152999000038 ], [ 15.965030500000069, 45.669946999000047 ], [ 15.963722, 45.669012499000075 ], [ 15.962785500000052, 45.668560999000078 ], [ 15.962627, 45.668230999000059 ], [ 15.962913, 45.667462499000067 ], [ 15.961866, 45.666296499000055 ], [ 15.961118, 45.66584399900006 ], [ 15.960198, 45.66584399900006 ], [ 15.959803500000078, 45.665702499000076 ], [ 15.958908500000064, 45.664880999000047 ], [ 15.958688, 45.664404499000057 ], [ 15.958787, 45.663254499000061 ], [ 15.957161500000041, 45.66022349900004 ], [ 15.957177500000057, 45.659779999000079 ], [ 15.957448500000055, 45.659170499000027 ], [ 15.957726, 45.659013499000025 ], [ 15.957731500000023, 45.65819299900005 ], [ 15.956657, 45.656101999000043 ], [ 15.954972, 45.655846499000063 ], [ 15.954493, 45.655455499000027 ], [ 15.953200500000037, 45.655070499000033 ], [ 15.952165500000035, 45.654935499000032 ], [ 15.951823500000046, 45.654571499000042 ], [ 15.95137950000003, 45.653652499000032 ], [ 15.950977500000022, 45.653139999000075 ], [ 15.950601, 45.652820999000028 ], [ 15.949333, 45.652271499000051 ], [ 15.949083, 45.651790499000072 ], [ 15.948456, 45.651657999000065 ], [ 15.948752500000069, 45.651253999000062 ], [ 15.948718500000041, 45.650093499000036 ], [ 15.949105, 45.649137499000062 ], [ 15.949133, 45.648447999000041 ], [ 15.949401500000022, 45.647473499000057 ], [ 15.949456500000053, 45.646609999000077 ], [ 15.949176500000021, 45.646048499000074 ], [ 15.950015, 45.642841999000041 ], [ 15.950160500000038, 45.641868999000053 ], [ 15.949789500000065, 45.640750999000034 ], [ 15.950126500000067, 45.639584999000078 ], [ 15.950220500000057, 45.638043499000048 ], [ 15.950535500000058, 45.63745749900005 ], [ 15.949245500000075, 45.635859499000048 ], [ 15.948816, 45.634894999000039 ], [ 15.948215, 45.634358499000029 ], [ 15.947385500000053, 45.63289749900008 ], [ 15.946703, 45.632118999000056 ], [ 15.946650500000032, 45.631688999000062 ], [ 15.947104500000023, 45.630009999000038 ], [ 15.947025500000052, 45.629649499000038 ], [ 15.942043500000068, 45.631537499000046 ], [ 15.941272, 45.630536999000071 ], [ 15.940817500000037, 45.63021149900004 ], [ 15.940673, 45.630311499000072 ], [ 15.940068500000052, 45.630249499000058 ], [ 15.938754500000073, 45.629879999000025 ], [ 15.938267500000052, 45.628737999000066 ], [ 15.938367500000027, 45.627964499000029 ], [ 15.938029500000027, 45.626678999000035 ], [ 15.937260500000036, 45.626092999000036 ], [ 15.936709500000063, 45.625152999000079 ], [ 15.936707, 45.624821499000063 ], [ 15.936093, 45.624442999000053 ], [ 15.935105500000077, 45.623482999000032 ], [ 15.934322500000064, 45.623260499000025 ], [ 15.933458, 45.622823499000049 ], [ 15.932627, 45.622107499000037 ], [ 15.932168500000046, 45.621889999000075 ], [ 15.931480500000077, 45.622033999000053 ], [ 15.929548500000067, 45.621550999000078 ], [ 15.928624, 45.621637999000029 ], [ 15.928046, 45.62108549900006 ], [ 15.926643, 45.620155499000077 ], [ 15.925097500000049, 45.619755499000064 ], [ 15.924022, 45.618953999000041 ], [ 15.923205500000051, 45.617572499000062 ], [ 15.922311500000035, 45.616508499000076 ], [ 15.921134, 45.615142499000058 ], [ 15.920614500000056, 45.614589999000032 ], [ 15.919943500000045, 45.614237999000068 ], [ 15.919261500000061, 45.613965999000072 ], [ 15.918559500000072, 45.614510999000061 ], [ 15.918619500000034, 45.614896999000052 ], [ 15.91724, 45.615889499000048 ], [ 15.916545500000041, 45.615753999000049 ], [ 15.915633, 45.615940499000033 ], [ 15.915381500000024, 45.615707499000052 ], [ 15.91554, 45.615604999000027 ], [ 15.915219500000035, 45.615234499000053 ], [ 15.91468, 45.616013499000076 ], [ 15.914072500000032, 45.616400499000065 ], [ 15.912177500000041, 45.617019499000037 ], [ 15.911077, 45.616881999000043 ], [ 15.909546500000033, 45.616424499000061 ], [ 15.908201500000075, 45.617526499000064 ], [ 15.907807, 45.61812149900004 ], [ 15.905969, 45.618406999000058 ], [ 15.906273500000054, 45.618614499000046 ], [ 15.906229, 45.618992499000058 ], [ 15.905816500000071, 45.620158999000068 ], [ 15.905693, 45.62022199900008 ], [ 15.90426350000007, 45.620348499000045 ], [ 15.903436500000055, 45.620236999000042 ], [ 15.902338500000042, 45.619862499000078 ], [ 15.90180950000007, 45.619956499000068 ], [ 15.901815500000055, 45.620490999000026 ], [ 15.901662500000043, 45.620626499000025 ], [ 15.900807500000042, 45.621018499000058 ], [ 15.89905, 45.621684999000081 ], [ 15.898381, 45.622309499000039 ], [ 15.899108500000068, 45.622896999000034 ], [ 15.900191500000062, 45.624848499000052 ], [ 15.901195, 45.625860999000054 ], [ 15.901919500000076, 45.627075499000057 ], [ 15.902347, 45.62752449900006 ], [ 15.904375500000071, 45.628896499000064 ], [ 15.904908, 45.62958799900008 ], [ 15.905641, 45.631075999000075 ], [ 15.906791, 45.631838499000025 ], [ 15.90826050000004, 45.632377499000029 ], [ 15.906984500000021, 45.63284999900003 ], [ 15.905673500000034, 45.633687999000074 ], [ 15.905218500000046, 45.634210999000061 ], [ 15.90404250000006, 45.634460499000056 ], [ 15.903406, 45.634848499000043 ], [ 15.902298, 45.634866999000053 ], [ 15.899785500000064, 45.636030499000071 ], [ 15.898167, 45.635390499000039 ], [ 15.896801, 45.635725499000046 ], [ 15.894832, 45.635725499000046 ], [ 15.894392500000038, 45.636185499000078 ], [ 15.893707500000062, 45.63659799900006 ], [ 15.893627500000036, 45.636959999000055 ], [ 15.894033, 45.638132999000049 ], [ 15.893805500000042, 45.639323999000055 ], [ 15.89350150000007, 45.639822999000046 ], [ 15.891958, 45.640700499000047 ], [ 15.890423, 45.642288999000073 ], [ 15.889519500000063, 45.64297749900004 ], [ 15.888061500000049, 45.64347249900004 ], [ 15.886959500000046, 45.64365949900008 ], [ 15.88543, 45.644376999000031 ], [ 15.884975500000053, 45.644720499000073 ], [ 15.884901500000069, 45.645230499000036 ], [ 15.88456350000007, 45.645747999000037 ], [ 15.884289, 45.64589249900007 ], [ 15.88299150000006, 45.646208999000066 ], [ 15.882063, 45.646276499000066 ], [ 15.881555500000047, 45.646476999000072 ], [ 15.880995, 45.646995999000069 ], [ 15.880657500000041, 45.647599999000079 ], [ 15.880567, 45.648430499000028 ], [ 15.880186, 45.649393499000041 ], [ 15.879756500000042, 45.649904499000058 ], [ 15.878786500000047, 45.650422499000058 ], [ 15.877102, 45.653022999000029 ], [ 15.876318500000025, 45.653777999000056 ], [ 15.875966500000061, 45.654163999000048 ], [ 15.875626, 45.654979999000034 ], [ 15.874982500000044, 45.65575749900006 ], [ 15.873579500000062, 45.656438499000046 ], [ 15.873066, 45.656829999000081 ], [ 15.87219, 45.656871499000033 ], [ 15.871123500000067, 45.656415499000047 ], [ 15.870073, 45.65630599900004 ], [ 15.866296, 45.656321499000057 ], [ 15.864745, 45.656331999000031 ], [ 15.863408, 45.656823499000041 ], [ 15.862320500000067, 45.65754799900003 ], [ 15.861727500000029, 45.657721999000046 ], [ 15.861638500000026, 45.658002999000075 ], [ 15.861772, 45.659760499000072 ], [ 15.861207, 45.661769999000057 ], [ 15.86054450000006, 45.661284499000033 ], [ 15.859209500000077, 45.660824999000056 ], [ 15.858435500000041, 45.660924499000032 ], [ 15.856400500000063, 45.660789999000031 ], [ 15.855089, 45.660477999000079 ], [ 15.854696, 45.660342999000079 ], [ 15.853092500000059, 45.659073499000044 ], [ 15.852714500000047, 45.659155499000065 ], [ 15.852328, 45.659687499000029 ], [ 15.851518500000054, 45.660034999000061 ], [ 15.85039050000006, 45.660736999000051 ], [ 15.849935, 45.661162499000056 ], [ 15.849648500000058, 45.661463999000034 ], [ 15.849189500000023, 45.661603999000079 ], [ 15.848767500000065, 45.661590999000055 ], [ 15.848412500000052, 45.661796499000047 ], [ 15.848017500000026, 45.662040999000055 ], [ 15.84803, 45.662431999000034 ], [ 15.847996, 45.662747999000032 ], [ 15.847604500000045, 45.663131999000029 ], [ 15.847330500000055, 45.663194499000042 ], [ 15.846283500000027, 45.663386499000069 ], [ 15.845573, 45.663486499000044 ], [ 15.844937500000071, 45.663597999000046 ], [ 15.844672, 45.663859999000067 ], [ 15.842897500000049, 45.664221499000064 ], [ 15.839356500000065, 45.664603499000066 ], [ 15.838231, 45.664699499000051 ], [ 15.837378, 45.66541649900006 ], [ 15.83736650000003, 45.665654499000027 ], [ 15.836837500000058, 45.665903499000081 ], [ 15.836066500000072, 45.666048499000055 ], [ 15.835611, 45.666045499000063 ], [ 15.835021, 45.666720999000063 ], [ 15.83495350000004, 45.66692099900007 ], [ 15.835304, 45.667162999000027 ], [ 15.835085, 45.667387999000027 ], [ 15.834168500000033, 45.667526999000074 ], [ 15.83228, 45.668803999000033 ], [ 15.832229500000039, 45.669176499000059 ], [ 15.831742, 45.669491999000059 ], [ 15.831488500000034, 45.669655499000044 ], [ 15.830689, 45.669792499000039 ], [ 15.829894, 45.670244499000034 ], [ 15.829502500000046, 45.67075999900004 ], [ 15.829323500000044, 45.670819999000059 ], [ 15.829050500000051, 45.670654499000079 ], [ 15.828819500000066, 45.670572499000059 ], [ 15.828239500000052, 45.670574499000054 ], [ 15.82781, 45.670916499000043 ], [ 15.827317500000049, 45.670751499000062 ], [ 15.826725, 45.670629999000028 ], [ 15.825806500000056, 45.670704499000067 ], [ 15.825488500000063, 45.670585999000025 ], [ 15.825459500000022, 45.670323999000061 ], [ 15.824385500000062, 45.670200499000032 ], [ 15.82423650000004, 45.670338499000081 ], [ 15.823367500000074, 45.670678999000074 ], [ 15.823136500000032, 45.670641999000054 ], [ 15.82253, 45.670080499000051 ], [ 15.820277, 45.670154999000033 ], [ 15.819009, 45.67030199900006 ], [ 15.817872, 45.670545999000069 ], [ 15.816830500000037, 45.670907999000065 ], [ 15.816410500000075, 45.671500999000045 ], [ 15.816482, 45.672026999000025 ], [ 15.816364, 45.672258499000066 ], [ 15.815797500000031, 45.67319849900008 ], [ 15.815538, 45.674121999000079 ], [ 15.815571, 45.67465899900003 ], [ 15.815542, 45.675157499000079 ], [ 15.814935, 45.67530399900005 ], [ 15.8146, 45.675525499000059 ], [ 15.814334, 45.67582199900005 ], [ 15.814051, 45.676716499000065 ], [ 15.814085, 45.67766399900006 ], [ 15.813466500000061, 45.67768249900007 ], [ 15.813010500000075, 45.677811499000029 ], [ 15.81279, 45.678470499000071 ], [ 15.811073, 45.679337499000042 ], [ 15.810845, 45.679328499000064 ], [ 15.809554500000047, 45.679245499000046 ], [ 15.80861550000003, 45.67899249900006 ], [ 15.806680500000027, 45.679389499000081 ], [ 15.805942, 45.679668999000057 ], [ 15.80583, 45.679937499000062 ], [ 15.805581500000073, 45.680254999000056 ], [ 15.804766500000028, 45.680625999000029 ], [ 15.803132, 45.681302499000026 ], [ 15.80288, 45.681403499000055 ], [ 15.802943500000026, 45.681599999000071 ], [ 15.802410500000065, 45.681663999000079 ], [ 15.802252500000066, 45.681826999000066 ], [ 15.802202500000021, 45.682315499000026 ], [ 15.802329500000042, 45.68261349900007 ], [ 15.800523500000054, 45.682375499000045 ], [ 15.799304500000062, 45.682683499000063 ], [ 15.798414, 45.682703999000069 ], [ 15.795290500000021, 45.68234299900007 ], [ 15.793903500000056, 45.682974499000068 ], [ 15.791933, 45.683253999000044 ], [ 15.791408, 45.68365699900005 ], [ 15.790584, 45.683833499000059 ], [ 15.789372, 45.684459999000069 ], [ 15.788331, 45.684654999000031 ], [ 15.785483500000055, 45.686392999000077 ], [ 15.784833500000047, 45.686153499000056 ], [ 15.783436, 45.686846999000068 ], [ 15.78251, 45.687565499000073 ], [ 15.78179, 45.687681499000064 ], [ 15.779934, 45.688834499000052 ], [ 15.778864, 45.689165499000069 ], [ 15.777065, 45.68998749900004 ], [ 15.777292500000044, 45.690335499000071 ], [ 15.777264500000058, 45.690950999000052 ], [ 15.777595500000075, 45.69209599900006 ], [ 15.776693, 45.69399099900005 ], [ 15.776381, 45.69659099900008 ], [ 15.77667, 45.69735349900003 ], [ 15.776825500000029, 45.69860649900005 ], [ 15.77676, 45.701832999000032 ], [ 15.775891, 45.702829999000073 ], [ 15.775725, 45.703703999000027 ], [ 15.775273500000026, 45.704757999000037 ], [ 15.775496, 45.705181499000048 ], [ 15.775263, 45.705698999000049 ], [ 15.773901500000022, 45.706943999000032 ], [ 15.773220500000036, 45.708114999000031 ], [ 15.774974500000042, 45.710047999000039 ], [ 15.777404500000046, 45.712134499000058 ], [ 15.778004, 45.712942499000064 ], [ 15.779496, 45.717244999000059 ], [ 15.781052, 45.721108499000081 ], [ 15.782792, 45.723384499000076 ], [ 15.783338, 45.724374999000077 ], [ 15.784986500000059, 45.728731499000048 ], [ 15.78649, 45.730199499000037 ], [ 15.788864, 45.733073499000056 ], [ 15.789251, 45.733779999000035 ], [ 15.794030500000076, 45.731747499000051 ], [ 15.796101, 45.733576999000036 ], [ 15.796601500000065, 45.733418999000037 ], [ 15.798844, 45.734710999000072 ], [ 15.798512, 45.73503499900005 ], [ 15.802680500000065, 45.735853999000028 ], [ 15.802471500000024, 45.736328499000081 ] ] ] } }
]
}
